WikimediaLanguagecode;languagenameEnglish;territoryname;territorynameNative;QitemTerritory;demonym;demonymNative;ISO3166;ISO31662;regional;country;indigenous;officialnationalorregional;region;subregion;intermediateregion
;;;;;;;;;;;;;;;
aa;Afar;Afar;Qafar;Q193494;;;ET;ET-AF;yes;Ethiopia;yes;regional;Africa;Sub-Saharan Africa;Eastern Africa
aa;Afar;Somali;Somali;Q202800;;;ET;ET-SO;yes;Ethiopia;yes;regional;Africa;Sub-Saharan Africa;Eastern Africa
aa;Afar;Amhara;Amhara;Q203009;;;ET;ET-AM;yes;Ethiopia;yes;regional;Africa;Sub-Saharan Africa;Eastern Africa
aa;Afar;Ali Sabieh;Ali Sabieh;Q821008;;;DJ;DJ-AS;yes;Djibouti;yes;no;Africa;Sub-Saharan Africa;Eastern Africa
aa;Afar;Arta;Arta;Q705941;;;DJ;DJ-AR;yes;Djibouti;yes;no;Africa;Sub-Saharan Africa;Eastern Africa
aa;Afar;Obock;Obock;Q844929;;;DJ;DJ-OB;yes;Djibouti;yes;no;Africa;Sub-Saharan Africa;Eastern Africa
aa;Afar;Dikhil;Dikhil;Q283979;;;DJ;DJ-DI;yes;Djibouti;yes;no;Africa;Sub-Saharan Africa;Eastern Africa
aa;Afar;Debubawi Keyih;Debubawi K'eyih;Q27728;;;ER;ER-DU;yes;Eritrea;yes;no;Africa;Sub-Saharan Africa;Eastern Africa
aa;Afar;Semenawi Keyi Bahri;Semenawi Keyi Bahri;Q27910;;;ER;ER-SK;yes;Eritrea;yes;no;Africa;Sub-Saharan Africa;Eastern Africa
ab;Abkhaz;Abkhazia;_____;Q23334;Abkhaz;;GE;GE-AB;yes;Georgia;yes;regional;Asia;Western Asia;
ace;Aceh;Aceh;Acèh;Q1823;;;ID;ID-AC;yes;Indonesia;yes;no;Asia;South-eastern Asia;
ace;Aceh;Sumatera Utara;Sumatra Barôh;Q2140;;;ID;ID-SU;yes;Indonesia;yes;no;Asia;South-eastern Asia;
ady;Adyghe;Republic of Adygea;______;Q3734;;;RU;RU-AD;yes;Russian Federation;yes;regional;Europe;Eastern Europe;
ady;Adyghe;Krasnodar Krai;_________ ____;Q3680;;;RU;RU-KDA;yes;Russian Federation;yes;regional;Europe;Eastern Europe;
ady;Adyghe;Karachay-Cherkessia;________-______;Q5328;;;RU;RU-KC;yes;Russian Federation;yes;regional;Europe;Eastern Europe;
af;Afrikaans;South Africa;Suid-Afrika;Q258;South African;Suid-Afrikaner;ZA;;no;South Africa;yes;national;Africa;Sub-Saharan Africa;Southern Africa
af;Afrikaans;Central;Sentraal distrik;Q57525;;;BW;BW-CE;yes;Botswana;yes;no;Africa;Sub-Saharan Africa;Southern Africa
af;Afrikaans;Ghanzi;Ghanzi;Q57571;;;BW;BW-GH;yes;Botswana;yes;no;Africa;Sub-Saharan Africa;Southern Africa
af;Afrikaans;Kgalagadi;Kgalagadi;Q57581;;;BW;BW-KG;yes;Botswana;yes;no;Africa;Sub-Saharan Africa;Southern Africa
af;Afrikaans;Kgatleng;Kgatleng;Q57593;;;BW;BW-KL;yes;Botswana;yes;no;Africa;Sub-Saharan Africa;Southern Africa
af;Afrikaans;Southern;Suid distrik;Q57609;;;BW;BW-SO;yes;Botswana;yes;no;Africa;Sub-Saharan Africa;Southern Africa
af;Afrikaans;Botswana;Botswana;Q963;"Motswana;Botswanan;Batswana";;BW;;no;Botswana;yes;no;Africa;Sub-Saharan Africa;Southern Africa
ak;Akan;Ghana;Ghana;Q117;Ghanaian;;GH;;no;Ghana;yes;no;Africa;Sub-Saharan Africa;Western Africa
als;German, Swiss;Switzerland;Schweiz;Q39;Swiss;;CH;;no;Switzerland;yes;no;Europe;Western Europe;
als;German, Swiss;Vorarlberg;Vorarlberg;Q38981;;;AT;AT-8;yes;Austria;yes;no;Europe;Western Europe;
als;German, Swiss;Champagne-Ardenne;Champagne-Ardenne;Q14103;;;FR;FR-G;yes;France;yes;no;Europe;Western Europe;
als;German, Swiss;Lorraine;Lothringen;Q1137;;;FR;FR-M;yes;France;yes;no;Europe;Western Europe;
als;German, Swiss;Alsace;Elsass;Q1142;;;FR;FR-A;yes;France;yes;no;Europe;Western Europe;
als;German, Swiss;Baden-Württemberg;Baden-Württemberg;Q985;;;DE;DE-BW;yes;Germany;yes;no;Europe;Western Europe;
als;German, Swiss;Liechtenstein;Liechtenstein;Q347;Liechtensteiner;;LI;;no;Liechtenstein;yes;no;Europe;Western Europe;
als;Swabian;Swabia;Schwaben;Q11812551;;;DE;;yes;Germany;yes;no;Europe;Western Europe;
am;Amharic;Amhara;___;Q203009;;;ET;ET-AM;yes;Ethiopia;yes;national;Africa;Sub-Saharan Africa;Eastern Africa
am;Amharic;Addis Ababa;___ ___;Q3624;;;ET;ET-AA;yes;Ethiopia;yes;national;Africa;Sub-Saharan Africa;Eastern Africa
an;Aragonese;Huesca;Uesca;Q55182;;;ES;ES-HU;yes;Spain;yes;no;Europe;Southern Europe;
an;Aragonese;Zaragoza;Zaragoza;Q55180;;;ES;ES-Z;yes;Spain;yes;no;Europe;Southern Europe;
an;Aragonese;Aragon;Aragón;Q4040;;;ES;ES-AR;yes;Spain;yes;no;Europe;Southern Europe;
ang;Old English;England;Englaland;Q21;English;Ænglisc;GB;GB-ENG;yes;United Kingdom;yes;yes;Europe;Northern Europe;
ar;Arabic, Baharna Spoken;Bahrain;_______;Q398;Bahraini;"______;______;_______";BH;;no;Bahrain;yes;no;Asia;Western Asia;
ar;Arabic, Chadian Spoken;Chad;____;Q657;Chadian;"_____;______;_______";TD;;no;Chad;yes;no;Africa;Sub-Saharan Africa;Middle Africa
ar;Arabic, Cypriot Spoken;Kyrenia;_____ _______;Q59146;;;CY;CY-06;yes;Cyprus;yes;no;Asia;Western Asia;
ar;Arabic, Cypriot Spoken;Limassol;_____ _______;Q59150;;;CY;CY-02;yes;Cyprus;yes;no;Asia;Western Asia;
ar;Arabic, Cypriot Spoken;Nicosia;_____ _______;Q59147;;;CY;CY-01;yes;Cyprus;yes;no;Asia;Western Asia;
ar;Arabic;Bethlehem;______ ___ ___;Q247037;;;PS;PS-BTH;yes;Palestine;yes;no;Asia;Western Asia;
ar;Arabic;Jericho;_____;Q658527;;;PS;PS-JRH;yes;Palestine;yes;no;Asia;Western Asia;
ar;Arabic;Jerusalem;______ _____;Q941828;;;PS;PS-JEM;yes;Palestine;yes;no;Asia;Western Asia;
ar;Arabic;Egypt;___;Q79;Egyptian;"________;__________;____________";EG;;no;Egypt;yes;no;Africa;Northern Africa;
ar;Arabic, Libyan Spoken;Agadez;_____ ______;Q389944;;;NE;NE-1;yes;Niger;yes;no;Africa;Sub-Saharan Africa;Western Africa
ar;Arabic, Libyan Spoken;Diffa;_____ ____;Q1053302;;;NE;NE-2;yes;Niger;yes;no;Africa;Sub-Saharan Africa;Western Africa
ar;Arabic, Libyan Spoken;Zinder;_____ _____;Q204367;;;NE;NE-7;yes;Niger;yes;no;Africa;Sub-Saharan Africa;Western Africa
ar;Arabic, Mesopotamian Spoken;Bushehr;_____;Q132945;;;IR;IR-06;yes;Iran;yes;no;Asia;Southern Asia;
ar;Arabic, Mesopotamian Spoken;Khuzestan;______ _______;Q241119;;;IR;IR-10;yes;Iran;yes;no;Asia;Southern Asia;
ar;Arabic;Saudi Arabia;________;Q851;"Saudi Arabian;Saudi";"_______;_____;______";SA;;no;Saudi Arabia;yes;yes;Asia;Western Asia;
ar;Arabic, North Levantine Spoken;Hatay;_____;Q83274;;;TR;TR-31;yes;Turkey;yes;no;Asia;Western Asia;
ar;Arabic Standard;Jordan;______;Q810;Jordanian;"_____;______;_______";JO;;no;Jordan;yes;no;Asia;Western Asia;
ar;Arabic, South Levantine Spoken;HaTsafon;_____ ______;Q189942;;;IL;IL-Z;yes;Israel;yes;no;Asia;Western Asia;
ar;Arabic, South Levantine Spoken;Palestine;______;Q23792;;;PS;;no;Palestine;yes;no;Asia;Western Asia;
ar;Arabic, Standard;Algeria;_______;Q262;Algerian;"________;______;_______";DZ;;no;Algeria;no;national;Africa;Northern Africa;
ar;Arabic, Standard;Comoros;___ _____;Q970;Comorian;"____;_____;______";KM;;no;Comoros;no;national;Africa;Sub-Saharan Africa;Eastern Africa
ar;Arabic, Standard;Djibouti;______;Q977;Djiboutian;"______;_______;________";DJ;;no;Djibouti;no;national;Africa;Sub-Saharan Africa;Eastern Africa
ar;Arabic, Standard;Eritrea;_______;Q986;Eritrean;"______;_______;________";ER;;no;Eritrea;no;national;Africa;Sub-Saharan Africa;Eastern Africa
ar;Arabic, Standard;Iraq;______;Q796;Iraqi;"______;_____;_______";IQ;;no;Iraq;no;national;Asia;Western Asia;
ar;Arabic, Standard;Israel;_______;Q801;"Israelis;Israeli";"_________;__________;__________";IL;;no;Israel;no;national;Asia;Western Asia;
ar;Arabic, Standard;Kuwait;______;Q817;Kuwaiti;"_____;______;_______";KW;;no;Kuwait;no;national;Asia;Western Asia;
ar;Arabic, Standard;Lebanon;_____;Q822;Lebanese;"_______;______;________";LB;;no;Lebanon;no;national;Asia;Western Asia;
ar;Arabic, Standard;Libya;_____;Q1016;Libyan;"____;_____;______";LY;;no;Libya;no;national;Africa;Northern Africa;
ar;Arabic, Standard;Mauritania;_________;Q1025;Mauritanian;"________;_________;__________";MR;;no;Mauritania;no;national;Africa;Sub-Saharan Africa;Western Africa
ar;Arabic, Standard;Morocco;______;Q1028;Moroccan;"______;_____;______";MA;;no;Morocco;no;national;Africa;Northern Africa;
ar;Arabic, Standard;Oman;_____ ____;Q842;Omani;"_____;_______;______";OM;;no;Oman;no;national;Asia;Western Asia;
ar;Arabic, Standard;Qatar;___;Q846;Qatari;"____;____;_____;______";QA;;no;Qatar;no;national;Asia;Western Asia;
ar;Arabic, Standard;Somalia;_______;Q1045;Somali;"_______;______;________";SO;;no;Somalia;no;national;Africa;Sub-Saharan Africa;Eastern Africa
ar;Arabic, Standard;Syria;_____;Q858;Syrian;"____;_____;______";SY;;no;Syria;no;national;Asia;Western Asia;
ar;Arabic, Standard;Tunisia;____;Q948;Tunisian;"_____;_______;______;_______";TN;;no;Tunisia;no;national;Africa;Northern Africa;
ar;Arabic, Standard;United Arab Emirates;________ _______ _______;Q878;;"_______;________ ;_________";AE;;no;United Arab Emirates;no;national;Asia;Western Asia;
ar;Arabic, Standard;Western Sahara;_______ _______;Q6250;;;EH;;no;Western Sahara;no;national;Africa;Northern Africa;
ar;Arabic, Standard;Yemen;_____;Q805;Yemeni;"____;_____;______";YE;;no;Yemen;no;national;Asia;Western Asia;
ar;Arabic, Sudanese Spoken;Sudan;_______;Q1049;Sudanese;"______;_______;________";SD;;no;Sudan;yes;no;Africa;Northern Africa;
ar;Arabic, Sudanese Spoken;South Sudan;____ _______;Q958;South Sudanese;;SS;;no;South Sudan;yes;no;Africa;Sub-Saharan Africa;Eastern Africa
ar;Arabic, Uzbeki Spoken;Buxoro;_____ _____;Q487372;;;UZ;UZ-BU;yes;Uzbekistan;yes;no;Asia;Central Asia;
ar;Arabic, Uzbeki Spoken;Qashqadaryo;_____ ________;Q487577;;;UZ;UZ-QA;yes;Uzbekistan;yes;no;Asia;Central Asia;
ar;Arabic, Uzbeki Spoken;Navoiy;_____ _____;Q487570;;;UZ;UZ-NW;yes;Uzbekistan;yes;no;Asia;Central Asia;
arc;Jewish Babylonian Aramaic;Jerusalem;______;Q192232;;;IL;IL-JM;yes;Israel;yes;no;Asia;Western Asia;
arc;Assyrian Neo-Aramaic;Baghdad;_____;Q191075;;;IQ;IQ-BG;yes;Iraq;yes;no;Asia;Western Asia;
arc;Assyrian Neo-Aramaic;Kirkuk;___ ____;Q193268;;;IQ;IQ-KI;yes;Iraq;yes;no;Asia;Western Asia;
arc;Assyrian Neo-Aramaic;Basra;____;Q193551;;;IQ;IQ-BA;yes;Iraq;yes;no;Asia;Western Asia;
arc;Chaldean Neo-Aramaic;Dahuk;______ (______);Q152831;;;IQ;IQ-DA;yes;Iraq;yes;no;Asia;Western Asia;
arz;Arabic, Egyptian Spoken;Egypt;___;Q79;Egyptian;;EG;;no;Egypt;yes;no;Africa;Northern Africa;
as;Assamese;Arunachal Pradesh;_______ ______;Q1162;;;IN;IN-AR;yes;India;yes;regional;Asia;Southern Asia;
as;Assamese;Assam;___;Q1164;;;IN;IN-AS;yes;India;yes;regional;Asia;Southern Asia;
as;Assamese;Meghalaya;_______;Q1195;;;IN;IN-ML;yes;India;yes;regional;Asia;Southern Asia;
as;Assamese;Nagaland;_________;Q1599;;;IN;IN-NL;yes;India;yes;regional;Asia;Southern Asia;
as;Assamese;West Bengal;__________;Q1356;;;IN;IN-WB;yes;India;yes;regional;Asia;Southern Asia;
ast;Asturian;Cantabria;Cantabria;Q3946;;;ES;ES-CB;yes;Spain;yes;no;Europe;Southern Europe;
ast;Asturian;Asturias;Asturies;Q3934;asturian;asturiano;ES;ES-AS;yes;Spain;yes;no;Europe;Southern Europe;
ast;Asturian;León;Llión;Q71140;leonés;leonés;ES;ES-BU;yes;Spain;yes;no;Europe;Southern Europe;
ast;Asturian;Zamora;Zamora;Q71113;;;ES;ES-ZA;yes;Spain;yes;no;Europe;Southern Europe;
atj;Atikamekw;Quebec;;Q176;;;CA;CA-QC;yes;Canada;yes;no;Americas;Northern America;
av;Avar;Dagestan Republic;_________;Q5118;;;RU;RU-DA;yes;Russian Federation;yes;no;Europe;Eastern Europe;
av;Avar;Chechen Republic;__________;Q5187;;;RU;RU-CE;yes;Russian Federation;yes;no;Europe;Eastern Europe;
av;Avar;Zaqatala;________ _____;Q147553;;;AZ;AZ-ZAQ;yes;Azerbaijan;yes;no;Asia;Western Asia;
av;Avar;Balakan;______ _____;Q330850;;;AZ;AZ-BAL;yes;Azerbaijan;yes;no;Asia;Western Asia;
av;Avar;Kakheti;;Q169674;;;GE;GE-KA;yes;Georgia;yes;no;Asia;Western Asia;
ay;Aymara;Bolivia;Wuliwya;Q750;Bolivian;;BO;;no;Bolivia;yes;no;Americas;Latin America and the Caribbean;South America
ay;Aymara, Central;Oruro;Ururu jach'a suyu;Q1061368;;;BO;BO-O;yes;Bolivia;yes;no;Americas;Latin America and the Caribbean;South America
ay;Aymara, Central;Potosí;Putusi jach'a suyu;Q238079;;;BO;BO-P;yes;Bolivia;yes;no;Americas;Latin America and the Caribbean;South America
ay;Aymara, Central;La Paz;Chuqiyapu jach'a suyu;Q272784;;;BO;BO-L;yes;Bolivia;yes;no;Americas;Latin America and the Caribbean;South America
ay;Aymara, Central;Tarapacá;;Q2114;;;CL;CL-TA;yes;Chile;yes;no;Americas;Latin America and the Caribbean;South America
ay;Aymara, Central;Antofagasta;;Q2118;;;CL;CL-AN;yes;Chile;yes;no;Americas;Latin America and the Caribbean;South America
ay;Aymara, Southern;Puno;Punu jach'a suyu;Q205104;;;PE;PE-PUN;yes;Peru;yes;no;Americas;Latin America and the Caribbean;South America
ay;Aymara, Southern;Tacna;Taqna jach'a suyu;Q207413;;;PE;PE-TAC;yes;Peru;yes;no;Americas;Latin America and the Caribbean;South America
ay;Aymara, Southern;Moquegua;Moqwegwa jach'a suyu;Q208182;;;PE;PE-MOQ;yes;Peru;yes;no;Americas;Latin America and the Caribbean;South America
az;Azerbaijani, North;Azerbaijan;Az_rbaycan;Q227;"Azeri;Azerbaijani";;AZ;;no;Azerbaijan;yes;national;Asia;Western Asia;
az;Azerbaijani, North;Kakheti;Kaxetiya;Q169674;;;GE;GE-KA;yes;Georgia;yes;no;Asia;Western Asia;
az;Azerbaijani, North;Kvemo Kartli;A_a_ı Kartli;Q200048;;;GE;GE-KK;yes;Georgia;yes;no;Asia;Western Asia;
az;Azerbaijani, North;Samtskhe-Javakheti;Samtsxe-Cavaxeti;Q19039;;;GE;GE-SJ;yes;Georgia;yes;no;Asia;Western Asia;
azb;Azerbaijani, South;Azarbayjan-e Gharbi;____ _________ _______;Q176081;;;IR;IR-1;yes;Iran;yes;;Asia;Southern Asia;
azb;Azerbaijani, South;West Azarbayjan;____ _________ _______;Q134411;;;IR;IR-2;yes;Iran;yes;;Asia;Southern Asia;
az;Azerbaijani, South;Kars;Qars vilay_ti;Q83077;;;TR;TR-36;yes;Turkey;yes;no;Asia;Western Asia;
ba;Bashkort;Sverdlovsk;__________ ______;Q5462;;;RU;RU-SVE;yes;Russian Federation;yes;no;Europe;Eastern Europe;
ba;Bashkort;Chelyabinsk;______ ______;Q5714;;;RU;RU-CHE;yes;Russian Federation;yes;no;Europe;Eastern Europe;
ba;Bashkort;Kurgan;______ ______;Q5741;;;RU;RU-KGN;yes;Russian Federation;yes;no;Europe;Eastern Europe;
ba;Bashkort;Bashkortostan;____________;Q5710;;;RU;RU-BA;yes;Russian Federation;yes;no;Europe;Eastern Europe;
bar;Bavarian;Salzburg;Soizburg;Q43325;;;AT;AT-5;yes;Austria;yes;no;Europe;Western Europe;
bar;Bavarian;Lower Austria;Niadaöstareich;Q42497;;;AT;AT-3;yes;Austria;yes;no;Europe;Western Europe;
bar;Bavarian;Bavaria;Bayern;Q980;;;DE;;yes;Germany;yes;no;Europe;Western Europe;
bar;Bavarian;Trentino-South Tyrol;Trentino-Sidtiroul;Q1237;;;IT;IT-32;yes;Italy;no;yes;Europe;Southern Europe;
bar;Bavarian;Carinthia;Karntn;Q37985;;;AT;AT-2;yes;Austria;yes;no;Europe;Western Europe;
bar;Bavarian;Styria;Steiamoak;Q41358;;;AT;AT-6;yes;Austria;yes;no;Europe;Western Europe;
bar;Bavarian;Burgenland;Burgnland;Q43210;;;AT;AT-1;yes;Austria;yes;no;Europe;Western Europe;
bat_smg;Samogitian;Lithuania;Lietova;Q37;Lithuanian;;LT;;no;Lithuania;yes;no;Europe;Northern Europe;
bcl;Bikol, Central;Bicol;Rehiyon Bikol;Q13662;;;PH;PH-05;yes;Philippines;yes;no;Asia;South-eastern Asia;
bcl;Bikol, Central;Albay;Albay;Q13726;;;PH;PH-ALB;yes;Philippines;yes;no;Asia;South-eastern Asia;
bcl;Bikol, Central;Camarines Norte;Camarines Norte;Q13763;;;PH;PH-CAN;yes;Philippines;yes;no;Asia;South-eastern Asia;
bcl;Bikol, Central;Camarines Sur;Camarines Sur;Q13767;;;PH;PH-CAS;yes;Philippines;yes;no;Asia;South-eastern Asia;
bcl;Bikol, Central;Catanduanes;Catanduanes;Q13778;;;PH;PH-CAT;yes;Philippines;yes;no;Asia;South-eastern Asia;
bcl;Bikol, Central;Masbate;Masbate;Q13847;;;PH;PH-MAS;yes;Philippines;yes;no;Asia;South-eastern Asia;
bcl;Bikol, Central;Sorsogon;Sorsogon;Q13881;;;PH;PH-SOR;yes;Philippines;yes;no;Asia;South-eastern Asia;
bcl;Bikol, Central;Calabarzon;Calabarzon;Q13650;;;PH;PH-40;yes;Philippines;yes;no;Asia;South-eastern Asia;
bcl;Bikol, Central;Quezon;Quezon;Q13872;;;PH;PH-QUE;yes;Philippines;yes;no;Asia;South-eastern Asia;
be;Belarusian;Belarus;________;Q184;Belarusian;;BY;;no;Belarus;yes;national;Europe;Eastern Europe;
be_x_old;Belarusian;Belarusian (Tara_kievica);________;Q184;Belarusian;;BY;;no;Belarus;yes;national;Europe;Eastern Europe;
bg;Bulgarian;Bulgaria;________;Q219;Bulgarian;_________;BG;;no;Bulgaria;yes;national;Europe;Eastern Europe;
bg;Bulgarian;Xanthi;______;Q208303;;;GR;GR-72;yes;Greece;yes;no;Europe;Southern Europe;
bg;Bulgarian;Pirot;________ _____;Q580069;;;RS;RS-22;yes;Serbia;yes;regional;Europe;Southern Europe;
bg;Bulgarian;Edirne;_____;Q83102;;;TR;TR-22;yes;Turkey;yes;no;Asia;Western Asia;
bh;Magahi;Bihar;_____;Q1165;;;IN;IN-BR;yes;India;yes;no;Asia;Southern Asia;
bh;Magahi;Jharkhand;________;Q1184;;;IN;IN-JH;yes;India;yes;no;Asia;Southern Asia;
bh;Maithili;Delhi;______;Q1353;;;IN;IN-DL;yes;India;yes;regional;Asia;Southern Asia;
bh;Maithili;Kolkata;______;Q1348;;;IN;;yes;India;yes;regional;Asia;Southern Asia;
bh;Maithili;Mumbai;_____;Q1156;;;IN;;yes;India;yes;regional;Asia;Southern Asia;
bh;Maithili;Janakpur;______;Q9152;;;NP;NP-JA;yes;Nepal;yes;no;Asia;Southern Asia;
bh;Maithili;Kosi;____;Q9170;;;NP;NP-KO;yes;Nepal;yes;no;Asia;Southern Asia;
bh;Maithili;Narayani;_______ ;Q9183;;;NP;NP-NA;yes;Nepal;yes;no;Asia;Southern Asia;
bh;Maithili;Sagarmatha;_______ ;Q9195;;;NP;NP-SA;yes;Nepal;yes;no;Asia;Southern Asia;
bh;Bhojpuri;Assam;____;Q1164;;;IN;IN-AS;yes;India;yes;no;Asia;Southern Asia;
bh;Bhojpuri;Madhya Pradesh;"	____ ______";Q1188;;;IN;IN-MP;yes;India;yes;no;Asia;Southern Asia;
bh;Bhojpuri;Uttar Pradesh;_____ ______;Q1498;;;IN;IN-UP;yes;India;yes;no;Asia;Southern Asia;
bh;Bhojpuri;West Bengal;______ _____;Q1356;;;IN;IN-WB;yes;India;yes;no;Asia;Southern Asia;
bi;Bislama;Vanuatu;Vanuatu;Q686;Ni-Vanuatu;;VU;;no;Vanuatu;yes;national;Oceania;Melanesia;
bjn;Banjar;Kalimantan;;Q3795;;;ID;ID-KA;yes;Indonesia;yes;no;Asia;South-eastern Asia;
bjn;Banjar;Kalimantan Selatan;Kalimantan Salatan;Q3906;;;ID;ID-KS;yes;Indonesia;yes;no;Asia;South-eastern Asia;
bjn;Banjar;Kalimantan Tengah;Kalimantan Tangah;Q3891;;;ID;ID-KT;yes;Indonesia;yes;no;Asia;South-eastern Asia;
bjn;Banjar;Kalimantan Timur;Kalimantan Timur;Q3899;;;ID;ID-KI;yes;Indonesia;yes;no;Asia;South-eastern Asia;
bjn;Banjar;Kalimantan Barat;Kalimantan Barat;Q3916;;;ID;ID-KB;yes;Indonesia;yes;no;Asia;South-eastern Asia;
bm;Bamanankan;Mali;Mali;Q912;Malian;;ML;;no;Mali;yes;no;Africa;Sub-Saharan Africa;Western Africa
bn;Bengali;Bangladesh;________;Q902;Bangladeshi;_________;BD;;no;Bangladesh;yes;national;Asia;Southern Asia;
bn;Bengali;Assam;____;Q1164;;;IN;IN-AS;yes;India;yes;regional;Asia;Southern Asia;
bn;Bengali;Bihar;_____;Q1165;;;IN;IN-BR;yes;India;yes;regional;Asia;Southern Asia;
bn;Bengali;Jharkhand;________;Q1184;;;IN;IN-JH;yes;India;yes;regional;Asia;Southern Asia;
bn;Bengali;Odisha;______;Q22048;;;IN;IN-OR;yes;India;yes;regional;Asia;Southern Asia;
bn;Bengali;West Bengal;__________;Q1356;;;IN;IN-WB;yes;India;yes;regional;Asia;Southern Asia;
bn;Bengali;Tripura;________;Q1363;;;IN;IN-TR;yes;India;yes;regional;Asia;Southern Asia;
bo;Tibetan, Central;Tibet Autonomous Region;________;Q17269;;;CN;CN-54;yes;China;yes;regional;Asia;Eastern Asia;
bo;Tibetan, Central;Xinjiang;_____________________________;Q34800;;;CN;CN-XJ;yes;China;yes;regional;Asia;Eastern Asia;
bo;Tibetan, Central;Himachal Pradesh;________________;Q1177;;;IN;IN-HP;yes;India;yes;no;Asia;Southern Asia;
bo;Tibetan, Central;Arunachal Pradesh;___________________;Q1162;;;IN;IN-AR;yes;India;yes;no;Asia;Southern Asia;
bo;Tibetan, Central;Assam;______;Q1164;;;IN;IN-AS;yes;India;yes;no;Asia;Southern Asia;
bo;Tibetan, Central;Delhi;;Q1353;;;IN;IN-DL;yes;India;yes;no;Asia;Southern Asia;
bo;Tibetan, Central;Uttarakhand;;Q1499;;;IN;IN-UT;yes;India;yes;no;Asia;Southern Asia;
bo;Tibetan, Central;Sikkim;___________;Q1505;;;IN;IN-SK;yes;India;yes;no;Asia;Southern Asia;
bpy;Bishnupriya;Assam;___;Q1164;;;IN;IN-AS;yes;India;yes;no;Asia;Southern Asia;
bpy;Bishnupriya;Tripura;________;Q1363;;;IN;IN-TR;yes;India;yes;no;Asia;Southern Asia;
bpy;Bishnupriya;Sylhet;_____ _____;Q459732;;;BD;BD-G;yes;Bangladesh;yes;no;Asia;Southern Asia;
bpy;Bishnupriya;Habiganj;_______ ____;Q1438974;;;BD;BD-20;yes;Bangladesh;yes;no;Asia;Southern Asia;
bpy;Bishnupriya;Moulvibazar;__________ ____;Q281435;;;BD;BD-38;yes;Bangladesh;yes;no;Asia;Southern Asia;
bpy;Bishnupriya;Sunamganj;_________ ____;Q2093388;;;BD;BD-61;yes;Bangladesh;yes;no;Asia;Southern Asia;
br;Breton;Brittany;Breizh;Q327;Breton;;FR;FR-E;yes;France;yes;no;Europe;Western Europe;
bs;Bosnian;Bosnia and Herzegovina;Bosna i Hercegovina;Q225;"Herzegovinian;Bosnian";"Bosanac;Hercegovac";BA;;no;Bosnia and Herzegovina;yes;national;Europe;Southern Europe;
bug;Bugis;Sulawesi Barat;_______ ____;Q5082;;;ID;ID-SR;yes;Indonesia;yes;no;Asia;South-eastern Asia;
bug;Bugis;Sulawesi;Sulawési;Q3812;;;ID;ID-SL;yes;Indonesia;yes;no;Asia;South-eastern Asia;
bxr;Buriat;Irkutsk;_____ ____;Q6585;;;RU;RU-IRK;yes;Russian Federation;yes;no;Europe;Eastern Europe;
bxr;Buriat;Buryatia Republic;______ ____;Q6809;;;RU;RU-BU;yes;Russian Federation;yes;no;Europe;Eastern Europe;
bxr;Buriat, China;Nei Mongol;____ ______;Q41079;;;CN;CN-15;yes;China;yes;no;Asia;Eastern Asia;
ca;Catalan;Catalonia;Catalunya;Q5705;Catalan;"catalana; catalans; català";ES;ES-CT;yes;Spain;yes;regional;Europe;Southern Europe;
ca;Catalan;Balearic Islands;Illes Balears;Q5765;;"balear;mallorqui; menorqui; eïvissenc";ES;ES-IB;yes;Spain;yes;regional;Europe;Southern Europe;
ca;Catalan;La Franja;Franja de Ponent;Q15579;;;ES;;yes;Spain;yes;regional;Europe;Southern Europe;
ca;Catalan;País Valencià;País Valencià;Q5720;;"Valencià; valenciana";ES;ES-VC;yes;Spain;yes;regional;Europe;Southern Europe;
ca;Catalan;Andorra;Andorra;Q228;Andorran;"andorrà;andorrana";AD;;no;Andorra;yes;national;Europe;Southern Europe;
cbk_zam;Chavacano;Basilan;Basilan;Q13737;;;PH;PH-BAS;yes;Philippines;yes;no;Asia;South-eastern Asia;
cbk_zam;Chavacano;Zamboanga del Sur;Zamboanga del Sur;Q13900;;;PH;PH-ZAS;yes;Philippines;yes;no;Asia;South-eastern Asia;
cbk_zam;Chavacano;Zamboanga Peninsula;Peninsula de Zamboanga;Q13682;;;PH;PH-09;yes;Philippines;yes;no;Asia;South-eastern Asia;
cbk_zam;Chavacano;Zamboanga del Norte;Zamboanga del Norte;Q13899;;;PH;PH-ZAN;yes;Philippines;yes;no;Asia;South-eastern Asia;
cbk_zam;Chavacano;Zamboanga Sibugay;Zamboanga Sibugay;Q13902;;;PH;PH-ZSI;yes;Philippines;yes;no;Asia;South-eastern Asia;
cbk_zam;Chavacano;Cotabato;Cotabato;Q13791;;;PH;PH-NCO;yes;Philippines;yes;no;Asia;South-eastern Asia;
cbk_zam;Chavacano;Isabela;Isabela;Q13826;;;PH;PH-ISA;yes;Philippines;yes;no;Asia;South-eastern Asia;
cbk_zam;Chavacano;Cavite;Cavite;Q13785;;;PH;PH-CAV;yes;Philippines;yes;no;Asia;South-eastern Asia;
cdo;Chinese, Min Dong;Fujian;Hók-gióng;Q41705;;;CN;CN-FJ;yes;China;yes;no;Asia;Eastern Asia;
cdo;Chinese, Min Dong;Zhejiang;Ciék-g_ng;Q16967;;;CN;CN-ZJ;yes;China;yes;no;Asia;Eastern Asia;
ce;Chechen;Chechen Republic;_________;Q5187;;;RU;RU-CE;yes;Russian Federation;yes;regional;Europe;Eastern Europe;
ce;Chechen;Dagestan Republic;________;Q5118;;;RU;RU-DA;yes;Russian Federation;yes;regional;Europe;Eastern Europe;
ce;Chechen;Ingushetiya Republic;___________;Q5219;;;RU;RU-IN;yes;Russian Federation;yes;regional;Europe;Eastern Europe;
ce;Chechen;North Caucasus;__________ ______;Q37736;;;RU;;yes;Russian Federation;yes;regional;Europe;Eastern Europe;
ceb;Cebuano;Bicol;Bikol;Q13662;;;PH;PH-05;yes;Philippines;yes;no;Asia;South-eastern Asia;
ceb;Cebuano;Central Visayas;Tunga-tungang Kabisay-an;Q13669;;;PH;PH-07;yes;Philippines;yes;no;Asia;South-eastern Asia;
ceb;Cebuano;Eastern Visayas;Sidlakang Kabisay-an;Q13675;;;PH;PH-08;yes;Philippines;yes;no;Asia;South-eastern Asia;
ceb;Cebuano;Mindanao;Mindanao;Q124873;;;PH;PH-10;yes;Philippines;yes;no;Asia;South-eastern Asia;
ceb;Cebuano;Philippines;Pilipinas;Q928;"Philippine;Filipino;Filipina";;PH;;no;Philippines;yes;no;Asia;South-eastern Asia;
ch;Chamorro;Guam;Guåhån;Q16635;;;GU;;no;Guam;yes;national;Oceania;Micronesia;
ch;Chamorro;Northern Mariana Islands;Northern Mariana Islands;Q16644;;;MP;;no;Northern Mariana Islands;yes;no;Oceania;Micronesia;
cho;Choctaw;Louisiana;;Q1588;;;US;US-LA;yes;United States;yes;no;Americas;Northern America;
cho;Choctaw;Mississippi;;Q1494;;;US;US-MS;yes;United States;yes;no;Americas;Northern America;
cho;Choctaw;Tennessee;;Q1509;;;US;US-TN;yes;United States;yes;no;Americas;Northern America;
chr;Cherokee;Oklahoma;_____;Q1649;;;US;US-OK;yes;United States;yes;no;Americas;Northern America;
chr;Cherokee;Great Smoky Mountains;__ ____ ___;Q1360486;;;US;US-NC;yes;United States;yes;no;Americas;Northern America;
chy;Cheyenne;Montana;Ho'honáé_é'e;Q1212;;;US;US-MT;yes;United States;yes;no;Americas;Northern America;
ckb;Kurdish, Central;Arbil;______;Q132754;;;IQ;IQ-AR;yes;Iraq;yes;regional;Asia;Western Asia;
ckb;Kurdish, Central;As Sulaymaniyah;"	_______";Q191204;;;IQ;IQ-SW;yes;Iraq;yes;regional;Asia;Western Asia;
ckb;Kurdish, Central;Kirkuk; _______;Q193268;;;IQ;IQ-KI;yes;Iraq;yes;regional;Asia;Western Asia;
ckb;Kurdish, Central;Sulaymaniyah; _______;Q213182;;;IQ;IQ-SU;yes;Iraq;yes;regional;Asia;Western Asia;
ckb;Kurdish, Central;Diyala; _____;Q217075;;;IQ;IQ-DI;yes;Iraq;yes;regional;Asia;Western Asia;
ckb;Kurdish, Central;Salah ad Din; __________;Q190131;;;IQ;IQ-SD;yes;Iraq;yes;regional;Asia;Western Asia;
ckb;Kurdish, Central;West Azarbaijan; ____________ ______;Q134411;;;IR;IR-02;yes;Iran;yes;no;Asia;Southern Asia;
ckb;Kurdish, Central;Zanjan; ______;Q146726;;;IR;IR-11;yes;Iran;yes;no;Asia;Southern Asia;
ckb;Kurdish, Central;Kerman; _____;Q165352;;;IR;IR-15;yes;Iran;yes;no;Asia;Southern Asia;
ckb;Kurdish, Central;Kermanshah; _______;Q174010;;;IR;IR-17;yes;Iran;yes;no;Asia;Southern Asia;
ckb;Kurdish, Central;Hamadan; _______;Q187373;;;IR;IR-24;yes;Iran;yes;no;Asia;Southern Asia;
ckb;Kurdish, Central;Kurdistan Province; ________;Q134386;;;IR;;yes;Iran;yes;no;Asia;Southern Asia;
co;Corsican;Corsica;Corsica;Q14112;;;FR;FR-COR;yes;France;yes;no;Europe;Western Europe;
co;Corsican;Sardinia;Sardegna;Q1462;;;IT;IT-88;yes;Italy;yes;no;Europe;Southern Europe;
cr;Cree;Canada;___;Q16;Canadian;;CA;;no;Canada;yes;no;Americas;Northern America;
cr;Cree, Moose;Ontario;_____;Q1904;Ontarian;;CA;CA-ON;yes;Canada;yes;no;Americas;Northern America;
cr;Cree, Plains;Alberta;;Q1951;;;CA;CA-AB;yes;Canada;yes;no;Americas;Northern America;
cr;Cree, Plains;Saskatchewan;;Q1989;;;CA;CA-SK;yes;Canada;yes;no;Americas;Northern America;
cr;Cree, Southern East;Quebec;___;Q176;;;CA;CA-QC;yes;Canada;yes;no;Americas;Northern America;
cr;Cree, Swampy;Manitoba;____;Q1948;;;CA;CA-MB;yes;Canada;yes;no;Americas;Northern America;
crh;Crimean Tatar;Autonomous Republic of Crimea;Qırım Muhtar Cumhuriyeti;Q756294;;;UA;;no;Ukraine;yes;no;Europe;Eastern Europe;
cs;Czech;Czech Republic;_esko;Q213;;"_ech;_e_ka";CZ;;no;Czech Republic;yes;national;Europe;Eastern Europe;
csb;Kashubian;Pomeranian Voivodeship;Pòmòrsczé;Q54180;;;PL;;yes;Poland;yes;no;Europe;Eastern Europe;
cu;Slavonic, Church;Russia;_____;Q159;Russian;;RU;;no;Russian Federation;yes;no;Europe;Eastern Europe;
cv;Chuvash;Chuvash;_____ __________;Q5466;;_____;RU;RU-CU;yes;Russian Federation;yes;no;Europe;Eastern Europe;
cy;Welsh;Wales;Cymru;Q25;Welsh;"Cymraes;Cymro";GB;GB-WLS;yes;United Kingdom;yes;regional;Europe;Northern Europe;
da;Danish;Denmark;Danmark;Q35;"Dane;Danish";"dansk;dansker";DK;;no;Denmark;yes;national;Europe;Northern Europe;
da;Danish;Faroe Islands;Færøerne;Q4628;;;FO;;no;Faroe Islands;no;national;Europe;Northern Europe;
da;Danish;Schleswig-Holstein;Slesvig-Holsten;Q1194;;;DE;DE-SH;yes;Germany;yes;no;Europe;Western Europe;
da;Danish;Greenland;Grønland;Q223;;;GL;;no;Greenland;no;national;Americas;Northern America;
de;German, Standard;Germany;Deutschland;Q183;German;"Deutsch;Deutsche";DE;;no;Germany;yes;national;Europe;Western Europe;
de;German, Standard;Austria;Österreich;Q40;;;AT;;no;Austria;yes;national;Europe;Western Europe;
de;German, Standard;Karlovy Vary;Karlovarsk_ kraj;Q191091;;;CZ;CZ-41;yes;Czechia;yes;no;Europe;Eastern Europe;
de;German, Standard;Ústí nad Labem;Ústeck_ kraj;Q192702;;;CZ;CZ-42;yes;Czechia;yes;no;Europe;Eastern Europe;
de;German, Standard;Trentino-Alto Adige;Trentino-Südtirol;Q1237;;;IT;IT-32;yes;Italy;yes;regional;Europe;Southern Europe;
de;German, Standard;Trentino;Trentino;Q16289;;;IT;IT-TN;yes;Italy;yes;regional;Europe;Southern Europe;
de;German, Standard;Liechtenstein;Liechtenstein;Q347;Liechtensteiner;;LI;;no;Liechtenstein;no;national;Europe;Western Europe;
de;German, Standard;Luxembourg;Luxemburg;Q32;"Luxembourger;Luxembourgish";;LU;;no;Luxembourg;no;national;Europe;Western Europe;
de;German, Standard;Opolskie;Woiwodschaft Opole;Q54171;;;PL;PL-OP;yes;Poland;no;regional;Europe;Eastern Europe;
de;German, Standard;Silesian;Woiwodschaft Schlesien;Q54181;;;PL;PL-SL;yes;Poland;no;regional;Europe;Eastern Europe;
de;German, Standard;Switzerland;Schweiz;Q39;Swiss;Schweizer;CH;;no;Switzerland;no;national;Europe;Western Europe;
din;Dinka;South Sudan;Cuëny Thudän;Q958;South Sudanese;;SS;;no;South Sudan;yes;no;Africa;Sub-Saharan Africa;Eastern Africa
diq;Zaza;Turkey;Tırkiya;Q43;Turkish;;TR;;no;Turkey;yes;no;Asia;Western Asia;
diq;Zazaki, Northern;Elazig;Elâzı_;Q483091;;;TR;;yes;Turkey;yes;no;Asia;Western Asia;
diq;Zazaki, Northern;Erzurum;Erzurum;Q376797;;;TR;TR-25;yes;Turkey;yes;no;Asia;Western Asia;
diq;Zazaki, Northern;Çayırlı;Manse;Q272722;;;TR;;yes;Turkey;yes;no;Asia;Western Asia;
diq;Zazaki, Northern;Erzincan;Erzıngan;Q483173;;;TR;TR-24;yes;Turkey;yes;no;Asia;Western Asia;
diq;Zazaki, Northern;Malatya;Meletiye;Q131384;;;TR;TR-44;yes;Turkey;yes;no;Asia;Western Asia;
diq;Zazaki, Northern;Mu_;Mu_;Q131387;;;TR;TR-49;yes;Turkey;yes;no;Asia;Western Asia;
diq;Zazaki, Northern;Sivas;Sêwaz;Q483100;;;TR;TR-58;yes;Turkey;yes;no;Asia;Western Asia;
diq;Zazaki, Northern;Tunceli;Dêsım;Q620742;;;TR;TR-62;yes;Turkey;yes;no;Asia;Western Asia;
diq;Zazaki, Northern;Diyarbakir;Diyarbekır;Q83081;;;TR;TR-21;yes;Turkey;yes;no;Asia;Western Asia;
diq;Zazaki, Southern;Bingöl;Çolig;Q79760;;;TR;TR-12;yes;Turkey;yes;no;Asia;Western Asia;
dsb;Sorbian, Lower;Brandenburg;Bramborska;Q1208;;;DE;DE-BB;yes;Germany;yes;no;Europe;Western Europe;
dty;Doteli;Mahakali Zone;_______;Q9178;;;NP;NP-MA;yes;Nepal;yes;no;Asia;Southern Asia;
dty;Doteli;Seti Zone;____;Q9196;;;NP;NP-SE;yes;Nepal;yes;no;Asia;Southern Asia;
dty;Doteli;Bheri Zone;____;Q9060;;;NP;NP-BH;yes;Nepal;yes;no;Asia;Southern Asia;
dv;Maldivian;Maldives;____________;Q826;Maldivian;;MV;;no;Maldives;yes;national;Asia;Southern Asia;
dv;Maldivian;Lakshadweep;__________;Q26927;;;IN;IN-LD;yes;India;yes;no;Asia;Southern Asia;
dv;Maldivian;Kerala;______;Q1186;;;IN;IN-KL;yes;India;yes;no;Asia;Southern Asia;
dz;Dzongkha;Ha;__________;Q75448;;;BT;BT-13;yes;Bhutan;yes;national;Asia;Southern Asia;
dz;Dzongkha;Punakha;_______________;Q587062;;;BT;BT-23;yes;Bhutan;yes;national;Asia;Southern Asia;
dz;Dzongkha;Paro;_____________;Q652784;;;BT;BT-11;yes;Bhutan;yes;national;Asia;Southern Asia;
dz;Dzongkha;Wangdue Phodrang;_______________________;Q728933;;;BT;BT-24;yes;Bhutan;yes;national;Asia;Southern Asia;
dz;Dzongkha;West Bengal;;Q1356;;;IN;IN-WB;yes;India;yes;no;Asia;Southern Asia;
dz;Dzongkha;Assam;;Q1164;;;IN;IN-AS;yes;India;yes;no;Asia;Southern Asia;
dz;Dzongkha;Manipur;;Q1193;;;IN;IN-MN;yes;India;yes;no;Asia;Southern Asia;
dz;Dzongkha;Arunachal Pradesh;;Q1162;;;IN;IN-AR;yes;India;yes;no;Asia;Southern Asia;
dz;Dzongkha;Meghalaya;;Q1195;;;IN;IN-ML;yes;India;yes;no;Asia;Southern Asia;
dz;Dzongkha;Sikkim;;Q1505;;;IN;IN-SK;yes;India;yes;no;Asia;Southern Asia;
dz;Dzongkha;Nagaland;;Q1599;;;IN;IN-NL;yes;India;yes;no;Asia;Southern Asia;
ee;Éwé;Eastern;;Q405670;;;GH;GH-EP;yes;Ghana;yes;no;Africa;Sub-Saharan Africa;Western Africa
ee;Éwé;Greater Accra;;Q431729;;;GH;GH-AA;yes;Ghana;yes;no;Africa;Sub-Saharan Africa;Western Africa
ee;Éwé;Volta;Volta;Q712832;;;GH;GH-TV;yes;Ghana;yes;no;Africa;Sub-Saharan Africa;Western Africa
ee;Éwé;Togo;Togo;Q945;Togolese;;TG;;no;Togo;yes;no;Africa;Sub-Saharan Africa;Western Africa
el;Greek;Greece;______;Q41;Greek;"_______;________";GR;;no;Greece;yes;national;Europe;Southern Europe;
el;Greek;Albania;_______;Q222;Albanian;;AL;;no;Albania;yes;no;Europe;Southern Europe;
el;Greek;Cyprus;__π___;Q229;Cypriot;;CY;;no;Cyprus;no;national;Asia;Western Asia;
eml;Romagnol;Ravenna;Ravêna;Q13364;;;IT;IT-RA;yes;Italy;yes;no;Europe;Southern Europe;
eml;Romagnol;Forlì;Furlé;Q13367;;;IT;IT-FC;yes;Italy;yes;no;Europe;Southern Europe;
eml;Romagnol;Rimini;Rèmin;Q13369;;;IT;IT-RN;yes;Italy;yes;no;Europe;Southern Europe;
eml;Romagnol;Cesena;Zisèna;Q6662;;;IT;;yes;Italy;yes;no;Europe;Southern Europe;
eml;Romagnol;Imola;Iommla;Q50195;;;IT;;yes;Italy;yes;no;Europe;Southern Europe;
eml;Romagnol;Faenza;Fënza;Q52981;;;IT;;yes;Italy;yes;no;Europe;Southern Europe;
eml;Romagnol;Emilia-Romagna;Emégglia-Rumâgna;Q1263;;;IT;IT-45;yes;Italy;yes;no;Europe;Southern Europe;
en;English;England;England;Q21;English;English;GB;GB-ENG;yes;United Kingdom;yes;national;Europe;Northern Europe;
en;English;Scotland;Scotland;Q22;Scottish;Scottish;GB;GB-SCT;yes;United Kingdom;yes;national;Europe;Northern Europe;
en;English;Wales;Wales;Q25;Welsh;Welsh;GB;GB-WLS;yes;United Kingdom;yes;national;Europe;Northern Europe;
en;English;United Kingdom;United Kingdom;Q145;British;British;GB;;no;United Kingdom;yes;national;Europe;Northern Europe;
en;English;American Samoa;American Samoa;Q16641;American Samoan;American Samoan;AS;;no;American Samoa;no;national;Oceania;Polynesia;
en;English;Anguilla;Anguilla;Q25228;Anguillan;;AI;;no;Anguilla;no;national;Americas;Latin America and the Caribbean;Caribbean
en;English;Antigua and Barbuda;Antigua and Barbuda;Q781;"Barbudan;Antiguan;Antigua and Barbuda";"Antigua and Barbuda;Antiguan;Barbudan";AG;;no;Antigua and Barbuda;no;national;Americas;Latin America and the Caribbean;Caribbean
en;English;Australia;Australia;Q408;Australian;Australian;AU;;no;Australia;no;national;Oceania;Australia and New Zealand;
en;English;Bahamas;Bahamas;Q778;Bahamian;Bahamian;BS;;no;Bahamas;no;national;Americas;Latin America and the Caribbean;Caribbean
en;English;Barbados;Barbados;Q244;Barbadian;Barbadian;BB;;no;Barbados;no;national;Americas;Latin America and the Caribbean;Caribbean
en;English;Belize;Belize;Q242;Belizean;Belizean;BZ;;no;Belize;no;national;Americas;Latin America and the Caribbean;Central America
en;English;Bermuda;Bermuda;Q23635;Bermudian;Bermudian;BM;;no;Bermuda;no;national;Americas;Northern America;
en;English;Botswana;Botswana;Q963;"Motswana;Botswanan;Batswana";"Batswana;Botswanan;Motswana";BW;;no;Botswana;no;national;Africa;Sub-Saharan Africa;Southern Africa
en;English;British Indian Ocean Territory;British Indian Ocean Territory;Q43448;;;IO;;no;British Indian Ocean Territory;no;national;Africa;Sub-Saharan Africa;Eastern Africa
en;English;British Virgin Islands;British Virgin Islands;Q25305;Virgin Islander;Virgin Islander;VG;;no;British Virgin Islands;no;national;Americas;Latin America and the Caribbean;Caribbean
en;English;Brunei;Brunei;Q921;Bruneian;Bruneian;BN;;no;Brunei;no;national;Asia;South-eastern Asia;
en;English;South region;South region;Q857122;;;CM;CM-SU;yes;Cameroon;no;national;Africa;Sub-Saharan Africa;Middle Africa
en;English;West region;Cameroon West region;Q165784;;;CM;CM-OU;yes;Cameroon;no;national;Africa;Sub-Saharan Africa;Middle Africa
en;English;North region;Cameroon North region;Q502341;;;CM;CM-NO;yes;Cameroon;no;national;Africa;Sub-Saharan Africa;Middle Africa
en;English;Canada;Canada;Q16;Canadian;Canadian;CA;;no;Canada;no;national;Americas;Northern America;
en;English;Caribbean Netherlands;Caribbean Netherlands;Q27561;;;BQ;;no;Caribbean Netherlands;no;national;Americas;Latin America and the Caribbean;Caribbean
en;English;Cayman Islands;Cayman Islands;Q5785;Caymanian;Caymanian;KY;;no;Cayman Islands;no;national;Americas;Latin America and the Caribbean;Caribbean
en;English;Hong Kong;Hong Kong;Q8646;Hongkonger;Hongkonger;HK;;no;Hong Kong;no;regional;Asia;Eastern Asia;
en;English;Cook Islands;Cook Islands;Q26988;Cook Islander;Cook Islander;CK;;no;Cook Islands;no;national;Oceania;Polynesia;
en;English;Dominica;Dominica;Q784;Dominican;Dominican;DM;;no;Dominica;no;national;Americas;Latin America and the Caribbean;Caribbean
en;English;Fiji;Fiji;Q712;Fijian;Fijian;FJ;;no;Fiji;no;national;Oceania;Melanesia;
en;English;Gambian;Gambian;Q1005;Gambian;Gambian;GM;;no;Gambia;no;national;Africa;Sub-Saharan Africa;Western Africa
en;English;Ghana;Ghana;Q117;Ghanaian;Ghanaian;GH;;no;Ghana;no;national;Africa;Sub-Saharan Africa;Western Africa
en;English;Gibraltar;Gibraltar;Q1410;Gibraltarian;Gibraltarian;GI;;no;Gibraltar;no;national;Europe;Southern Europe;
en;English;Grenada;Grenada;Q769;Grenadian;Grenadian;GD;;no;Grenada;no;national;Americas;Latin America and the Caribbean;Caribbean
en;English;Guam;Guam;Q16635;Guamanian;Guamanian;GU;;no;Guam;no;national;Oceania;Micronesia;
en;English;Guernsey;Guernsey;Q25230;;;GG;;no;Guernsey;no;national;Europe;Northern Europe;Channel Islands
en;English;Guyana;Guyana;Q734;Guyanese;Guyanese;GY;;no;Guyana;no;national;Americas;Latin America and the Caribbean;South America
en;English;India;India;Q668;Indian;Indian;IN;;no;India;no;national;Asia;Southern Asia;
en;English;Ireland;Ireland;Q27;Irish;Irish;IE;;no;Ireland;yes;national;Europe;Northern Europe;
en;English;Isle of Man;Isle of Man;Q9676;Manx;Manx;IM;;no;Isle of Man;yes;no;Europe;Northern Europe;
en;English;Jamaica;Jamaica;Q766;Jamaican;Jamaican;JM;;no;Jamaica;no;national;Americas;Latin America and the Caribbean;Caribbean
en;English;Jersey;Jersey;Q785;;;JE;;no;Jersey;no;national;Europe;Northern Europe;Channel Islands
en;English;Kenya;Kenya;Q114;Kenyan;Kenyan;KE;;no;Kenya;no;national;Africa;Sub-Saharan Africa;Eastern Africa
en;English;Kiribati;Kiribati;Q710;I-Kiribati;I-Kiribati;KI;;no;Kiribati;no;national;Oceania;Micronesia;
en;English;Lesotho;Lesotho;Q1013;"Mosotho;Basotho";"Basotho;Mosotho";LS;;no;Lesotho;no;national;Africa;Sub-Saharan Africa;Southern Africa
en;English;Liberia;Liberia;Q1014;Liberian;Liberian;LR;;no;Liberia;no;national;Africa;Sub-Saharan Africa;Western Africa
en;English;Malawi;Malawi;Q1020;Malawian;Malawian;MW;;no;Malawi;no;national;Africa;Sub-Saharan Africa;Eastern Africa
en;English;Malaysia;Malaysia;Q833;Malaysian;Malaysian;MY;;no;Malaysia;no;national;Asia;South-eastern Asia;
en;English;Malta;Malta;Q233;Maltese;Maltese;MT;;no;Malta;no;national;Europe;Southern Europe;
en;English;Marshall Islands;Marshall Islands;Q709;Marshallese;Marshallese;MH;;no;Marshall Islands;no;national;Oceania;Micronesia;
en;English;Mauritius;Mauritius;Q1027;Mauritian;Mauritian;MU;;no;Mauritius;no;national;Africa;Sub-Saharan Africa;Eastern Africa
en;English;Micronesia;Micronesia;Q3359409;Micronesian;Micronesian;FM;;no;Micronesia;no;national;Oceania;Micronesia;
en;English;Montserrat;Montserrat;Q13353;Montserratian;Montserratian;MS;;no;Montserrat;no;national;Americas;Latin America and the Caribbean;Caribbean
en;English;Namibia;Namibia;Q1030;Namibian;Namibian;NA;;no;Namibia;no;national;Africa;Sub-Saharan Africa;Southern Africa
en;English;Nauru;Nauru;Q697;Nauruan;Nauruan;NR;;no;Nauru;no;national;Oceania;Micronesia;
en;English;New Zealand;New Zealand;Q664;"New Zealander;New Zealand";"New Zealand;New Zealander";NZ;;no;New Zealand;no;national;Oceania;Australia and New Zealand;
en;English;Nigeria;Nigeria;Q1033;Nigerian;Nigerian;NG;;no;Nigeria;no;national;Africa;Sub-Saharan Africa;Western Africa
en;English;Niue;Niue;Q34020;Niuean;Niuean;NU;;no;Niue;no;national;Oceania;Polynesia;
en;English;Norfolk Island;Norfolk Island;Q31057;Norfolk Islander;Norfolk Islander;NF;;no;Norfolk Island;no;national;Oceania;Australia and New Zealand;
en;English;Northern Mariana Islands;Northern Mariana Islands;Q16644;Northern Mariana Islander;Northern Mariana Islander;MP;;no;Northern Mariana Islands;no;national;Oceania;Micronesia;
en;English;Pakistan;Pakistan;Q843;Pakistani;Pakistani;PK;;no;Pakistan;no;national;Asia;Southern Asia;
en;English;Palau;Palau;Q695;Palauan;Palauan;PW;;no;Palau;no;national;Oceania;Micronesia;
en;English;Papua New Guinea;Papua New Guinea;Q691;Papua New Guinean;Papua New Guinean;PG;;no;Papua New Guinea;no;national;Oceania;Melanesia;
en;English;Philippines;Philippines;Q928;"Philippine;Filipino;Filipina";"Filipina;Filipino;Philippine";PH;;no;Philippines;no;national;Asia;South-eastern Asia;
en;English;Pitcairn;Pitcairn;Q35672;Pitcairn Islander;Pitcairn Islander;PN;;no;Pitcairn;no;national;Oceania;Polynesia;
en;English;Puerto Rico;Puerto Rico;Q1183;Puerto Rican;Puerto Rican;PR;;no;Puerto Rico;no;national;Americas;Latin America and the Caribbean;Caribbean
en;English;Rwanda;Rwanda;Q1037;"Rwandese;Rwandan";"Rwandan;Rwandese";RW;;no;Rwanda;no;national;Africa;Sub-Saharan Africa;Eastern Africa
en;English;Saint Kitts and Nevis;Saint Kitts and Nevis;Q763;"Nevisian;Kittitian";"Kittitian;Nevisian";KN;;no;Saint Kitts and Nevis;no;national;Americas;Latin America and the Caribbean;Caribbean
en;English;Saint Lucia;Saint Lucia;Q760;Saint Lucian;Saint Lucian;LC;;no;Saint Lucia;no;national;Americas;Latin America and the Caribbean;Caribbean
en;English;Saint Vincent and the Grenadines;Saint Vincent and the Grenadines;Q757;"Vincentian;Vincy";"Vincy;Vincentian";VC;;no;Saint Vincent and the Grenadines;no;national;Americas;Latin America and the Caribbean;Caribbean
en;English;Samoa;Samoa;Q683;Samoan;Samoan;WS;;no;Samoa;no;national;Oceania;Polynesia;
en;English;Seychelles;Seychelles;Q1042;"Seychelloise;Seychellois";"Seychellois;Seychelloise";SC;;no;Seychelles;no;national;Africa;Sub-Saharan Africa;Eastern Africa
en;English;Sierra Leone;Sierra Leone;Q1044;Sierra Leonean;Sierra Leonean;SL;;no;Sierra Leone;no;national;Africa;Sub-Saharan Africa;Western Africa
en;English;Singapore;Singapore;Q334;Singaporean;Singaporean;SG;;no;Singapore;no;national;Asia;South-eastern Asia;
en;English;Sint Maarten;Sint Maarten;Q26273;St. Maartener;St. Maartener;SX;;no;Sint Maarten;no;national;Americas;Latin America and the Caribbean;Caribbean
en;English;Solomon Islands;Solomon Islands;Q685;Solomon Islander;Solomon Islander;SB;;no;Solomon Islands;no;national;Oceania;Melanesia;
en;English;Eastern Cape;Eastern Cape;Q130840;;;ZA;ZA-EC;yes;South Africa;no;national;Africa;Sub-Saharan Africa;Southern Africa
en;English;Johannesburg;Johannesburg;Q34647;;;ZA;;yes;South Africa;no;national;Africa;Sub-Saharan Africa;Southern Africa
en;English;Gauteng;Gauteng;Q133083;;;ZA;ZA-GT;yes;South Africa;no;national;Africa;Sub-Saharan Africa;Southern Africa
en;English;Western Cape;Western Cape;Q127167;;;ZA;ZA-WC;yes;South Africa;no;national;Africa;Sub-Saharan Africa;Southern Africa
en;English;Sudan;Sudan;Q1049;Sudanese;Sudanese;SD;;no;Sudan;no;national;Africa;Northern Africa;
en;English;Swaziland;Swaziland;Q1050;Swazi;Swazi;SZ;;no;Swaziland;no;national;Africa;Sub-Saharan Africa;Southern Africa
en;English;Tokelau;Tokelau;Q36823;Tokelau;Tokelau;TK;;no;Tokelau;no;national;Oceania;Polynesia;
en;English;Tonga;Tonga;Q678;Tongan;Tongan;TO;;no;Tonga;no;national;Oceania;Polynesia;
en;English;Trinidad and Tobago;Trinidad and Tobago;Q754;Trinidadian;Trinidadian;TT;;no;Trinidad and Tobago;no;national;Americas;Latin America and the Caribbean;Caribbean
en;English;Turks and Caicos Islands;Turks and Caicos Islands;Q18221;;;TC;;no;Turks and Caicos Islands;no;national;Americas;Latin America and the Caribbean;Caribbean
en;English;Tuvalu;Tuvalu;Q672;Tuvaluan;Tuvaluan;TV;;no;Tuvalu;no;national;Oceania;Polynesia;
en;English;Virgin Islands;Virgin Islands;Q11703;Virgin Islander;Virgin Islander;VI;;no;U.S. Virgin Islands;no;national;Americas;Latin America and the Caribbean;Caribbean
en;English;Uganda;Uganda;Q1036;Ugandan;Ugandan;UG;;no;Uganda;no;national;Africa;Sub-Saharan Africa;Eastern Africa
en;English;United States;United States;Q30;;;US;;no;United States;no;national;Americas;Northern America;
en;English;Vanuatu;Vanuatu;Q686;Ni-Vanuatu;Ni-Vanuatu;VU;;no;Vanuatu;no;national;Oceania;Melanesia;
en;English;Zambia;Zambia;Q953;Zambian;Zambian;ZM;;no;Zambia;no;national;Africa;Sub-Saharan Africa;Eastern Africa
en;English;Zimbabwe;Zimbabwe;Q954;Zimbabwean;Zimbabwean;ZW;;no;Zimbabwe;no;national;Africa;Sub-Saharan Africa;Eastern Africa
eo;Esperanto;;;;;;;;;;;;;;
es;Spanish;Spain;España;Q29;Spanish;"español;española";ES;;no;Spain;yes;national;Europe;Southern Europe;
es;Spanish;Argentina;Argentina;Q414;"Argentinian;Argentine";argentino;AR;;no;Argentina;no;national;Americas;Latin America and the Caribbean;South America
es;Spanish;Bolivia;Bolivia;Q750;Bolivian;;BO;;no;Bolivia;no;national;Americas;Latin America and the Caribbean;South America
es;Spanish;Chile;Chile;Q298;Chilean;chileno;CL;;no;Chile;no;national;Americas;Latin America and the Caribbean;South America
es;Spanish;Colombia;Colombia;Q739;Colombian;"Colombiana;Colombiano";CO;;no;Colombia;no;national;Americas;Latin America and the Caribbean;South America
es;Spanish;Costa Rica;Costa Rica;Q800;Costa Rican;;CR;;no;Costa Rica;no;national;Americas;Latin America and the Caribbean;Central America
es;Spanish;Cuba;Cuba;Q241;Cuban;"cubana;cubano";CU;;no;Cuba;no;national;Americas;Latin America and the Caribbean;Caribbean
es;Spanish;Dominican;República Dominicana;Q786;Dominican;"Dominicano;Dominicana";DO;;no;Dominican Republic;no;national;Americas;Latin America and the Caribbean;Caribbean
es;Spanish;Ecuador;Ecuador;Q736;"Ecuadorian;Ecuadoran";ecuatoriano;EC;;no;Ecuador;no;national;Americas;Latin America and the Caribbean;South America
es;Spanish;El Salvador;El Salvador;Q792;Salvadoran;;SV;;no;El Salvador;no;national;Americas;Latin America and the Caribbean;Central America
es;Spanish;Equatorial Guinea;Guinea Ecuatorial;Q983;"Equatorial Guinean;Equatoguinean";;GQ;;no;Equatorial Guinea;no;national;Africa;Sub-Saharan Africa;Middle Africa
es;Spanish;Gibraltar;Gibraltar;Q1410;gibraltarian;gibraltareño;GI;;no;Gibraltar;yes;no;Europe;Southern Europe;
es;Spanish;Guatemala;Guatemala;Q774;Guatemalan;"guatemalteco;guatemalteca";GT;;no;Guatemala;no;national;Americas;Latin America and the Caribbean;Central America
es;Spanish;Honduras;Honduras;Q783;"Honduran;Catracho";"hondureño;hondureña;catracho";HN;;no;Honduras;no;national;Americas;Latin America and the Caribbean;Central America
es;Spanish;Mexico;México;Q96;Mexican;Mexicano;MX;;no;Mexico;no;national;Americas;Latin America and the Caribbean;Central America
es;Spanish;Nicaragua;Nicaragua;Q811;Nicaraguan;;NI;;no;Nicaragua;no;national;Americas;Latin America and the Caribbean;Central America
es;Spanish;Panama;Panamá;Q804;Panamanian;;PA;;no;Panama;no;national;Americas;Latin America and the Caribbean;Central America
es;Spanish;Paraguay;Paraguay;Q733;Paraguayan;;PY;;no;Paraguay;no;national;Americas;Latin America and the Caribbean;South America
es;Spanish;Peru;Perú;Q419;Peruvian;"peruana;peruano";PE;;no;Peru;no;national;Americas;Latin America and the Caribbean;South America
es;Spanish;Puerto Rico;Puerto Rico;Q1183;;"puertorriqueño;puertorriqueña";PR;;no;Puerto Rico;no;national;Americas;Latin America and the Caribbean;Caribbean
es;Spanish;Uruguay;Uruguay;Q77;Uruguayan;"uruguayo;urugaya";UY;;no;Uruguay;no;national;Americas;Latin America and the Caribbean;South America
es;Spanish;Venezuela;Venezuela;Q717;Venezuelan;"venezolano;venezolana";VE;;no;Venezuela;no;national;Americas;Latin America and the Caribbean;South America
et;Estonian, Standard;Estonia;Eesti;Q191;Estonian;;EE;;no;Estonia;yes;national;Europe;Northern Europe;
et;Võro;Võru;Võru maakond;Q188076;;;EE;EE-86;yes;Estonia;yes;no;Europe;Northern Europe;
et;Võro;Põlva;Põlva maakond;Q191813;;;EE;EE-65;yes;Estonia;yes;no;Europe;Northern Europe;
et;Võro;Valga;Valga maakond;Q192362;;;EE;EE-82;yes;Estonia;yes;no;Europe;Northern Europe;
et;Võro;Tartu;Tartu maakond;Q192370;;;EE;EE-78;yes;Estonia;yes;no;Europe;Northern Europe;
eu;Basque;Biscay;Bizkaia;Q93366;;;ES;ES-BI;yes;Spain;yes;regional;Europe;Southern Europe;
eu;Basque;Gipuzkoa;Gipuzkoa;Q95010;;;ES;ES-SS;yes;Spain;yes;regional;Europe;Southern Europe;
eu;Basque;Navarre;Nafarroa;Q4018;;;ES;ES-NC;yes;Spain;yes;regional;Europe;Southern Europe;
eu;Basque;Alava;Araba;Q81801;;;ES;ES-VI;yes;Spain;yes;regional;Europe;Southern Europe;
ext;Extremaduran;Extremadura;Estremaúra;Q5777;;;ES;ES-EX;yes;Spain;yes;no;Europe;Southern Europe;
fa;Persian;Iran;_____;Q794;"Iranian;Persian";______;IR;;no;Iran;yes;no;Asia;Southern Asia;
fa;Dari;Afghanistan;_________;Q889;Afghan;;AF;;no;Afghanistan;yes;national;Asia;Southern Asia;
ff;Fulfulde, Adamawa;Adamawa;;Q351514;;;CM;CM-AD;yes;Cameroon;yes;no;Africa;Sub-Saharan Africa;Middle Africa
ff;Fulfulde, Adamawa;North;;Q502341;;;CM;CM-NO;yes;Cameroon;yes;no;Africa;Sub-Saharan Africa;Middle Africa
ff;Fulfulde, Adamawa;Far North;;Q823976;;;CM;CM-EN;yes;Cameroon;yes;no;Africa;Sub-Saharan Africa;Middle Africa
ff;Fulfulde, Adamawa;Mayo-Kebbi Ouest;;Q910393;;;TD;TD-MO;yes;Chad;yes;no;Africa;Sub-Saharan Africa;Middle Africa
ff;Fulfulde, Adamawa;Adamawa;;Q337514;;;NG;NG-AD;yes;Nigeria;yes;no;Africa;Sub-Saharan Africa;Western Africa
ff;Fulfulde, Adamawa;Taraba;;Q463959;;;NG;NG-TA;yes;Nigeria;yes;no;Africa;Sub-Saharan Africa;Western Africa
ff;Fulfulde, Bagirmi;Chari-Baguirmi;;Q843975;;;TD;TD-CB;yes;Chad;yes;no;Africa;Sub-Saharan Africa;Middle Africa
ff;Fulfulde, Bagirmi;Hadjer-Lamis;;Q1042437;;;TD;TD-HL;yes;Chad;yes;no;Africa;Sub-Saharan Africa;Middle Africa
ff;Fulfulde, Borgu;Collines;;Q29141;;;BJ;BJ-CO;yes;Benin;yes;no;Africa;Sub-Saharan Africa;Western Africa
ff;Fulfulde, Borgu;Atakora;;Q29154;;;BJ;BJ-AK;yes;Benin;yes;no;Africa;Sub-Saharan Africa;Western Africa
ff;Fulfulde, Borgu;Donga;;Q29161;;;BJ;BJ-DO;yes;Benin;yes;no;Africa;Sub-Saharan Africa;Western Africa
ff;Fulfulde, Borgu;Zou;;Q29172;;;BJ;BJ-ZO;yes;Benin;yes;no;Africa;Sub-Saharan Africa;Western Africa
ff;Fulfulde, Borgu;Borgou;;Q29136;;;BJ;BJ-BO;yes;Benin;yes;no;Africa;Sub-Saharan Africa;Western Africa
ff;Fulfulde, Central-Eastern Niger;Niger;Niiser;Q1032;Nigerien;;NE;;no;Niger;yes;no;Africa;Sub-Saharan Africa;Western Africa
ff;Fulfulde, Maasina;Mali;Maali;Q912;Malian;;ML;;no;Mali;yes;no;Africa;Sub-Saharan Africa;Western Africa
ff;Fulfulde, Nigerian;Bauchi;;Q503936;;;NG;NG-BA;yes;Nigeria;yes;no;Africa;Sub-Saharan Africa;Western Africa
ff;Fulfulde, Nigerian;Katsina;;Q657821;;;NG;NG-KT;yes;Nigeria;yes;no;Africa;Sub-Saharan Africa;Western Africa
ff;Fulfulde, Nigerian;Kano;;Q682571;;;NG;NG-KN;yes;Nigeria;yes;no;Africa;Sub-Saharan Africa;Western Africa
ff;Fulfulde, Nigerian;Borno;;Q130626;;;NG;NG-BO;yes;Nigeria;yes;no;Africa;Sub-Saharan Africa;Western Africa
ff;Fulfulde, Nigerian;Sokoto;;Q503941;;;NG;NG-SO;yes;Nigeria;yes;no;Africa;Sub-Saharan Africa;Western Africa
ff;Pulaar;Senegal;Senegaal;Q1041;Senegalese;;SN;;no;Senegal;yes;no;Africa;Sub-Saharan Africa;Western Africa
ff;Pulaar;Upper River;;Q824373;;;GM;GM-U;yes;Gambia;yes;no;Africa;Sub-Saharan Africa;Western Africa
ff;Pulaar;Lower River;;Q824421;;;GM;GM-L;yes;Gambia;yes;no;Africa;Sub-Saharan Africa;Western Africa
ff;Pulaar;Central River;;Q824431;;;GM;GM-M;yes;Gambia;yes;no;Africa;Sub-Saharan Africa;Western Africa
ff;Pulaar;North Bank;;Q846161;;;GM;GM-N;yes;Gambia;yes;no;Africa;Sub-Saharan Africa;Western Africa
ff;Pulaar;Boké;;Q862611;;;GN;GN-B;yes;Guinea;yes;no;Africa;Sub-Saharan Africa;Western Africa
ff;Pulaar;Koundara;;Q1781312;;;GN;GN-KN;yes;Guinea;yes;no;Africa;Sub-Saharan Africa;Western Africa
ff;Pulaar;Bafatá;;Q799791;;;GW;GW-BA;yes;Guinea-Bissau;yes;no;Africa;Sub-Saharan Africa;Western Africa
ff;Pulaar;Gabú;;Q872212;;;GW;GW-GA;yes;Guinea-Bissau;yes;no;Africa;Sub-Saharan Africa;Western Africa
ff;Pulaar;Tombali;;Q1047255;;;GW;GW-TO;yes;Guinea-Bissau;yes;no;Africa;Sub-Saharan Africa;Western Africa
ff;Pulaar;Kayes;;Q332113;;;ML;ML-1;yes;Mali;yes;no;Africa;Sub-Saharan Africa;Western Africa
ff;Pulaar;Koulikoro;;Q287789;;;ML;ML-2;yes;Mali;yes;no;Africa;Sub-Saharan Africa;Western Africa
ff;Pulaar;Gorgol;;Q859831;;;MR;MR-04;yes;Mauritania;yes;no;Africa;Sub-Saharan Africa;Western Africa
ff;Pulaar;Brakna;;Q12632;;;MR;MR-05;yes;Mauritania;yes;no;Africa;Sub-Saharan Africa;Western Africa
ff;Pulaar;Trarza;;Q859581;;;MR;MR-06;yes;Mauritania;yes;no;Africa;Sub-Saharan Africa;Western Africa
ff;Pular;Guinea;Gine;Q1006;Guinean;;GN;;no;Guinea;yes;regional;Africa;Sub-Saharan Africa;Western Africa
ff;Fulfulde, Western Niger;Tillabéri;;Q861914;;;NE;NE-6;yes;Niger;yes;no;Africa;Sub-Saharan Africa;Western Africa
ff;Fulfulde, Western Niger;Dosso;;Q850055;;;NE;NE-3;yes;Niger;yes;no;Africa;Sub-Saharan Africa;Western Africa
ff;Fulfulde, Western Niger;Alibori;;Q29165;;;BJ;BJ-AL;yes;Benin;yes;no;Africa;Sub-Saharan Africa;Western Africa
ff;Fulfulde, Western Niger;Sourou;;Q558703;;;BF;BF-SOR;yes;Burkina Faso;yes;no;Africa;Sub-Saharan Africa;Western Africa
ff;Fulfulde, Western Niger;Kossi;;Q1074485;;;BF;BF-KOS;yes;Burkina Faso;yes;no;Africa;Sub-Saharan Africa;Western Africa
ff;Fulfulde, Western Niger;Bam;;Q620710;;;BF;BF-BAM;yes;Burkina Faso;yes;no;Africa;Sub-Saharan Africa;Western Africa
ff;Fulfulde, Western Niger;Centre-Nord;;Q850064;;;BF;BF-05;yes;Burkina Faso;yes;no;Africa;Sub-Saharan Africa;Western Africa
ff;Fulfulde, Western Niger;Séno;;Q1061214;;;BF;BF-OUD;yes;Burkina Faso;yes;no;Africa;Sub-Saharan Africa;Western Africa
ff;Fulfulde, Western Niger;Soum;;Q385973;;;BF;BF-SOM;yes;Burkina Faso;yes;no;Africa;Sub-Saharan Africa;Western Africa
ff;Fulfulde, Western Niger;Oudalan;;Q514173;;;BF;BF-OUD;yes;Burkina Faso;yes;no;Africa;Sub-Saharan Africa;Western Africa
ff;Fulfulde, Western Niger;Yagha;;Q1074466;;;BF;BF-YAG;yes;Burkina Faso;yes;no;Africa;Sub-Saharan Africa;Western Africa
fi;Finnish;Finland;Suomi;Q33;"Finn;Finnish";suomalainen;FI;;no;Finland;yes;national;Europe;Northern Europe;
fi;Finnish;Leningrad;Leningradin alue;Q2191;;;RU;RU-LEN;yes;Russian Federation;yes;no;Europe;Eastern Europe;
fi;Finnish;Dalarna;Taalainmaan;Q103732;;;SE;SE-W;yes;Sweden;no;regional;Europe;Northern Europe;
fi;Finnish;Jönköping;Jönköpingin;Q504689;;;SE;;yes;Sweden;no;regional;Europe;Northern Europe;
fi;Finnish;Kalmar;Kalmarin;Q103707;;;SE;SE-H;yes;Sweden;no;regional;Europe;Northern Europe;
fi;Finnish;Norrbotten;Norrbottenin;Q103686;;;SE;SE-BD;yes;Sweden;no;regional;Europe;Northern Europe;
fi;Finnish;Stockholm;Tukholman;Q104231;;;SE;SE-AB;yes;Sweden;no;regional;Europe;Northern Europe;
fi;Finnish;Uppsala;Uppsalan;Q104926;;;SE;SE-C;yes;Sweden;no;regional;Europe;Northern Europe;
fi;Finnish;Västmanland County;;Q105075;;;SE;;yes;Sweden;no;regional;Europe;Northern Europe;
fiu_vro;Võro;Võru;;Q188076;;;EE;EE-86;yes;Estonia;yes;no;Europe;Northern Europe;
fiu_vro;Võro;Põlva;;Q191813;;;EE;EE-65;yes;Estonia;yes;no;Europe;Northern Europe;
fiu_vro;Võro;Valga;;Q192362;;;EE;EE-82;yes;Estonia;yes;no;Europe;Northern Europe;
fiu_vro;Võro;Tartu;;Q192370;;;EE;EE-78;yes;Estonia;yes;no;Europe;Northern Europe;
fj;Fijian;Kadavu;Kadavu;Q1196481;;;FJ;FJ-04;yes;Fiji;yes;no;Oceania;Melanesia;
fj;Fijian;Fiji;Viti;Q712;Fijian;;FJ;;no;Fiji;yes;no;Oceania;Melanesia;
fo;Faroese;Faroe Islands;Føroyar;Q4628;;;FO;;no;Faroe Islands;yes;national;Europe;Northern Europe;
fr;French;France;France;Q142;French;"Français;Française";FR;;no;France;yes;national;Europe;Western Europe;
fr;French;Namur;Namur;Q1125;;;BE;BE-WNA;yes;Belgium;yes;national;Europe;Western Europe;
fr;French;Walloon Brabant;Brabant wallon;Q1122;;;BE;BE-WBR;yes;Belgium;yes;national;Europe;Western Europe;
fr;French;Liège;Liège;Q1127;;;BE;BE-WLG;yes;Belgium;yes;national;Europe;Western Europe;
fr;French;Hainaut;Hainaut;Q1129;;;BE;BE-WHT;yes;Belgium;yes;national;Europe;Western Europe;
fr;French;Brussels;Bruxelles;Q240;;;BE;BE-BRU;yes;Belgium;yes;national;Europe;Western Europe;
fr;French;Benin;Bénin;Q962;Beninese;;BJ;;no;Benin;no;national;Africa;Sub-Saharan Africa;Western Africa
fr;French;Burkina Faso;Burkina Faso;Q965;"Burkinabè;Burkinabé;Burkinabe";;BF;;no;Burkina Faso;no;national;Africa;Sub-Saharan Africa;Western Africa
fr;French;Cameroon;Cameroun;Q1009;;cameorounais;CM;;no;Cameroon;no;national;Africa;Sub-Saharan Africa;Middle Africa
fr;French;Quebec;Québec;Q176;;Québécoise;CA;CA-QC;yes;Canada;no;national;Americas;Northern America;
fr;French;Ontario;Ontario;Q1904;Ontarian;;CA;CA-ON;yes;Canada;no;national;Americas;Northern America;
fr;French;Nova Scotia;Nouvelle-Écosse;Q1952;nova-scotian;néo-écossais(e);CA;CA-NS;yes;Canada;no;national;Americas;Northern America;
fr;French;New Brunswick;Nouveau-Brunswick;Q1965;;;CA;CA-NB;yes;Canada;no;national;Americas;Northern America;
fr;French;Prince Edward;Île-du-Prince-Édouard;Q1979;;;CA;CA-PE;yes;Canada;no;national;Americas;Northern America;
fr;French;Manitoba;Manitoba;Q1948;;;CA;CA-MB;yes;Canada;no;national;Americas;Northern America;
fr;French;Central African;République centrafricaine;Q929;Central African;"Centrafricain;Centrafricaine";CF;;no;Central African Republic;no;national;Africa;Sub-Saharan Africa;Middle Africa
fr;French;Chad;Tchad;Q657;Chadian;tchadien;TD;;no;Chad;no;national;Africa;Sub-Saharan Africa;Middle Africa
fr;French;Comoros;Comores;Q970;Comorian;;KM;;no;Comoros;no;national;Africa;Sub-Saharan Africa;Eastern Africa
fr;French;Congo;République du Congo;Q971;;;CG;;no;Congo;no;national;Africa;Sub-Saharan Africa;Middle Africa
fr;French;Ivory Coast;Côte d'Ivoire;Q1008;;;CI;;no;Côte d'Ivoire;no;national;Africa;Sub-Saharan Africa;Western Africa
fr;French;Democratic Republic of the Congo;République démocratique du Congo;Q974;;"congolais;congolaise";CD;;no;Democratic Republic of the Congo;no;national;Africa;Sub-Saharan Africa;Middle Africa
fr;French;Djibouti;Djibouti;Q977;Djiboutian;;DJ;;no;Djibouti;no;national;Africa;Sub-Saharan Africa;Eastern Africa
fr;French;Equatorial Guinea;Guinée équatoriale;Q983;;;GQ;;no;Equatorial Guinea;no;national;Africa;Sub-Saharan Africa;Middle Africa
fr;French;French Guiana;Guyane;Q3769;;;GF;;no;French Guiana;no;national;Americas;Latin America and the Caribbean;South America
fr;French;French Polynesia;Polynésie française;Q30971;;"polynésien;polynésienne";PF;;no;French Polynesia;no;national;Oceania;Polynesia;
fr;French;Gabon;Gabon;Q1000;Gabonese;;GA;;no;Gabon;no;national;Africa;Sub-Saharan Africa;Middle Africa
fr;French;Guadeloupe;Guadeloupe;Q17012;;;GP;;no;Guadeloupe;no;national;Americas;Latin America and the Caribbean;Caribbean
fr;French;Guinea;Guinée;Q1006;Guinean;"Guinéen;Guinéenne";GN;;no;Guinea;no;national;Africa;Sub-Saharan Africa;Western Africa
fr;French;Haiti;Haïti;Q790;Haitian;;HT;;no;Haiti;no;national;Americas;Latin America and the Caribbean;Caribbean
fr;French;Puducherry;Pondichéry;Q66743;;;IN;IN-PY;yes;India;no;regional;Asia;Southern Asia;
fr;French;Aosta;Aoste;Q3367;;;IT;IT-AO;yes;Italy;no;regional;Europe;Southern Europe;
fr;French;Luxembourg;Luxembourg;Q32;"Luxembourger;Luxembourgish";"luxembourgeois;luxembourgeoise";LU;;no;Luxembourg;yes;national;Europe;Western Europe;
fr;French;Madagascar;Madagascar;Q1019;Malagasy;Malgache;MG;;no;Madagascar;no;national;Africa;Sub-Saharan Africa;Eastern Africa
fr;French;Mali;Mali;Q912;Malian;;ML;;no;Mali;no;national;Africa;Sub-Saharan Africa;Western Africa
fr;French;Martinique;Martinique;Q17054;;;MQ;;no;Martinique;no;national;Americas;Latin America and the Caribbean;Caribbean
fr;French;Mayotte;Mayotte;Q17063;;;YT;;no;Mayotte;no;national;Africa;Sub-Saharan Africa;Eastern Africa
fr;French;Monaco;Monaco;Q235;"Monégasque;Monacan";;MC;;no;Monaco;yes;national;Europe;Western Europe;
fr;French;New Caledonia;Nouvelle-Calédonie;Q33788;;;NC;;no;New Caledonia;no;national;Oceania;Melanesia;
fr;French;Niger;Niger;Q1032;Nigerien;;NE;;no;Niger;no;national;Africa;Sub-Saharan Africa;Western Africa
fr;French;Reunion;Réunion;Q17070;;;RE;;no;Réunion;no;national;Africa;Sub-Saharan Africa;Eastern Africa
fr;French;Rwanda;Rwanda;Q1037;"Rwandese;Rwandan";;RW;;no;Rwanda;no;national;Africa;Sub-Saharan Africa;Eastern Africa
fr;French;Saint-Barthélemy;Saint Barthélemy;Q25362;;;BL;;no;Saint Barthélemy;no;national;Americas;Latin America and the Caribbean;Caribbean
fr;French;Saint Martin;Saint-Martin;Q126125;;;MF;;no;Saint Martin;no;national;Americas;Latin America and the Caribbean;Caribbean
fr;French;Saint Pierre and Miquelon;Saint-Pierre-et-Miquelon;Q34617;;;PM;;no;Saint Pierre and Miquelon;no;national;Americas;Northern America;
fr;French;Senegal;Sénégal;Q1041;Senegalese;;SN;;no;Senegal;no;national;Africa;Sub-Saharan Africa;Western Africa
fr;French;Seychelles;Seychelles;Q1042;"Seychelloise;Seychellois";"Seychellois;Seychelloise";SC;;no;Seychelles;no;national;Africa;Sub-Saharan Africa;Eastern Africa
fr;French;Vaud;Vaud;Q12771;;;CH;CH-VD;yes;Switzerland;yes;national;Europe;Western Europe;
fr;French;Fribourg;Fribourg;Q12640;;;CH;CH-FR;yes;Switzerland;yes;national;Europe;Western Europe;
fr;French;Jura;Jura;Q12755;;;CH;CH-JU;yes;Switzerland;yes;national;Europe;Western Europe;
fr;French;Neuchâtel;Neuchâtel;Q12738;;;CH;CH-NE;yes;Switzerland;yes;national;Europe;Western Europe;
fr;French;Togo;Togo;Q945;Togolese;"Togolais;Togolaise";TG;;no;Togo;no;national;Africa;Sub-Saharan Africa;Western Africa
fr;French;Vanuatu;Vanuatu;Q686;Ni-Vanuatu;;VU;;no;Vanuatu;no;national;Oceania;Melanesia;
fr;French;Wallis and Futuna;Wallis-et-Futuna;Q35555;;;WF;;no;Wallis and Futuna;no;national;Oceania;Polynesia;
frp;Arpitan;Rhône;Rôno;Q46130;;;FR;FR-69;yes;France;yes;no;Europe;Western Europe;
frp;Arpitan;Ain;En;Q3083;;;FR;FR-01;yes;France;yes;no;Europe;Western Europe;
frp;Arpitan;Savoy;Savouè;Q14118;;;FR;FR-42;yes;France;yes;no;Europe;Western Europe;
frp;Arpitan;Doubs;Dubs;Q3361;;;FR;FR-25;yes;France;yes;no;Europe;Western Europe;
frp;Arpitan;Loire;Lêre;Q12569;;;FR;FR-42;yes;France;yes;no;Europe;Western Europe;
frp;Arpitan;Aosta;Aoûta;Q3367;;;IT;IT-AO;yes;Italy;yes;no;Europe;Southern Europe;
frp;Arpitan;Piedmont;Piemont;Q1216;;;IT;IT-21;yes;Italy;yes;no;Europe;Southern Europe;
frp;French;Vaud;Vôd;Q12771;;;CH;CH-VD;yes;Switzerland;yes;national;Europe;Western Europe;
frp;French;Fribourg;Fribôrg;Q12640;;;CH;CH-FR;yes;Switzerland;yes;national;Europe;Western Europe;
frp;French;Jura;Jura;Q12755;;;CH;CH-JU;yes;Switzerland;yes;national;Europe;Western Europe;
frp;French;Neuchâtel;Nôchâtél;Q12738;;;CH;CH-NE;yes;Switzerland;yes;national;Europe;Western Europe;
frp;Arpitan;Bern;Bèrna;Q11911;;;CH;CH-BE;yes;Switzerland;yes;no;Europe;Western Europe;
frr;Frisian, Northern;Schleswig-Holstein;Slaswik-Holstiinj;Q1194;;;DE;DE-SH;yes;Germany;yes;no;Europe;Western Europe;
frr;Frisian, Northern;Föhr;Feer;Q3127;;;DE;;yes;Germany;yes;no;Europe;Western Europe;
frr;Frisian, Northern;Amrum;Oomram;Q3136;;;DE;;yes;Germany;yes;no;Europe;Western Europe;
frr;Frisian, Northern;Sylt;Söl';Q3107;;;DE;;yes;Germany;yes;no;Europe;Western Europe;
frr;Frisian, Northern;Pellworm;Pellworm;Q17044067;;;DE;;yes;Germany;yes;no;Europe;Western Europe;
frr;Frisian, Northern;Halligen;A Halgen;Q21161;;;DE;;yes;Germany;yes;no;Europe;Western Europe;
frr;Frisian, Northern;Helgoland;Halaglun;Q3038;;;DE;;yes;Germany;yes;no;Europe;Western Europe;
fur;Friulian;Friuli-Venezia Giulia;Friûl-Vignesie Julie;Q1250;;;IT;IT-36;yes;Italy;yes;no;Europe;Southern Europe;
fur;Friulian;Veneto;Venit;Q1243;;;IT;IT-34;yes;Italy;yes;no;Europe;Southern Europe;
fy;Frisian;Friesland;Fryslân;Q770;;;NL;NL-FR;yes;Netherlands;yes;regional;Europe;Western Europe;
fy;Frisian;Groningen;Grinslân;Q752;;;NL;NL-GR;yes;Netherlands;yes;regional;Europe;Western Europe;
ga;Irish;Cork;Corcaigh;Q36647;;;IE;IE-CO;yes;Ireland;yes;no;Europe;Northern Europe;
ga;Irish;Galway;na Gaillimhe;Q169923;;;IE;IE-G;yes;Ireland;yes;no;Europe;Northern Europe;
ga;Irish;Mayo;Mhaigh Eo;Q178626;;;IE;IE-MO;yes;Ireland;yes;no;Europe;Northern Europe;
ga;Irish;Donegal;Dhún na nGall;Q179424;;;IE;IE-DL;yes;Ireland;yes;no;Europe;Northern Europe;
ga;Irish;Meath;na Mí;Q183544;;;IE;IE-MH;yes;Ireland;yes;no;Europe;Northern Europe;
ga;Irish;Kerry;Chiarraí;Q184469;;;IE;IE-KY;yes;Ireland;yes;no;Europe;Northern Europe;
ga;Irish;Waterford;Phort Láirge;Q184594;;;IE;IE-WD;yes;Ireland;yes;no;Europe;Northern Europe;
gag;Gagauz;Criuleni;;Q2128862;;;MD;MD-CR;yes;Moldova;yes;no;Europe;Eastern Europe;
gag;Gagauz;Gagauzia;Gagauz Yeri;Q164819;;;MD;MD-GA;yes;Moldova;yes;no;Europe;Eastern Europe;
gag;Gagauz;Cantemir;;Q684183;;;MD;MD-CT;yes;Moldova;yes;no;Europe;Eastern Europe;
gag;Gagauz;Leova;;Q1826662;;;MD;MD-LE;yes;Moldova;yes;no;Europe;Eastern Europe;
gag;Gagauz;Taraclia;;Q865884;;;MD;MD-TA;yes;Moldova;yes;no;Europe;Eastern Europe;
gag;Gagauz;Basarabeasca;;Q1980044;;;MD;MD-BS;yes;Moldova;yes;no;Europe;Eastern Europe;
gag;Gagauz;Cahul;;Q2128882;;;MD;MD-CA;yes;Moldova;yes;no;Europe;Eastern Europe;
gan;Chinese, Gan;Anhui;__;Q40956;;;CN;CN-AH;yes;China;yes;no;Asia;Eastern Asia;
gan;Chinese, Gan;Hubei;__;Q46862;;;CN;CN-HB;yes;China;yes;no;Asia;Eastern Asia;
gan;Chinese, Gan;Jiangxi;__;Q57052;;;CN;CN-JX;yes;China;yes;no;Asia;Eastern Asia;
gan;Chinese, Gan;Fujian;__;Q41705;;;CN;CN-FJ;yes;China;yes;no;Asia;Eastern Asia;
gan;Chinese, Gan;Hunan;__;Q45761;;;CN;CN-HN;yes;China;yes;no;Asia;Eastern Asia;
gd;Scottish Gaelic;Scotland;Alba;Q22;Scottish;;GB;GB-SCT;yes;United Kingdom;yes;regional;Europe;Northern Europe;
gd;Scottish Gaelic;Highland;na Gàidhealtachd;Q208279;;;GB;GB-HLD;yes;United Kingdom;yes;regional;Europe;Northern Europe;
gd;Scottish Gaelic;Glasgow;Glaschu;Q4093;;;GB;GB-GLG;yes;United Kingdom;yes;regional;Europe;Northern Europe;
gd;Scottish Gaelic;Edinburgh;Dùn Èideann;Q23436;;;GB;GB-EDH;yes;United Kingdom;yes;regional;Europe;Northern Europe;
gl;Galician;Galicia;Galicia;Q3908;Galician;;ES;ES-GA;yes;Spain;yes;regional;Europe;Southern Europe;
gl;Galician;Bragança;Distrito de Braganza - Bragança;Q373528;;;PT;PT-04;yes;Portugal;yes;no;Europe;Southern Europe;
glk;Gilaki;Gilan;_____;Q928828;;;IR;IR-19;yes;Iran;yes;no;Asia;Southern Asia;
gn;Guarani;Paraguay;Paraguái;Q733;Paraguayan;;PY;;no;Paraguay;yes;no;Americas;Latin America and the Caribbean;South America
gn;Guaraní, Ava;Paraná;Parana;Q15499;;;BR;BR-PR;yes;Brazil;yes;no;Americas;Latin America and the Caribbean;South America
gn;Guaraní, Ava;São Paulo;São Paulo;Q175;;;BR;BR-SP;yes;Brazil;yes;no;Americas;Latin America and the Caribbean;South America
gn;Guaraní, Ava;Rio Grande do Sul;Rio Grande do Sul;Q40030;;;BR;BR-RS;yes;Brazil;yes;no;Americas;Latin America and the Caribbean;South America
gn;Guaraní, Ava;Santa Catarina;Santa Catarina;Q41115;;;BR;BR-SC;yes;Brazil;yes;no;Americas;Latin America and the Caribbean;South America
gn;Guaraní, Ava;Mato Grosso do Sul;Mato Grosso do Sul;Q43319;;;BR;BR-MS;yes;Brazil;yes;no;Americas;Latin America and the Caribbean;South America
gn;Guaraní, Eastern Bolivian;Tarija;Tetãvore Tarija;Q233933;;;BO;BO-T;yes;Bolivia;yes;no;Americas;Latin America and the Caribbean;South America
gn;Guaraní, Eastern Bolivian;Santa Cruz;Tetãvore Santa Cruz;Q235106;;;BO;BO-S;yes;Bolivia;yes;no;Americas;Latin America and the Caribbean;South America
gn;Guaraní, Eastern Bolivian;Chuquisaca;Tetãvore Chuquisaca;Q235110;;;BO;BO-H;yes;Bolivia;yes;no;Americas;Latin America and the Caribbean;South America
gn;Guaraní, Mbyá;Espírito Santo;Espírito Santo;Q43233;;;BR;BR-ES;yes;Brazil;yes;no;Americas;Latin America and the Caribbean;South America
gn;Guaraní, Mbyá;Minas Gerais;Minas Gerais;Q39109;;;BR;BR-MG;yes;Brazil;yes;no;Americas;Latin America and the Caribbean;South America
gn;Guaraní, Mbyá;Corrientes;Taragui Tetãmini;Q44758;;;AR;AR-W;yes;Argentina;yes;no;Americas;Latin America and the Caribbean;South America
gn;Guaraní, Mbyá;Misiones;Misiones;Q44798;;;AR;AR-N;yes;Argentina;yes;no;Americas;Latin America and the Caribbean;South America
gom;Konkani, Goan;Maharashtra;__________;Q1191;;;IN;IN-MH;yes;India;yes;no;Asia;Southern Asia;
gom;Konkani, Goan;Goa;____;Q1171;;;IN;IN-GA;yes;India;yes;no;Asia;Southern Asia;
gom;Konkani, Goan;Kerala;____;Q1186;;;IN;IN-KL;yes;India;yes;no;Asia;Southern Asia;
gom;Konkani, Goan;Karnataka;_______;Q1185;;;IN;IN-KA;yes;India;yes;no;Asia;Southern Asia;
gor;Gorontalo;Gorontalo;Gorontalo;Q2501174;;;ID;ID-GO;yes;Indonesia;yes;no;Asia;South-eastern Asia;
gor;Gorontalo;North Sulawesi;Sulawesi Utara;Q5068;;;ID;ID-SA;yes;Indonesia;yes;no;Asia;South-eastern Asia;
got;Gothic;;;;;;;;;;;;;;
gu;Gujarati;Gujarat;______;Q1061;Gujarati;_______;IN;IN-GJ;yes;India;yes;regional;Asia;Southern Asia;
gu;Gujarati;Maharashtra;__________;Q1191;;;IN;IN-MH;yes;India;yes;regional;Asia;Southern Asia;
gu;Gujarati;Rajasthan;________;Q1437;;;IN;IN-RJ;yes;India;yes;regional;Asia;Southern Asia;
gu;Gujarati;Daman and Diu;___ ___ ___;Q66710;;;IN;;yes;India;yes;regional;Asia;Southern Asia;
gv;Manx;Isle of Man;Mannin;Q9676;Manx;;IM;;no;Isle of Man;yes;no;Europe;Northern Europe;
ha;Hausa;Nigeria;Nijeriya;Q1033;Nigerian;;NG;;no;Nigeria;yes;regional;Africa;Sub-Saharan Africa;Western Africa
ha;Hausa;Niger;Nijar;Q1032;Nigerien;;NE;;no;Niger;yes;no;Africa;Sub-Saharan Africa;Western Africa
hak;Chinese, Hakka;Guangxi Zhuang;Kóng-sî Chong-chhu_k Chh_-chh_-khî;Q15176;;;CN;CN-45;yes;China;yes;no;Asia;Eastern Asia;
hak;Chinese, Hakka;Guangdong;Kóng-tûng;Q15175;;;CN;CN-GD;yes;China;yes;no;Asia;Eastern Asia;
hak;Chinese, Hakka;Sichuan;Si-chhôn;Q19770;;;CN;CN-SC;yes;China;yes;no;Asia;Eastern Asia;
hak;Chinese, Hakka;Fujian;Fuk-kian;Q41705;;;CN;CN-FJ;yes;China;yes;no;Asia;Eastern Asia;
hak;Chinese, Hakka;Hainan;Hói-nàm;Q42200;;;CN;CN-HI;yes;China;yes;no;Asia;Eastern Asia;
hak;Chinese, Hakka;Hunan;Fù-nàm;Q45761;;;CN;CN-HN;yes;China;yes;no;Asia;Eastern Asia;
hak;Chinese, Hakka;Jiangxi;Kông-sî;Q57052;;;CN;CN-JX;yes;China;yes;no;Asia;Eastern Asia;
haw;Hawaiian;Hawaii;Hawai‘i;Q782;;;US;US-HI;yes;United States;yes;regional;Americas;Northern America;
he;Hebrew;Israel;_____;Q801;"Israelis;Israeli";"______;_______";IL;;no;Israel;yes;national;Asia;Western Asia;
hi;Hindi;Bihar;_____;Q1165;;;IN;IN-BR;yes;India;yes;national;Asia;Southern Asia;
hi;Hindi;Himachal Pradesh;______ ;Q1177;;;IN;IN-HP;yes;India;yes;national;Asia;Southern Asia;
hi;Hindi;Madhya Pradesh;____ ;Q1188;;;IN;IN-MP;yes;India;yes;national;Asia;Southern Asia;
hi;Hindi;Delhi;______;Q1353;;;IN;IN-DL;yes;India;yes;national;Asia;Southern Asia;
hi;Hindi;Rajasthan;________;Q1437;;;IN;IN-RJ;yes;India;yes;national;Asia;Southern Asia;
hi;Hindi;Uttar Pradesh;_____ ;Q1498;;;IN;IN-UP;yes;India;yes;national;Asia;Southern Asia;
hi;Hindi;Uttarakhand;__________;Q1499;;;IN;IN-UT;yes;India;yes;national;Asia;Southern Asia;
hi;Hindi;Punjab;_____;Q22424;;;IN;IN-PB;yes;India;yes;national;Asia;Southern Asia;
hi;Hindi;India;____;Q668;Indian;______;IN;;no;India;yes;national;Asia;Southern Asia;
hif;Hindi, Fiji;Fiji;Fiji;Q712;Fijian;;FJ;;no;Fiji;yes;no;Oceania;Melanesia;
ho;Motu, Hiri;Central;;Q874942;;;PG;PG-CPM;yes;Papua New Guinea;yes;no;Oceania;Melanesia;
ho;Motu, Hiri;Gulf;;Q874980;;;PG;PG-GPK;yes;Papua New Guinea;yes;no;Oceania;Melanesia;
ho;Motu, Hiri;Oro;;Q753686;;;PG;PG-NPP;yes;Papua New Guinea;yes;no;Oceania;Melanesia;
ho;Motu, Hiri;Western;;Q849790;;;PG;PG-WPD;yes;Papua New Guinea;yes;no;Oceania;Melanesia;
ho;Motu, Hiri;Milne Bay;;Q874962;;;PG;PG-MBA;yes;Papua New Guinea;yes;no;Oceania;Melanesia;
hr;Croatian;Croatia;Hrvatska;Q224;Croatian;"Hrvatica;Hrvat";HR;;no;Croatia;yes;national;Europe;Southern Europe;
hr;Croatian;Vienna;Be_;Q1741;;;AT;AT-9;yes;Austria;yes;no;Europe;Western Europe;
hr;Croatian;Lower Austria;Donja Austrija;Q42497;;;AT;AT-3;yes;Austria;yes;no;Europe;Western Europe;
hr;Croatian;Burgenland;Gradi__e;Q43210;;;AT;AT-1;yes;Austria;yes;no;Europe;Western Europe;
hr;Croatian;Bosnia and Herzegovina;Bosna i Hercegovina;Q225;"Herzegovinian;Bosnian";;BA;;no;Bosnia and Herzegovina;no;national;Europe;Southern Europe;
hr;Croatian;Montenegro;Crna Gora;Q236;Montenegrin;;ME;;no;Montenegro;yes;no;Europe;Southern Europe;
hr;Croatian;North Ba_ka District;Sjevernoba_ki upravni okrug;Q648758;;;RS;;yes;Serbia;no;regional;Europe;Southern Europe;
hsb;Sorbian, Upper;Sachsen;Sakska;Q1202;;;DE;DE-SN;yes;Germany;yes;no;Europe;Western Europe;
hsb;Sorbian, Upper;Brandenburg;Braniborska;Q1208;;;DE;DE-BB;yes;Germany;yes;no;Europe;Western Europe;
ht;Haitian Creole;Haiti;Ayiti;Q790;Haitian;;HT;;no;Haiti;yes;national;Americas;Latin America and the Caribbean;Caribbean
hu;Hungarian;Hungary;Magyarország;Q28;Hungarian;magyar;HU;;no;Hungary;yes;national;Europe;Eastern Europe;
hu;Hungarian;Vienna;Bécs;Q1741;;;AT;AT-9;yes;Austria;yes;no;Europe;Western Europe;
hu;Hungarian;Styria;Stájerország;Q41358;;;AT;AT-6;yes;Austria;yes;no;Europe;Western Europe;
hu;Hungarian;Lower Austria;Alsó-Ausztria;Q42497;;;AT;AT-3;yes;Austria;yes;no;Europe;Western Europe;
hu;Hungarian;Burgenland;Burgenland;Q43210;;;AT;AT-1;yes;Austria;yes;no;Europe;Western Europe;
hu;Hungarian;Austria;Ausztria;Q40;Austrian;osztrák;AT;;no;Austria;yes;no;Europe;Western Europe;
hu;Hungarian;Satu Mare;Szatmár megye;Q165459;;;RO;RO-SM;yes;Romania;yes;regional;Europe;Eastern Europe;
hu;Hungarian;Bihor;Bihar megye;Q179588;;;RO;RO-BH;yes;Romania;yes;regional;Europe;Eastern Europe;
hu;Hungarian;Cluj;Kolozs megye;Q182624;;;RO;RO-CJ;yes;Romania;yes;regional;Europe;Eastern Europe;
hu;Hungarian;Sibiu;Szeben megye;Q184797;;;RO;RO-SB;yes;Romania;yes;regional;Europe;Eastern Europe;
hu;Hungarian;Covasna;Kovászna megye;Q188959;;;RO;RO-CV;yes;Romania;yes;regional;Europe;Eastern Europe;
hu;Hungarian;Harghita;Hargita megye;Q190702;;;RO;RO-HR;yes;Romania;yes;regional;Europe;Eastern Europe;
hu;Hungarian;Alba County;Fehér megye;Q45868;;;RO;RO-AB;yes;Romania;yes;regional;Europe;Eastern Europe;
hu;Hungarian;Bistrita-Nasaud;Beszterce-Naszód megye;Q181513;;;RO;RO-BN;yes;Romania;yes;regional;Europe;Eastern Europe;
hu;Hungarian;Neam_ County;Neam_ megye;Q188661;;;RO;RO-NT;yes;Romania;yes;regional;Europe;Eastern Europe;
hu;Hungarian;Bac_u County;Bákó megye;Q179779;;;RO;RO-AB;yes;Romania;yes;regional;Europe;Eastern Europe;
hu;Hungarian;Central Banat;Közép-bánsági körzet;Q425782;;;RS;RS-02;yes;Serbia;yes;regional;Europe;Southern Europe;
hu;Hungarian;North Banat;Észak-bánsági körzet;Q728041;;;RS;RS-03;yes;Serbia;yes;regional;Europe;Southern Europe;
hu;Hungarian;South Ba_ka District;Dél-bácskai körzet;Q648718;;;RS;RS-06;yes;Serbia;yes;regional;Europe;Southern Europe;
hu;Hungarian;North Ba_ka District;Észak-bácskai körzet;Q648758;;;RS;RS-01;yes;Serbia;yes;regional;Europe;Southern Europe;
hu;Hungarian;Vojvodina;Vajdaság Autonóm Tartomány;Q44749;;;RS;RS-VO;yes;Serbia;yes;regional;Europe;Southern Europe;
hu;Hungarian;Nitra Region;Nyitrai kerület;Q184548;;;SK;SK-NI;yes;Slovakia;yes;regional;Europe;Eastern Europe;
hu;Hungarian;Trnava Region;Nagyszombati kerület;Q181342;Slovak;szlovák;SK;SK-TA;no;Slovakia;yes;regional;Europe;Eastern Europe;
hu;Hungarian;Banská Bystrica Region;Besztercebányai kerület;Q183640;Slovak;szlovák;SK;SK-BC;no;Slovakia;yes;regional;Europe;Eastern Europe;
hu;Hungarian;Ko_ice Region;Kassai kerület;Q186295;Slovak;szlovák;SK;SK-KI;no;Slovakia;yes;regional;Europe;Eastern Europe;
hu;Hungarian;Bratislava Region;Pozsonyi kerület;Q183498;Slovak;szlovák;SK;;no;Slovakia;yes;regional;Europe;Eastern Europe;
hu;Hungarian;Pomurska;Pomurska;Q846162;;;SI;;yes;Slovenia;no;regional;Europe;Southern Europe;
hu;Hungarian;Zakarpattia Oblast;Kárpátalja;Q170213;;;UA;;yes;Ukraine;yes;no;Europe;Eastern Europe;
hy;Armenian;Armenia;________;Q399;Armenian;;AM;;no;Armenia;yes;national;Asia;Western Asia;
hy;Armenian;Nagorno-Karabakh;________ _______;Q44302;"Azeri;Azerbaijani";;AZ;;no;Azerbaijan;yes;no;Asia;Western Asia;
hy;Armenian;Samtskhe-Javakheti;______-________ ____;Q19039;;;GE;GE-SJ;yes;Georgia;yes;no;Asia;Western Asia;
hy;Armenian;Ardabil Province;________ ______;Q134228;;;IR;IR-03;yes;Iran;yes;no;Asia;Southern Asia;
hy;Armenian;Azarbayjan-e Gharbi;________ ________;Q134411;;;IR;IR-02;yes;Iran;yes;no;Asia;Southern Asia;
hy;Armenian;Azarbayjan-e Sharqi;________ ________;Q176081;;;IR;IR-01;yes;Iran;yes;no;Asia;Southern Asia;
hz;Herero;Omaheke;;Q838775;;;NA;NA-OH;yes;Namibia;yes;no;Africa;Sub-Saharan Africa;Southern Africa
hz;Herero;Otjozondjupa;;Q876506;;;NA;NA-OD;yes;Namibia;yes;no;Africa;Sub-Saharan Africa;Southern Africa
hz;Herero;Kunene;;Q834513;;;NA;NA-KU;yes;Namibia;yes;no;Africa;Sub-Saharan Africa;Southern Africa
hz;Herero;Central;;Q57525;;;BW;BW-CE;yes;Botswana;yes;no;Africa;Sub-Saharan Africa;Southern Africa
hz;Herero;Ghanzi;;Q57571;;;BW;BW-GH;yes;Botswana;yes;no;Africa;Sub-Saharan Africa;Southern Africa
hz;Herero;Kgalagadi;;Q57581;;;BW;BW-KG;yes;Botswana;yes;no;Africa;Sub-Saharan Africa;Southern Africa
hz;Herero;Kgatleng;;Q57593;;;BW;BW-KL;yes;Botswana;yes;no;Africa;Sub-Saharan Africa;Southern Africa
hz;Herero;North-West district;;Q57617;;;BW;BW-NW;yes;Botswana;yes;no;Africa;Sub-Saharan Africa;Southern Africa
ia;Interlingua;;;;;;;;;;;;;;
id;Indonesian;Indonesia;Indonesia;Q252;Indonesian;;ID;;no;Indonesia;yes;national;Asia;South-eastern Asia;
ie;Interlingue;;;;;;;;;;;;;;
ig;Igbo;Nigeria;Naigeria;Q1033;Nigerian;;NG;;no;Nigeria;yes;regional;Africa;Sub-Saharan Africa;Western Africa
ii;Nuosu;Sichuan;;Q19770;;;CN;CN-SC;yes;China;yes;no;Asia;Eastern Asia;
ii;Nuosu;Yunnan;;Q43194;;;CN;CN-YN;yes;China;yes;no;Asia;Eastern Asia;
ik;Inupiatun, Northwest Alaska;Alaska;Alaska;Q797;;;US;US-AK;yes;United States;yes;no;Americas;Northern America;
ilo;Ilocano;La Union;La Union;Q13829;;;PH;PH-LUN;yes;Philippines;yes;no;Asia;South-eastern Asia;
ilo;Ilocano;Ilocos;Rehion ti Ilocos;Q12933;;;PH;PH-01;yes;Philippines;yes;no;Asia;South-eastern Asia;
ilo;Ilocano;Cagayan Valley;Tanap ti Cagayan;Q13615;;;PH;PH-02;yes;Philippines;yes;no;Asia;South-eastern Asia;
ilo;Ilocano;Cagayan;Cagayan;Q13759;;;PH;PH-CAG;yes;Philippines;yes;no;Asia;South-eastern Asia;
inh;Ingush;Ingushetiya Republic;;Q5219;;;RU;RU-IN;yes;Russian Federation;yes;no;Europe;Eastern Europe;
inh;Ingush;Republic of North Ossetia-Alania;;Q5237;;;RU;RU-SE;yes;Russian Federation;yes;no;Europe;Eastern Europe;
inh;Ingush;Kabardino-Balkar;;Q5267;;;RU;RU-KB;yes;Russian Federation;yes;no;Europe;Eastern Europe;
inh;Ingush;Chechen Republic;;Q5187;;;RU;RU-CE;yes;Russian Federation;yes;no;Europe;Eastern Europe;
io;Ido;;;;;;;;;;;;;;
is;Icelandic;Iceland;Ísland;Q189;Icelandic;;IS;;no;Iceland;yes;national;Europe;Northern Europe;
it;Italian;Italy;Italia;Q38;Italian;"italiano;italiana;italiani;italiane";IT;;no;Italy;yes;national;Europe;Southern Europe;
it;Italian;Istria;Istriana;Q58268;;;HR;HR-18;yes;Croatia;yes;regional;Europe;Southern Europe;
it;Italian;San Marino;San Marino;Q238;Sammarinese;"sammarinese;sammarinesi";SM;;no;San Marino;yes;national;Europe;Southern Europe;
it;Italian;Piran;Pirano;Q1382;;;SI;SI-090;yes;Slovenia;yes;regional;Europe;Southern Europe;
it;Italian;Izola;Isola;Q15877;;;SI;SI-040;yes;Slovenia;yes;regional;Europe;Southern Europe;
it;Italian;Graubünden;grigioni;Q11925;;;CH;CH-GR;yes;Switzerland;yes;national;Europe;Western Europe;
it;Italian;Ticino;ticino;Q12724;;;CH;CH-TI;yes;Switzerland;yes;national;Europe;Western Europe;
it;Italian;Vatican City;vaticano;Q237;;;VA;;no;Vatican State;no;national;Europe;Southern Europe;
iu;Inuktitut, Eastern Canadian;Nunavut;____;Q2023;;;CA;CA-NU;yes;Canada;yes;regional;Americas;Northern America;
iu;Inuktitut, Eastern Canadian;Quebec;____;Q176;;;CA;CA-QC;yes;Canada;yes;regional;Americas;Northern America;
iu;Inuinnaqtun;Newfoundland and Labrador;;Q2003;;;CA;CA-NL;yes;Canada;yes;regional;Americas;Northern America;
iu;Inuinnaqtun;Northwest Territories;______;Q2007;;;CA;CA-NT;yes;Canada;yes;regional;Americas;Northern America;
ja;Japanese;Japan;__;Q17;Japanese;___;JP;;no;Japan;yes;national;Asia;Eastern Asia;
jam;Jamaican Creole English;Jamaica;Jumieka;Q766;Jamaican;jumiekan;JM;;no;Jamaica;yes;no;Americas;Latin America and the Caribbean;Caribbean
jbo;Lojban;;;;;;;;;;;;;;
jv;Javanese;Jawa Timur;Jawa Wétan;Q3586;;;ID;ID-JI;yes;Indonesia;yes;no;Asia;South-eastern Asia;
jv;Javanese;Yogyakarta;Yogyakarta;Q3741;;;ID;ID-YO;yes;Indonesia;yes;no;Asia;South-eastern Asia;
jv;Javanese;Lampung;Lampung;Q2110;;;ID;ID-LA;yes;Indonesia;yes;no;Asia;South-eastern Asia;
jv;Javanese;Sumatra;Sumatra;Q3492;;;ID;ID-SM;yes;Indonesia;yes;no;Asia;South-eastern Asia;
jv;Javanese;Central Java;Jawa Tengah;Q3557;;;ID;ID-JT;yes;Indonesia;yes;no;Asia;South-eastern Asia;
jv;Javanese;Java;Jawa;Q3757;;;ID;ID-JW;yes;Indonesia;yes;no;Asia;South-eastern Asia;
jv;Javanese;Kalimantan;Kalimantan Kulon;Q3795;;;ID;ID-KB;yes;Indonesia;yes;no;Asia;South-eastern Asia;
jv;Javanese;Sulawesi;Sulawesi;Q3812;;;ID;ID-SL;yes;Indonesia;yes;no;Asia;South-eastern Asia;
jv;Javanese;Papua;Papua;Q5095;;;ID;ID-PA;yes;Indonesia;yes;no;Asia;South-eastern Asia;
jv;Javanese;Maluku;Maluku;Q5093;;;ID;ID-MA;yes;Indonesia;yes;no;Asia;South-eastern Asia;
jv;Javanese;Indonesia;Indonésia;Q252;Indonesian;;ID;;no;Indonesia;yes;no;Asia;South-eastern Asia;
ka;Georgian;Georgia;__________;Q230;Georgian;________;GE;;no;Georgia;yes;national;Asia;Western Asia;
ka;Georgian;Sakarya;________ _________;Q83069;;;TR;TR-54;yes;Turkey;yes;no;Asia;Western Asia;
ka;Georgian;Ordu;_____ _________;Q483180;;;TR;TR-52;yes;Turkey;yes;no;Asia;Western Asia;
ka;Georgian;Artvin;________ _________;Q43745;;;TR;TR-08;yes;Turkey;yes;no;Asia;Western Asia;
kaa;Karakalpak;Karakalpakstan;Qaraqalpaqstan;Q484245;;;UZ;UZ-QR;yes;Uzbekistan;yes;no;Asia;Central Asia;
kaa;Karakalpak;Navoiy;Nawayı;Q487570;;;UZ;UZ-NW;yes;Uzbekistan;yes;no;Asia;Central Asia;
kaa;Karakalpak;Buxoro;Buxara;Q487372;;;UZ;UZ-BU;yes;Uzbekistan;yes;no;Asia;Central Asia;
kaa;Karakalpak;Xorazm;Xorezm;Q487561;;;UZ;UZ-XO;yes;Uzbekistan;yes;no;Asia;Central Asia;
kab;Kabyle;Bouira;;Q233655;;;DZ;DZ-10;yes;Algeria;yes;no;Africa;Northern Africa;
kab;Kabyle;Tizi Ouzou;Tizi Wezzu;Q233645;;;DZ;DZ-15;yes;Algeria;yes;no;Africa;Northern Africa;
kab;Kabyle;Jijel;Tawilayt n Jijel;Q235718;;;DZ;DZ-18;yes;Algeria;yes;no;Africa;Northern Africa;
kab;Kabyle;Mila;;Q235723;;;DZ;DZ-43;yes;Algeria;yes;no;Africa;Northern Africa;
kab;Kabyle;Médéa;;Q235810;;;DZ;DZ-26;yes;Algeria;yes;no;Africa;Northern Africa;
kab;Kabyle;Boumerdès;Tawilayt n Bumerdas;Q236752;;;DZ;DZ-35;yes;Algeria;yes;no;Africa;Northern Africa;
kab;Kabyle;Sétif;;Q237164;;;DZ;DZ-19;yes;Algeria;yes;no;Africa;Northern Africa;
kab;Kabyle;Bordj Bou Arréridj;;Q266411;;;DZ;DZ-34;yes;Algeria;yes;no;Africa;Northern Africa;
kab;Kabyle;Algiers;Agezdu n Dzayer Tamana_t;Q141026;;;DZ;DZ-16;yes;Algeria;yes;no;Africa;Northern Africa;
kab;Kabyle;Béjaïa;Tawilayt n Bgayet;Q233665;;;DZ;DZ-06;yes;Algeria;yes;no;Africa;Northern Africa;
kbd;Kabardian;Kabardino-Balkar;_________-________;Q5267;;;RU;RU-KB;yes;Russian Federation;yes;no;Europe;Eastern Europe;
kbp;Kabiyè;Togo;Togo;Q945;Togolese;;TG;;no;Togo;yes;no;Africa;Sub-Saharan Africa;Western Africa
kbp;Kabiyè;Donga;;Q29161;;;BJ;BJ-DO;yes;Benin;yes;no;Africa;Sub-Saharan Africa;Western Africa
kg;Kongo;Democratic Republic of the Congo;Repubilika ya Kôngo ya Dimokalasi;Q974;;;CD;;no;Democratic Republic of the Congo;yes;no;Africa;Sub-Saharan Africa;Middle Africa
kg;Koongo;Kinshasa province;Kinsasa;Q3838;;;CD;CD-KN;yes;Democratic Republic of the Congo;yes;regional;Africa;Sub-Saharan Africa;Middle Africa
kg;Koongo;Zaire;Nzadi;Q196674;;;AO;AO-ZAI;yes;Angola;yes;no;Africa;Sub-Saharan Africa;Middle Africa
kg;Koongo;Bengo;Bengo;Q191299;;;AO;AO-BGO;yes;Angola;yes;no;Africa;Sub-Saharan Africa;Middle Africa
kg;Koongo;Malanje;;Q219072;;;AO;AO-MAL;yes;Angola;yes;no;Africa;Sub-Saharan Africa;Middle Africa
kg;Koongo;Cuanza Norte;;Q216834;;;AO;;yes;Angola;yes;no;Africa;Sub-Saharan Africa;Middle Africa
kg;Koongo;Cabinda;Kabinda;Q168787;;;AO;AO-CAB;yes;Angola;yes;no;Africa;Sub-Saharan Africa;Middle Africa
kg;Koongo;Angola;Ngola;Q916;Angolan;;AO;;no;Angola;yes;no;Africa;Sub-Saharan Africa;Middle Africa
kg;Laari;Bouenza department;Buenza;Q827015;;;CG;CG-11;yes;Congo;yes;no;Africa;Sub-Saharan Africa;Middle Africa
kg;Laari;Pool Department;Pool;Q864647;;;CG;CG-12;yes;Congo;yes;no;Africa;Sub-Saharan Africa;Middle Africa
kg;Kongo, San Salvador;Bas-Congo;Kongo ya Mitiu;Q130588;;;CD;CD-BC;yes;Democratic Republic of the Congo;yes;no;Africa;Sub-Saharan Africa;Middle Africa
ki;Gikuyu;Nyeri;;Q749665;;;KE;KE-36;yes;Kenya;yes;no;Africa;Sub-Saharan Africa;Eastern Africa
ki;Gikuyu;Kirinyaga;;Q2230311;;;KE;KE-15;yes;Kenya;yes;no;Africa;Sub-Saharan Africa;Eastern Africa
ki;Gikuyu;Kiambu;;Q2575594;;;KE;KE-13;yes;Kenya;yes;no;Africa;Sub-Saharan Africa;Eastern Africa
ki;Gikuyu;Meru;;Q15045704;;;KE;KE-26;yes;Kenya;yes;no;Africa;Sub-Saharan Africa;Eastern Africa
ki;Gikuyu;Nakuru;;Q1852202;;;KE;KE-31;yes;Kenya;yes;no;Africa;Sub-Saharan Africa;Eastern Africa
ki;Gikuyu;Nairobi;Nairobi;Q3335223;;;KE;KE-30;yes;Kenya;yes;no;Africa;Sub-Saharan Africa;Eastern Africa
kj;Oshiwambo;Cunene;;Q216987;;;AO;AO-CNN;yes;Angola;yes;no;Africa;Sub-Saharan Africa;Middle Africa
kj;Oshiwambo;Kunene;;Q834513;;;NA;NA-KU;yes;Namibia;yes;no;Africa;Sub-Saharan Africa;Southern Africa
kj;Oshiwambo;Ohangwena;;Q845702;;;NA;NA-OW;yes;Namibia;yes;no;Africa;Sub-Saharan Africa;Southern Africa
kj;Oshiwambo;Oshikoto;;Q876512;;;NA;NA-OT;yes;Namibia;yes;no;Africa;Sub-Saharan Africa;Southern Africa
kj;Oshiwambo;Oshana;;Q534528;;;NA;NA-ON;yes;Namibia;yes;no;Africa;Sub-Saharan Africa;Southern Africa
kj;Oshiwambo;Omusati;;Q764385;;;NA;NA-OS;yes;Namibia;yes;no;Africa;Sub-Saharan Africa;Southern Africa
kj;Oshiwambo;Kavango West;;Q14824027;;;NA;NA-KW;yes;Namibia;yes;no;Africa;Sub-Saharan Africa;Southern Africa
kk;Kazakh;Kazakhstan;_________;Q232;"Kazakhstani;Kazakh";;KZ;;no;Kazakhstan;yes;national;Asia;Central Asia;
kk;Kazakh;Gansu;______;Q42392;;;CN;CN-GS;yes;China;yes;no;Asia;Eastern Asia;
kk;Kazakh;Qinghai;;Q45833;;;CN;CN-63;yes;China;yes;no;Asia;Eastern Asia;
kk;Kazakh;Xinjiang;______ _____ ____________ ______;Q34800;;;CN;CN-XJ;yes;China;yes;no;Asia;Eastern Asia;
kk;Kazakh;Bayan-Ölgii;____-_____;Q191792;;;MN;MN-071;yes;Mongolia;yes;no;Asia;Eastern Asia;
kk;Kazakh;Karakalpakstan;______________;Q484245;;;UZ;UZ-QR;yes;Uzbekistan;yes;no;Asia;Central Asia;
kk;Kazakh;Bukhara Region;______;Q487372;;;UZ;UZ-BU;yes;Uzbekistan;yes;no;Asia;Central Asia;
kk;Kazakh;Jizzakh Region;;Q488811;;;UZ;UZ-JI;yes;Uzbekistan;yes;no;Asia;Central Asia;
kk;Kazakh;Sirdaryo;;Q487547;;;UZ;UZ-SI;yes;Uzbekistan;yes;no;Asia;Central Asia;
kk;Kazakh;Navoiy;_____ ______;Q487570;;;UZ;UZ-NW;yes;Uzbekistan;yes;no;Asia;Central Asia;
kl;Greenlandic;Greenland;Kalaallit Nunaat;Q223;;;GL;;no;Greenland;yes;national;Americas;Northern America;
km;Khmer;Cambodia;_______;Q424;Cambodian;;KH;;no;Cambodia;yes;national;Asia;South-eastern Asia;
km;Khmer;Can Tho;_________________;Q216075;;;VN;VN-CT;yes;Viet Nam;yes;no;Asia;South-eastern Asia;
km;Khmer;Long An;____________;Q26573;;;VN;VN-41;yes;Viet Nam;yes;no;Asia;South-eastern Asia;
km;Khmer;Ca Mau;____________;Q33354;;;VN;VN-59;yes;Viet Nam;yes;no;Asia;South-eastern Asia;
km;Khmer;Hau Giang;;Q36320;;;VN;VN-73;yes;Viet Nam;yes;no;Asia;South-eastern Asia;
km;Khmer;Kien Giang;____________;Q36576;;;VN;VN-47;yes;Viet Nam;yes;no;Asia;South-eastern Asia;
km;Khmer;An Giang;______________;Q36592;;;VN;VN-44;yes;Viet Nam;yes;no;Asia;South-eastern Asia;
km;Khmer;Bac Lieu;__________;Q36658;;;VN;VN-55;yes;Viet Nam;yes;no;Asia;South-eastern Asia;
km;Khmer;Dong Thap;_____________;Q36676;;;VN;VN-45;yes;Viet Nam;yes;no;Asia;South-eastern Asia;
km;Khmer;Ho Chi Minh;____________;Q1854;;;VN;VN-SG;yes;Viet Nam;yes;no;Asia;South-eastern Asia;
kn;Kannada;Goa;____;Q1171;;;IN;IN-GA;yes;India;yes;regional;Asia;Southern Asia;
kn;Kannada;Karnataka;_______;Q1185;;;IN;IN-KA;yes;India;yes;regional;Asia;Southern Asia;
kn;Kannada;Andhra Pradesh;_____ ______;Q1159;;;IN;IN-AP;yes;India;yes;regional;Asia;Southern Asia;
kn;Kannada;Maharashtra;__________;Q1191;;;IN;IN-MH;yes;India;yes;regional;Asia;Southern Asia;
kn;Kannada;Tamil Nadu;_________;Q1445;;;IN;IN-TN;yes;India;yes;regional;Asia;Southern Asia;
kn;Kannada;Kerala;____;Q1186;;;IN;IN-KL;yes;India;yes;regional;Asia;Southern Asia;
ko;Korean;South Korea;____;Q884;;;KR;;no;Korea, South;yes;national;Asia;Eastern Asia;
ko;Korean;North Korea;___________;Q423;;;KP;;yes;North Korea;yes;national;Asia;Eastern Asia;
koi;Komi-Permyak;Komi;____ __________;Q2073;;;RU;RU-KO;yes;Russian Federation;yes;no;Europe;Eastern Europe;
kr;Kanuri, Central;Borno;;Q130626;;;NG;NG-BO;yes;Nigeria;yes;no;Africa;Sub-Saharan Africa;Western Africa
kr;Kanuri, Central;Gombe;;Q376241;;;NG;NG-GO;yes;Nigeria;yes;no;Africa;Sub-Saharan Africa;Western Africa
kr;Kanuri, Central;North;;Q502341;;;CM;CM-NO;yes;Cameroon;yes;no;Africa;Sub-Saharan Africa;Middle Africa
kr;Kanuri, Central;Far North;;Q823976;;;CM;CM-EN;yes;Cameroon;yes;no;Africa;Sub-Saharan Africa;Middle Africa
kr;Kanuri, Central;Chari-Baguirmi;;Q843975;;;TD;TD-CB;yes;Chad;yes;no;Africa;Sub-Saharan Africa;Middle Africa
kr;Kanuri, Central;Mayo-Kebbi Est;;Q911421;;;TD;TD-ME;yes;Chad;yes;no;Africa;Sub-Saharan Africa;Middle Africa
kr;Kanuri, Central;Hadjer-Lamis;;Q1042437;;;TD;TD-HL;yes;Chad;yes;no;Africa;Sub-Saharan Africa;Middle Africa
kr;Kanuri, Manga;Zinder;;Q204367;;;NE;NE-7;yes;Niger;yes;no;Africa;Sub-Saharan Africa;Western Africa
kr;Kanuri, Manga;Diffa;;Q1053302;;;NE;NE-2;yes;Niger;yes;no;Africa;Sub-Saharan Africa;Western Africa
kr;Kanuri, Manga;Yobe;;Q682777;;;NG;NG-YO;yes;Nigeria;yes;no;Africa;Sub-Saharan Africa;Western Africa
kr;Kanuri, Manga;Bauchi;;Q503936;;;NG;NG-BA;yes;Nigeria;yes;no;Africa;Sub-Saharan Africa;Western Africa
kr;Kanuri, Manga;Jigawa;;Q682691;;;NG;NG-JI;yes;Nigeria;yes;no;Africa;Sub-Saharan Africa;Western Africa
krc;Karachay-Balkar;Kabardino-Balkar;________-_______;Q5267;;;RU;RU-KB;yes;Russian Federation;yes;no;Europe;Eastern Europe;
krc;Karachay-Balkar;Karachay-Cherkess;________-________;Q5328;;;RU;RU-KC;yes;Russian Federation;yes;no;Europe;Eastern Europe;
ks;Kashmiri;Himachal Pradesh;_____ _____;Q1177;;;IN;IN-HP;yes;India;yes;no;Asia;Southern Asia;
ks;Kashmiri;Jammu and Kashmir;___ ___ ______;Q1180;;;IN;IN-JK;yes;India;yes;no;Asia;Southern Asia;
ks;Kashmiri;Azad Kashmir;____ ______;Q200130;;;PK;PK-JK;yes;Pakistan;yes;no;Asia;Southern Asia;
ksh;Ripuarian;North Rhine-Westphalia;Nordrhein-Westfalen;Q1198;;;DE;DE-NW;yes;Germany;yes;no;Europe;Western Europe;
ku;Kurdish, Central;Arbil;Hewlêr;Q213189;;;IQ;IQ-AR;yes;Iraq;yes;regional;Asia;Western Asia;
ku;Kurdish, Central;Kirkuk;Kerkûk;Q193268;;;IQ;IQ-KI;yes;Iraq;yes;regional;Asia;Western Asia;
ku;Kurdish, Central;Sulaymaniyah;Silêmanî;Q213182;;;IQ;IQ-SU;yes;Iraq;yes;regional;Asia;Western Asia;
ku;Kurdish, Central;Diyala;Diyala;Q217075;;;IQ;IQ-DI;yes;Iraq;yes;regional;Asia;Western Asia;
ku;Kurdish, Central;Salah ad Din;Selahedîn;Q190131;;;IQ;IQ-SD;yes;Iraq;yes;regional;Asia;Western Asia;
ku;Kurdish, Central;Kurdistan Province;Kurdistan;Q134386;;;IR;IR-16;yes;Iran;yes;regional;Asia;Southern Asia;
ku;Kurdish, Central;West Azarbaijan Province;Azerbaycana Rojava;Q134411;;;IR;IR-01;yes;Iran;yes;no;Asia;Southern Asia;
ku;Kurdish, Central;Zanjan;Zengan;Q146726;;;IR;IR-11;yes;Iran;yes;no;Asia;Southern Asia;
ku;Kurdish, Central;Kerman;Kirman;Q165352;;;IR;IR-15;yes;Iran;yes;no;Asia;Southern Asia;
ku;Kurdish, Northern;Turkey;Tirkiye;Q43;Turkish;;TR;;no;Turkey;yes;no;Asia;Western Asia;
ku;Kurdish, Northern;Aragatsotn;;Q17915;;;AM;AM-AG;yes;Armenia;yes;no;Asia;Western Asia;
ku;Kurdish, Northern;Ararat;Parêzgeha Ararat;Q199880;;;AM;AM-AR;yes;Armenia;yes;no;Asia;Western Asia;
ku;Kurdish, Northern;Armavir;Armawîr;Q201147;;;AM;AM-AV;yes;Armenia;yes;no;Asia;Western Asia;
ku;Kurdish, Northern;Gegharkunik;;Q199905;;;AM;AM-GR;yes;Armenia;yes;no;Asia;Western Asia;
ku;Kurdish, Northern;Kotayk;;Q4511;;;AM;AM-KT;yes;Armenia;yes;no;Asia;Western Asia;
ku;Kurdish, Northern;Shirak;;Q201063;;;AM;AM-SH;yes;Armenia;yes;no;Asia;Western Asia;
ku;Kurdish, Northern;Kalbajar;;Q457513;;;AZ;AZ-KAL;yes;Azerbaijan;yes;no;Asia;Western Asia;
ku;Kurdish, Northern;Lachin;;Q301832;;;AZ;AZ-LAC;yes;Azerbaijan;yes;no;Asia;Western Asia;
ku;Kurdish, Northern;Ordubad;;Q512623;;;AZ;AZ-ORD;yes;Azerbaijan;yes;no;Asia;Western Asia;
ku;Kurdish, Northern;Mazandaran;Mazenderan;Q308864;;;IR;IR-21;yes;Iran;yes;no;Asia;Southern Asia;
ku;Kurdish, Northern;Golestan;Gulistan;Q170041;;;IR;IR-27;yes;Iran;yes;no;Asia;Southern Asia;
ku;Kurdish, Northern;Qazvin;Qazwên;Q1105893;;;IR;IR-28;yes;Iran;yes;no;Asia;Southern Asia;
ku;Kurdish, Northern;Dahuk;Dihok;Q152831;;;IQ;IQ-DA;yes;Iraq;yes;regional;Asia;Western Asia;
ku;Kurdish, Northern;Ninawa;Neynewa;Q189352;;;IQ;IQ-NI;yes;Iraq;yes;regional;Asia;Western Asia;
ku;Kurdish, Northern;Al Hasakah;Hesîçe;Q233914;;;SY;SY-HA;yes;Syria;yes;no;Asia;Western Asia;
ku;Kurdish, Northern;Halab;Heleb;Q41183;;;SY;SY-HL;yes;Syria;yes;no;Asia;Western Asia;
ku;Kurdish, Northern;Ar Raqqah;Reqa;Q235563;;;SY;SY-RA;yes;Syria;yes;no;Asia;Western Asia;
ku;Kurdish, Southern;Ilam;Îlam;Q170570;;;IR;IR-05;yes;Iran;yes;no;Asia;Southern Asia;
ku;Kurdish, Southern;Kermanshah;Kirma_an;Q174010;;;IR;IR-17;yes;Iran;yes;no;Asia;Southern Asia;
ku;Kurdish, Southern;Hamadan;Hemedan;Q187373;;;IR;IR-24;yes;Iran;yes;no;Asia;Southern Asia;
ku;Kurdish, Southern;Khuzestan;Xûzistan;Q241119;;;IR;IR-10;yes;Iran;yes;no;Asia;Southern Asia;
ku;Kurdish, Southern;Lorestan;Luristan;Q1131727;;;IR;IR-20;yes;Iran;yes;no;Asia;Southern Asia;
ku;Kurdish, Southern;Wasit;Wasit;Q189747;;;IQ;IQ-WA;yes;Iraq;yes;no;Asia;Western Asia;
ku;Kurdish, Southern;Baghdad;Bexdad;Q191075;;;IQ;IQ-BG;yes;Iraq;yes;no;Asia;Western Asia;
ku;Kurdish, Southern;Maysan;Meysan;Q213170;;;IQ;IQ-MA;yes;Iraq;yes;no;Asia;Western Asia;
kv;Komi-Zyrian;Komi;____ __________;Q2073;;;RU;RU-KO;yes;Russian Federation;yes;no;Europe;Eastern Europe;
kw;Cornish;Cornwall;Kernow;Q23148;;;GB;GB-CON;yes;United Kingdom;yes;no;Europe;Northern Europe;
ky;Kyrgyz;Kyrgyzstan;__________;Q813;Kyrgyz;;KG;;no;Kyrgyzstan;yes;national;Asia;Central Asia;
ky;Kyrgyz;Xinjiang;______-_____ _______ ______;Q34800;;;CN;CN-XJ;yes;China;yes;regional;Asia;Eastern Asia;
ky;Kyrgyz;Gorno-Badakhshan Autonomous;______-________ ____________;Q207319;;;TJ;;no;Tajikistan;yes;no;Asia;Central Asia;
la;Latin;Vaticano;Vaticana;Q237;;;VA;;no;Vatican State;yes;no;Europe;Southern Europe;
lad;Ladino;Jerusalem;;Q192232;;;IL;IL-JM;yes;Israel;yes;no;Asia;Western Asia;
lb;Luxembourgish;Luxembourg;Lëtzebuerg;Q32;"Luxembourger;Luxembourgish";"Lëtzebuerger;Lëtzebuergerin";LU;;no;Luxembourg;yes;no;Europe;Western Europe;
lb;Luxembourgish;Luxembourg;Provënz Lëtzebuerg;Q1126;;;BE;BE-WLX;yes;Belgium;yes;no;Europe;Western Europe;
lb;Luxembourgish;Champagne-Ardenne;Champagne-Ardenne;Q14103;;;FR;FR-G;yes;France;yes;no;Europe;Western Europe;
lb;Luxembourgish;Lorraine;Loutrengen;Q1137;;;FR;FR-M;yes;France;yes;no;Europe;Western Europe;
lb;Luxembourgish;Alsace;Elsass;Q1142;;;FR;FR-A;yes;France;yes;no;Europe;Western Europe;
lb;Luxembourgish;Moselle;Departement Moselle;Q12652;;;FR;FR-57;yes;France;yes;no;Europe;Western Europe;
lb;Luxembourgish;Rhineland-Palatinate;Rheinland-Pfalz;Q1200;;;DE;DE-RP;yes;Germany;yes;no;Europe;Western Europe;
lbe;Lak;Republic of Dagestan;________;Q5118;;;RU;RU-DA;yes;Russian Federation;yes;no;Europe;Eastern Europe;
lez;Lezgi;Republic of Dagestan;_________;Q5118;;;RU;RU-DA;yes;Russian Federation;yes;no;Europe;Eastern Europe;
lez;Lezgi;Qusar;__I__ _____;Q386506;;;AZ;AZ-QUS;yes;Azerbaijan;yes;no;Asia;Western Asia;
lfn;Lingua Franca Nova;;;;;;;;;;;;;;
lg;Ganda;Buganda;Buganda;Q473748;;;UG;;yes;Uganda;yes;no;Africa;Sub-Saharan Africa;Eastern Africa
li;Limburgish;Limburg;Nederlands Limburg;Q1093;;;NL;NL-LI;yes;Netherlands;yes;regional;Europe;Western Europe;
li;Limburgish;Limburg;Belsj Limburg;Q1095;;;BE;BE-VLI;yes;Belgium;yes;no;Europe;Western Europe;
li;Limburgish;Liège;Luuk;Q1127;;;BE;BE-WLG;yes;Belgium;yes;no;Europe;Western Europe;
lij;Ligurian;Liguria;Liguria;Q1256;;;IT;IT-42;yes;Italy;yes;no;Europe;Southern Europe;
lij;Ligurian;Cuneo;Cuneo;Q15091;;;IT;IT-CN;yes;Italy;yes;no;Europe;Southern Europe;
lij;Ligurian;Sardinia;Sardegna;Q1462;;;IT;IT-88;yes;Italy;yes;no;Europe;Southern Europe;
lij;Ligurian;Bonifacio;Bonifaçio;Q204051;;;FR;;yes;France;yes;no;Europe;Western Europe;
lmo;Lombard;Lombardy;Lumbardia;Q1210;;;IT;IT-25;yes;Italy;yes;no;Europe;Southern Europe;
lmo;Lombard;Veneto;Veneto;Q1243;;;IT;IT-34;yes;Italy;yes;no;Europe;Southern Europe;
lmo;Lombard;Trentino;Trent;Q16289;;;IT;IT-TN;yes;Italy;yes;no;Europe;Southern Europe;
lmo;Lombard;Piacenza;Piaçensa;Q16243;;;IT;IT-PC;yes;Italy;yes;no;Europe;Southern Europe;
lmo;Lombard;Emilia-Romagna;Emilia-Romagna;Q1263;;;IT;IT-45;yes;Italy;yes;no;Europe;Southern Europe;
lmo;Lombard;Ticino;Tesin;Q12724;;;CH;CH-TI;yes;Switzerland;yes;no;Europe;Western Europe;
lmo;Lombard;Graubünden;Grisun;Q11925;;;CH;CH-GR;yes;Switzerland;yes;no;Europe;Western Europe;
ln;Lingala;Bandundu;Bandundu;Q671442;;;CD;;yes;Democratic Republic of the Congo;yes;regional;Africa;Sub-Saharan Africa;Middle Africa
ln;Lingala;Kinshasa;Kinsásá;Q3091458;;;CD;;yes;Democratic Republic of the Congo;yes;regional;Africa;Sub-Saharan Africa;Middle Africa
ln;Lingala;Equateur;;Q988104;;;CD;;yes;Democratic Republic of the Congo;yes;regional;Africa;Sub-Saharan Africa;Middle Africa
ln;Lingala;Oriantale;Etúká ya Mony_l_;Q831370;;;CD;;yes;Democratic Republic of the Congo;yes;regional;Africa;Sub-Saharan Africa;Middle Africa
ln;Lingala;Brazzaville;Brazzaville;Q3844;;;CG;;yes;Congo;yes;no;Africa;Sub-Saharan Africa;Middle Africa
lo;Lao;Laos;________;Q819;;;LA;;no;Laos;yes;national;Asia;South-eastern Asia;
lo;Lao;Nakhon Pathom;_________________;Q334841;;;TH;TH-73;yes;Thailand;yes;national;Asia;South-eastern Asia;
lo;Lao;Nakhonsawan;__________________;Q239844;;;TH;TH-60;yes;Thailand;yes;national;Asia;South-eastern Asia;
lo;Lao;Banteay Meanchey;;Q3817;;;KH;KH-1;yes;Cambodia;yes;no;Asia;South-eastern Asia;
lo;Lao;Prey Veng;;Q856788;;;KH;KH-14;yes;Cambodia;yes;no;Asia;South-eastern Asia;
lo;Lao;Stung Treng;;Q837889;;;KH;KH-19;yes;Cambodia;yes;no;Asia;South-eastern Asia;
lo;Lao;Svay Rieng;;Q751864;;;KH;KH-20;yes;Cambodia;yes;no;Asia;South-eastern Asia;
lrc;Luri, Northern;Ilam;______ _____;Q170570;;;IR;IR-05;yes;Iran;yes;no;Asia;Southern Asia;
lrc;Luri, Northern;Hamadan;______ _______;Q187373;;;IR;IR-24;yes;Iran;yes;no;Asia;Southern Asia;
lrc;Luri, Northern;Khuzestan;______ _________;Q241119;;;IR;IR-10;yes;Iran;yes;no;Asia;Southern Asia;
lrc;Luri, Northern;Lorestan;;Q1131727;;;IR;IR-20;yes;Iran;yes;no;Asia;Southern Asia;
lrc;Luri, Northern;Markazi;______ _______;Q134417;;;IR;IR-22;yes;Iran;yes;no;Asia;Southern Asia;
lt;Lithuanian;Lithuania;Lietuva;Q37;Lithuanian;;LT;;no;Lithuania;yes;national;Europe;Northern Europe;
lt;Lithuanian;Podlaskie Voivodeship;Palenk_s vaivadija;Q54177;;;PL;PL-PD;yes;Poland;no;regional;Europe;Eastern Europe;
ltg;Latgalian;Latgale;Latgola;Q208113;;;LV;;yes;Latvia;yes;no;Europe;Northern Europe;
ltg;Latgalian;Daugavpils;Daugpi_s;Q960572;;;LV;LV-025;yes;Latvia;yes;no;Europe;Northern Europe;
ltg;Latgalian;Balvi;Bolvu;Q2018672;;;LV;LV-015;yes;Latvia;yes;no;Europe;Northern Europe;
lv;Latvian, Standard;Latvia;Latvija;Q211;Latvian;latvietis;LV;;no;Latvia;yes;national;Europe;Northern Europe;
mai;Maithili;Bihar;_____;Q1165;;;IN;IN-BR;yes;India;yes;regional;Asia;Southern Asia;
mai;Maithili;Delhi;______;Q1353;;;IN;IN-DL;yes;India;yes;regional;Asia;Southern Asia;
mai;Maithili;Mumbai;______;Q1156;;;IN;;yes;India;yes;regional;Asia;Southern Asia;
mai;Maithili;Janakpur;______;Q9152;;;NP;NP-JA;yes;Nepal;yes;no;Asia;Southern Asia;
mai;Maithili;Kosi;____;Q9170;;;NP;NP-KO;yes;Nepal;yes;no;Asia;Southern Asia;
mai;Maithili;Narayani;_______;Q9183;;;NP;NP-NA;yes;Nepal;yes;no;Asia;Southern Asia;
mai;Maithili;Sagarmatha;_______;Q9195;;;NP;NP-SA;yes;Nepal;yes;no;Asia;Southern Asia;
map_bms;Javanese;Sulawesi;Sulawesi;Q3812;;;ID;ID-SL;yes;Indonesia;yes;no;Asia;South-eastern Asia;
map_bms;Javanese;Maluku;;Q5093;;;ID;ID-MA;yes;Indonesia;yes;no;Asia;South-eastern Asia;
map_bms;Javanese;Jawa Tengah;Propinsi Jawa Tengah;Q3557;;;ID;ID-JT;yes;Indonesia;yes;no;Asia;South-eastern Asia;
map_bms;Javanese;Yogyakarta;Daerah Istimewa Yogyakarta;Q3741;;;ID;ID-YO;yes;Indonesia;yes;no;Asia;South-eastern Asia;
map_bms;Javanese;Papua;Papua;Q5095;;;ID;ID-IJ;yes;Indonesia;yes;no;Asia;South-eastern Asia;
map_bms;Javanese;Lampung;;Q2110;;;ID;ID-LA;yes;Indonesia;yes;no;Asia;South-eastern Asia;
map_bms;Javanese;Sumatra;Sumatera;Q3492;;;ID;ID-SM;yes;Indonesia;yes;no;Asia;South-eastern Asia;
map_bms;Javanese;Kalimantan;;Q3795;;;ID;ID-KA;yes;Indonesia;yes;no;Asia;South-eastern Asia;
mdf;Moksha;Republic of Mordovia;________;Q5340;;;RU;RU-MO;yes;Russian Federation;yes;no;Europe;Eastern Europe;
mdf;Moksha;Nizhny Novgorod;;Q2246;;;RU;RU-NIZ;yes;Russian Federation;yes;no;Europe;Eastern Europe;
mdf;Moksha;Penza;_______ _____;Q5545;;;RU;RU-PNZ;yes;Russian Federation;yes;no;Europe;Eastern Europe;
mg;Malagasy;Madagascar;Madagasikara;Q1019;Malagasy;;MG;;no;Madagascar;yes;no;Africa;Sub-Saharan Africa;Eastern Africa
mh;Marshallese;Marshall Islands;Aolep_n Aor_kin __aje_;Q709;;;MH;;no;Marshall Islands;yes;national;Oceania;Micronesia;
mhr;Mari, Meadow;Mari El Republic;_____ __;Q5446;;;RU;RU-ME;yes;Russian Federation;yes;no;Europe;Eastern Europe;
mhr;Mari, Meadow;Kirov;_____ ___;Q5387;;;RU;RU-KIR;yes;Russian Federation;yes;no;Europe;Eastern Europe;
mhr;Mari, Meadow;Sverdlovsk;__________ ___;Q5462;;;RU;RU-SVE;yes;Russian Federation;yes;no;Europe;Eastern Europe;
mhr;Mari, Meadow;Perm Krai;_____ ______;Q5400;;;RU;RU-PER;yes;Russian Federation;yes;no;Europe;Eastern Europe;
mi;Maori;North;Te Ika-a-M_ui;Q118863;;;NZ;NZ-N;yes;New Zealand;yes;no;Oceania;Australia and New Zealand;
min;Minangkabau;West Sumatra;Sumatera Barat;Q2772;;;ID;ID-SB;yes;Indonesia;yes;no;Asia;South-eastern Asia;
min;Minangkabau;Bengkulu;Bengkulu;Q1890;;;ID;ID-BE;yes;Indonesia;yes;no;Asia;South-eastern Asia;
min;Minangkabau;Sumatra;Sumatra;Q3492;;;ID;ID-SM;yes;Indonesia;yes;no;Asia;South-eastern Asia;
mk;Macedonian;Macedonia;__________;Q221;;;MK;;no;Macedonia;yes;national;Europe;Southern Europe;
mk;Macedonian;Bitola;______;Q159380;;;MK;MK-04;yes;Macedonia;yes;national;Europe;Southern Europe;
mk;Macedonian;Debar;_____;Q1344996;;;MK;MK-21;yes;Macedonia;yes;national;Europe;Southern Europe;
mk;Macedonian;Kratovo;_______;Q1992716;;;MK;MK-43;yes;Macedonia;yes;national;Europe;Southern Europe;
mk;Macedonian;Gevgelija;_________;Q2018974;;;MK;MK-18;yes;Macedonia;yes;national;Europe;Southern Europe;
mk;Macedonian;Veles;_____;Q2088561;;;MK;MK-13;yes;Macedonia;yes;national;Europe;Southern Europe;
mk;Macedonian;Strumica;________;Q2308287;;;MK;MK-73;yes;Macedonia;yes;national;Europe;Southern Europe;
mk;Macedonian;Kumanovo;________;Q2352376;;;MK;MK-47;yes;Macedonia;yes;national;Europe;Southern Europe;
mk;Macedonian;Prilep;______;Q6312454;;;MK;MK-62;yes;Macedonia;yes;national;Europe;Southern Europe;
mk;Macedonian;Dojran;______;Q1996413;;;MK;MK-26;yes;Macedonia;yes;national;Europe;Southern Europe;
mk;Macedonian;Blagoevgrad;______________ ______;Q804311;;;BG;BG-01;yes;Bulgaria;yes;no;Europe;Eastern Europe;
mk;Macedonian;Epirus;____;Q180484;;;GR;GR-D;yes;Greece;yes;no;Europe;Southern Europe;
mk;Macedonian;Florina;_____;Q211314;;;GR;GR-63;yes;Greece;yes;no;Europe;Southern Europe;
mk;Macedonian;Kastoria;______;Q1080115;;;GR;GR-56;yes;Greece;yes;no;Europe;Southern Europe;
ml;Malayalam;Karnataka;______;Q1185;;;IN;IN-KA;yes;India;yes;regional;Asia;Southern Asia;
ml;Malayalam;Kerala;_____;Q1186;;;IN;IN-KL;yes;India;yes;regional;Asia;Southern Asia;
ml;Malayalam;Lakshadweep;__________;Q26927;;;IN;IN-LD;yes;India;yes;regional;Asia;Southern Asia;
ml;Malayalam;Puducherry;__________;Q66743;;;IN;IN-PY;yes;India;yes;regional;Asia;Southern Asia;
ml;Malayalam;Tamil Nadu;__________;Q1445;;;IN;IN-TN;yes;India;yes;regional;Asia;Southern Asia;
mn;Mongolian;Mongolia;______ ___;Q711;"Mongolian;Mongol";;MN;;no;Mongolia;yes;no;Asia;Eastern Asia;
mn;Mongolian, Halh;Republic of Buryatia;_______;Q6809;;;RU;;yes;Russian Federation;yes;no;Europe;Eastern Europe;
mn;Mongolian, Peripheral;Nei Mongol;____ ________ ______ _____ ____;Q41079;;;CN;CN-15;yes;China;yes;no;Asia;Eastern Asia;
mn;Mongolian, Peripheral;Xinjiang;_______ - _______ ______ _____ ____;Q34800;;;CN;CN-XJ;yes;China;yes;no;Asia;Eastern Asia;
mn;Mongolian, Peripheral;Ningxia;_____ - _________ ______ _____ ____;Q57448;;;CN;CN-64;yes;China;yes;no;Asia;Eastern Asia;
mn;Mongolian, Peripheral;Heilongjiang;________;Q19206;;;CN;CN-HL;yes;China;yes;no;Asia;Eastern Asia;
mn;Mongolian, Peripheral;Hebei;_____;Q21208;;;CN;CN-HE;yes;China;yes;no;Asia;Eastern Asia;
mn;Mongolian, Peripheral;Gansu;______;Q42392;;;CN;CN-GS;yes;China;yes;no;Asia;Eastern Asia;
mn;Mongolian, Peripheral;Liaoning;______;Q43934;;;CN;CN-LN;yes;China;yes;no;Asia;Eastern Asia;
mn;Mongolian, Peripheral;Jilin;_____;Q45208;;;CN;CN-JL;yes;China;yes;no;Asia;Eastern Asia;
mn;Mongolian;Sükhbaatar;_________;Q244804;;;MN;MN-051;yes;Mongolia;yes;no;Asia;Eastern Asia;
mn;Mongolian;Govi-Altay;____-_____;Q192945;;;MN;MN-065;yes;Mongolia;yes;no;Asia;Eastern Asia;
mn;Mongolian;Bayanhongor;__________;Q276200;;;MN;MN-069;yes;Mongolia;yes;no;Asia;Eastern Asia;
mn;Mongolian;Dornod;______;Q207795;;;MN;MN-061;yes;Mongolia;yes;no;Asia;Eastern Asia;
mn;Mongolian;Dornogovi;_________;Q213272;;;MN;MN-063;yes;Mongolia;yes;no;Asia;Eastern Asia;
mo;Moldovan;Moldova;_______;Q217;;;MD;;no;Moldova;yes;national;Europe;Eastern Europe;
mo;Moldovan;Transnistria;_________ ____________ ________;Q907112;;;MD;;yes;Moldova;yes;national;Europe;Eastern Europe;
mr;Marathi;Andhra Pradesh;_____ ______;Q1159;;;IN;IN-AP;yes;India;yes;regional;Asia;Southern Asia;
mr;Marathi;Goa;____;Q1171;;;IN;IN-GA;yes;India;yes;regional;Asia;Southern Asia;
mr;Marathi;Chhattisgarh;________;Q1168;;;IN;IN-CT;yes;India;yes;regional;Asia;Southern Asia;
mr;Marathi;Karnataka;_______;Q1185;;;IN;IN-KA;yes;India;yes;regional;Asia;Southern Asia;
mr;Marathi;Madhya Pradesh;____ ______;Q1188;;;IN;IN-MP;yes;India;yes;regional;Asia;Southern Asia;
mr;Marathi;Maharashtra;__________;Q1191;;;IN;IN-MH;yes;India;yes;regional;Asia;Southern Asia;
mrj;Mari, Hill;Gornomariysky District;_____ ____ ______;Q312438;;;RU;RU-ME;yes;Russian Federation;yes;no;Europe;Eastern Europe;
mrj;Mari, Hill;Yurinsky District;_____ ______;Q171979;;;RU;RU-ME;yes;Russian Federation;yes;no;Europe;Eastern Europe;
ms;Malay, Standard;Sabah;Sabah;Q179029;;;MY;MY-12;yes;Malaysia;yes;national;Asia;South-eastern Asia;
ms;Malay, Standard;Malaysia;Malaysia;Q833;Malaysian;;MY;;no;Malaysia;yes;national;Asia;South-eastern Asia;
ms;Malay, Bacanese;North Maluku;Maluku Utara;Q5094;;;ID;ID-MU;yes;Indonesia;yes;no;Asia;South-eastern Asia;
ms;Malay, Bacanese;Maluku;Maluku;Q5093;;;ID;ID-MA;yes;Indonesia;yes;no;Asia;South-eastern Asia;
ms;Bangka;Bangka Belitung;Kepulauan Bangka Belitung;Q1866;;;ID;ID-BB;yes;Indonesia;yes;no;Asia;South-eastern Asia;
ms;Bangka;Sumatra;Sumatera;Q3492;;;ID;ID-SM;yes;Indonesia;yes;no;Asia;South-eastern Asia;
ms;Bangka;Bangka island;Pulau Bangka;Q188428;;;ID;;yes;Indonesia;yes;no;Asia;South-eastern Asia;
ms;Banjar;Kalimantan;Kalimantan;Q3795;;;ID;ID-KA;yes;Indonesia;yes;no;Asia;South-eastern Asia;
ms;Banjar;Banjarmasin;Banjarmasin;Q14182;;;ID;ID-KS;yes;Indonesia;yes;no;Asia;South-eastern Asia;
ms;Banjar;Palangka Raya;Palangka Raya;Q14409;;;ID;ID-KS;yes;Indonesia;yes;no;Asia;South-eastern Asia;
ms;Banjar;Kalimantan Tengah;Kalimantan Tengah;Q3891;;;ID;ID-KT;yes;Indonesia;yes;no;Asia;South-eastern Asia;
ms;Banjar;Kalimantan Timur;Kalimantan Timur;Q3899;;;ID;ID-KI;yes;Indonesia;yes;no;Asia;South-eastern Asia;
ms;Banjar;Kalimantan Barat;Kalimantan Barat;Q3916;;;ID;ID-KB;yes;Indonesia;yes;no;Asia;South-eastern Asia;
ms;Brunei;Brunei;Brunei;Q921;Bruneian;;BN;;no;Brunei;yes;no;Asia;South-eastern Asia;
ms;Malay, Bukit;Kalimantan Selatan;Kalimantan Selatan;Q3906;;;ID;ID-KS;yes;Indonesia;yes;no;Asia;South-eastern Asia;
ms;Malay, Central;Bengkulu;Bengkulu;Q1890;;;ID;ID-BE;yes;Indonesia;yes;no;Asia;South-eastern Asia;
ms;Malay, Central;Lampung;Lampung;Q2110;;;ID;ID-LA;yes;Indonesia;yes;no;Asia;South-eastern Asia;
ms;Malay, Central;South Sumatra;Sumatera Selatan;Q2271;;;ID;ID-SS;yes;Indonesia;yes;no;Asia;South-eastern Asia;
ms;Malay, Cocos Islands;Cocos (Keeling) Islands;Kepulauan Cocos (Keeling);Q36004;;;CC;;no;Australia;yes;no;Oceania;Australia and New Zealand;
ms;Malay, Cocos Islands;Christmas Island ;Pulau Krismas;Q31063;;;CX;;no;Australia;yes;no;Oceania;Australia and New Zealand;
ms;Duano;Riau;Riau;Q2175;;;ID;ID-RI;yes;Indonesia;yes;no;Asia;South-eastern Asia;
ms;Duano;Jambi;Jambi;Q2051;;;ID;ID-JA;yes;Indonesia;yes;no;Asia;South-eastern Asia;
ms;Indonesian;Indonesia;Indonesia;Q252;Indonesian;;ID;;no;Indonesia;yes;national;Asia;South-eastern Asia;
ms;Jakun;Pahang;Pahang;Q191346;;;MY;MY-06;yes;Malaysia;yes;no;Asia;South-eastern Asia;
ms;Malay, Jambi;West Sumatra;Sumatera Barat;Q2772;;;ID;ID-SB;yes;Indonesia;yes;no;Asia;South-eastern Asia;
ms;Malay, Kedah;Penang;Pulau Pinang;Q188096;;;MY;MY-07;yes;Malaysia;yes;no;Asia;South-eastern Asia;
ms;Malay, Kedah;Kedah;Kedah;Q188947;;;MY;MY-02;yes;Malaysia;yes;no;Asia;South-eastern Asia;
ms;Malay, Kedah;Perak;Negeri Perak;Q188953;;;MY;MY-08;yes;Malaysia;yes;no;Asia;South-eastern Asia;
ms;Malay, Kedah;Perlis;Perlis;Q213467;;;MY;MY-09;yes;Malaysia;yes;no;Asia;South-eastern Asia;
ms;Malay, Kedah;Satun;Satun;Q236263;;;TH;TH-91;yes;Thailand;yes;no;Asia;South-eastern Asia;
ms;Lubu;North Sumatra;Sumatera Utara;Q2140;;;ID;ID-SU;yes;Indonesia;yes;no;Asia;South-eastern Asia;
ms;Malay;Sarawak;Sarawak;Q170462;;;MY;MY-13;yes;Malaysia;yes;no;Asia;South-eastern Asia;
ms;Malay;Aceh;Aceh;Q1823;;;ID;ID-AC;yes;Indonesia;yes;no;Asia;South-eastern Asia;
ms;Malay;Kepulauan Riau;Kepulauan Riau;Q2223;;;ID;ID-KR;yes;Indonesia;yes;no;Asia;South-eastern Asia;
ms;Malay;Singapore;Singapura;Q334;Singaporean;;SG;;no;Singapore;no;national;Asia;South-eastern Asia;
ms;Malay, Manado;North Sulawesi;Sulawesi Utara;Q5068;;;ID;ID-SA;yes;Indonesia;yes;no;Asia;South-eastern Asia;
ms;Malay, Manado;Gorontalo;Gorontalo;Q5067;;;ID;ID-GO;yes;Indonesia;yes;no;Asia;South-eastern Asia;
ms;Negeri Sembilan Malay;Negeri Sembilan;Negeri Sembilan;Q213893;;;MY;MY-05;yes;Malaysia;yes;no;Asia;South-eastern Asia;
ms;Malay, North Moluccan;Halmahera Selatan;Kabupaten Halmahera Selatan;Q19148;;;ID;ID-MU;yes;Indonesia;yes;no;Asia;South-eastern Asia;
ms;Orang Seletar;Johor;Johor;Q183032;;;MY;MY-01;yes;Malaysia;yes;no;Asia;South-eastern Asia;
ms;Malay, Pattani;Pattani;Pattani;Q236781;;;TH;TH-94;yes;Thailand;yes;no;Asia;South-eastern Asia;
ms;Malay, Pattani;Yala;Yala;Q242977;;;TH;TH-95;yes;Thailand;yes;no;Asia;South-eastern Asia;
ms;Malay, Pattani;Narathiwat;Narathiwat;Q271442;;;TH;TH-96;yes;Thailand;yes;no;Asia;South-eastern Asia;
ms;Malay, Pattani;Songkhla;Songkhla;Q235574;;;TH;TH-90;yes;Thailand;yes;no;Asia;South-eastern Asia;
ms;Temuan;Selangor;Selangor;Q189710;;;MY;MY-10;yes;Malaysia;yes;no;Asia;South-eastern Asia;
ms;Temuan;Putrajaya;Putrajaya;Q182378;;;MY;MY-16;yes;Malaysia;yes;no;Asia;South-eastern Asia;
ms;Urak Lawoi;Phuket;Phuket;Q182565;;;TH;TH-83;yes;Thailand;yes;no;Asia;South-eastern Asia;
ms;Urak Lawoi;Krabi;Krabi;Q236769;;;TH;TH-81;yes;Thailand;yes;no;Asia;South-eastern Asia;
mt;Maltese;Malta;Malta;Q233;Maltese;;MT;;no;Malta;yes;national;Europe;Southern Europe;
mus;Muskogee;Oklahoma;;Q1649;;;US;US-OK;yes;United States;yes;no;Americas;Northern America;
mus;Muskogee;Florida;;Q812;;;US;US-FL;yes;United States;yes;no;Americas;Northern America;
mwl;Mirandese;Bragança;Bergáncia;Q373528;;;PT;PT-04;yes;Portugal;yes;regional;Europe;Southern Europe;
my;Burmese;Myanmar;_____________;Q836;"Myanma;Burmese";;MM;;no;Myanmar;yes;national;Asia;South-eastern Asia;
myv;Erzya;Orenburg;___________;Q5338;;;RU;RU-ORE;yes;Russian Federation;yes;no;Europe;Eastern Europe;
myv;Erzya;Samarskaya Oblast;______;Q1727;;;RU;RU-SAM;yes;Russian Federation;yes;no;Europe;Eastern Europe;
myv;Erzya;Ulyanovsk Oblast;________;Q5634;;;RU;RU-ULY;yes;Russian Federation;yes;no;Europe;Eastern Europe;
myv;Erzya;Saratov Oblast;_______;Q5334;;;RU;RU-SAR;yes;Russian Federation;yes;no;Europe;Eastern Europe;
mzn;Mazandarani;Mazandaran;______;Q308864;;;IR;IR-21;yes;Iran;yes;no;Asia;Southern Asia;
mzn;Mazandarani;Semnan;;Q168949;;;IR;IR-12;yes;Iran;yes;no;Asia;Southern Asia;
mzn;Mazandarani;Golestan;______ ______;Q170041;;;IR;IR-27;yes;Iran;yes;no;Asia;Southern Asia;
na;Nauruan;Nauru;Naoero;Q697;Nauruan;;NR;;no;Nauru;yes;no;Oceania;Micronesia;
nah;Nahuatl;State of Mexico;Tlahtohcayotl Mexihco;Q82112;;;MX;MX-MEX;yes;Mexico;yes;no;Americas;Latin America and the Caribbean;Central America
nah;Nahuatl;Puebla;Puebla;Q79923;;;MX;MX-PUE;yes;Mexico;yes;no;Americas;Latin America and the Caribbean;Central America
nah;Nahuatl;Veracruz;Veracruz de Ignacio de la Llave;Q60130;;;MX;MX-VER;yes;Mexico;yes;no;Americas;Latin America and the Caribbean;Central America
nah;Nahuatl;Hidalgo;Hidalgo;Q80903;;;MX;MX-HGO;yes;Mexico;yes;no;Americas;Latin America and the Caribbean;Central America
nah;Nahuatl;Guerrero;Guerrero;Q60158;;;MX;MX-GRO;yes;Mexico;yes;no;Americas;Latin America and the Caribbean;Central America
nah;Nahuatl;Morelos;Morelos;Q66117;;;MX;MX-MOR;yes;Mexico;yes;no;Americas;Latin America and the Caribbean;Central America
nah;Nahuatl;Tlaxcala;Tlaxcallan;Q82681;;;MX;MX-TLA;yes;Mexico;yes;no;Americas;Latin America and the Caribbean;Central America
nah;Nahuatl;Oaxaca;Huaxyacac;Q34110;;;MX;MX-OAX;yes;Mexico;yes;no;Americas;Latin America and the Caribbean;Central America
nah;Nahuatl;Michoacán;Michhuahcan Ocampo;Q79861;;;MX;MX-MIC;yes;Mexico;yes;no;Americas;Latin America and the Caribbean;Central America
nah;Nahuatl;Durango;Durango;Q79918;;;MX;MX-DUR;yes;Mexico;yes;no;Americas;Latin America and the Caribbean;Central America
zh_min_nan;Chinese, Min Nan;Fujian;Hok-kiàn-séng;Q41705;;;CN;CN-FJ;yes;China;yes;no;Asia;Eastern Asia;
zh_min_nan;Chinese, Min Nan;Jiangxi;Kang-sai-séng;Q57052;;;CN;CN-JX;yes;China;yes;no;Asia;Eastern Asia;
zh_min_nan;Chinese, Min Nan;Hainan;Hái-lâm-séng;Q42200;;;CN;CN-HI;yes;China;yes;no;Asia;Eastern Asia;
zh_min_nan;Chinese, Min Nan;Guangdong;K_g-tang-séng;Q15175;;;CN;CN-GD;yes;China;yes;no;Asia;Eastern Asia;
zh_min_nan;Chinese, Min Nan;Zhejiang;Chiat-kang-séng;Q16967;;;CN;CN-ZJ;yes;China;yes;no;Asia;Eastern Asia;
zh_min_nan;Chinese, Min Nan;Taiwan;Tiong-hoâ Bîn-kok;Q865;;;TW;;no;Taiwan;yes;no;Asia;Eastern Asia;
zh_min_nan;Chinese, Min Nan;Penghu;Phê_-ô_-ko_n;Q198525;;;TW;TW-PEN;yes;Taiwan;yes;no;Asia;Eastern Asia;
zh_min_nan;Chinese, Min Nan;Tainan;Tâi-lâm-ko_n;Q477601;;;TW;TW-TNQ;yes;Taiwan;yes;no;Asia;Eastern Asia;
nap;Napoletano-Calabrese;Campania;Campania;Q1438;;;IT;IT-72;yes;Italy;yes;no;Europe;Southern Europe;
nap;Napoletano-Calabrese;Calabria;Calavria;Q1458;;;IT;IT-78;yes;Italy;yes;no;Europe;Southern Europe;
nds;Saxon, Low;Niedersachsen;Neddersassen;Q1197;;;DE;DE-NI;yes;Germany;yes;no;Europe;Western Europe;
nds;Saxon, Low;Espírito Santo;;Q43233;;;BR;BR-ES;yes;Brazil;yes;no;Americas;Latin America and the Caribbean;South America
nds;Saxon, Low;Rio Grande do Sul;Rio Grande do Sul;Q40030;;;BR;BR-RS;yes;Brazil;yes;no;Americas;Latin America and the Caribbean;South America
nds_nl;Dutch Low Saxon;Groningen;Grunnen;Q752;;;NL;NL-GR;yes;Netherlands;yes;yes;Europe;Western Europe;
nds_nl;Dutch Low Saxon;Drenthe;Drenthe;Q772;;;NL;NL-DR;yes;Netherlands;yes;yes;Europe;Western Europe;
nds_nl;Dutch Low Saxon;Gelderland;Gelderlaand;Q775;;;NL;NL-GE;yes;Netherlands;yes;yes;Europe;Western Europe;
nds_nl;Dutch Low Saxon;Overijssel;Oaveriessel;Q773;;;NL;NL-OV;yes;Netherlands;yes;yes;Europe;Western Europe;
ne;Nepali;Mahakali Zone;_______ _____;Q9178;;;NP;NP-MA;no;Nepal;yes;no;Asia;Southern Asia;
ne;Nepali;Seti Zone;____ _____;Q9196;;;NP;NP-SE;no;Nepal;yes;no;Asia;Southern Asia;
ne;Nepali;Chukha;;Q652754;;;BT;BT-12;yes;Bhutan;yes;no;Asia;Southern Asia;
ne;Nepali;Dagana;;Q735146;;;BT;BT-22;yes;Bhutan;yes;no;Asia;Southern Asia;
ne;Nepali;Samtse;;Q728917;;;BT;BT-14;yes;Bhutan;yes;no;Asia;Southern Asia;
ne;Nepali;Samdrup Jongkhar;;Q728929;;;BT;BT-45;yes;Bhutan;yes;no;Asia;Southern Asia;
ne;Nepali;Sarpang;;Q728947;;;BT;BT-31;yes;Bhutan;yes;no;Asia;Southern Asia;
ne;Nepali;Tsirang;;Q728922;;;BT;BT-21;yes;Bhutan;yes;no;Asia;Southern Asia;
ne;Nepali;Arunachal Pradesh;_______ ______;Q1162;;;IN;IN-AR;yes;India;yes;regional;Asia;Southern Asia;
ne;Nepali;Assam;____;Q1164;;;IN;IN-AS;yes;India;yes;regional;Asia;Southern Asia;
ne;Nepali;Bihar;_____;Q1165;;;IN;IN-BR;yes;India;yes;regional;Asia;Southern Asia;
ne;Nepali;Haryana;_______;Q1174;;;IN;IN-HR;yes;India;yes;regional;Asia;Southern Asia;
ne;Nepali;Himachal Pradesh;______ ______;Q1177;;;IN;IN-HP;yes;India;yes;regional;Asia;Southern Asia;
ne;Nepali;Meghalaya;______;Q1195;;;IN;IN-ML;yes;India;yes;regional;Asia;Southern Asia;
ne;Nepali;Manipur;______;Q1193;;;IN;IN-MN;yes;India;yes;regional;Asia;Southern Asia;
ne;Nepali;Tripura;________;Q1363;;;IN;IN-TR;yes;India;yes;regional;Asia;Southern Asia;
ne;Nepali;Uttar Pradesh;_____ ______;Q1498;;;IN;IN-UP;yes;India;yes;regional;Asia;Southern Asia;
ne;Nepali;Uttarakhand;__________;Q1499;;;IN;IN-UT;yes;India;yes;regional;Asia;Southern Asia;
ne;Nepali;Mizoram;______;Q1502;;;IN;IN-MZ;yes;India;yes;regional;Asia;Southern Asia;
ne;Nepali;Sikkim;_______;Q1505;;;IN;IN-SK;yes;India;yes;regional;Asia;Southern Asia;
ne;Nepali;Nagaland;___________;Q1599;;;IN;IN-NL;yes;India;yes;regional;Asia;Southern Asia;
ne;Nepali;West Bengal;______;Q1356;;;IN;IN-WB;yes;India;yes;regional;Asia;Southern Asia;
new;Newar;Bagmati;______;Q9046;;;NP;NP-BA;yes;Nepal;yes;no;Asia;Southern Asia;
new;Newar;Bihar;_____ _____, ____;Q1165;;;IN;IN-BR;yes;India;yes;no;Asia;Southern Asia;
new;Newar;West Bengal;______ _____;Q1356;;;IN;IN-WB;yes;India;yes;no;Asia;Southern Asia;
new;Newar;Sikkim;_______;Q1505;;;IN;IN-SK;yes;India;yes;no;Asia;Southern Asia;
ng;Ndonga;Oshana;;Q534528;;;NA;NA-ON;yes;Namibia;yes;no;Africa;Sub-Saharan Africa;Southern Africa
ng;Ndonga;Omusati;;Q764385;;;NA;NA-OS;yes;Namibia;yes;no;Africa;Sub-Saharan Africa;Southern Africa
ng;Ndonga;Kunene;;Q834513;;;NA;NA-KU;yes;Namibia;yes;no;Africa;Sub-Saharan Africa;Southern Africa
ng;Ndonga;Ohangwena;;Q845702;;;NA;NA-OW;yes;Namibia;yes;no;Africa;Sub-Saharan Africa;Southern Africa
ng;Ndonga;Oshikoto;;Q876512;;;NA;NA-OT;yes;Namibia;yes;no;Africa;Sub-Saharan Africa;Southern Africa
nl;Dutch;Netherlands;Nederland;Q55;Dutch;"holland;Nederlander";NL;;no;Netherlands;yes;national;Europe;Western Europe;
nl;Dutch;Limburg;Limburg;Q1095;;;BE;BE-VLI;yes;Belgium;yes;national;Europe;Western Europe;
nl;Dutch;East Flanders;Oost-Vlaanderen;Q1114;;;BE;BE-VOV;yes;Belgium;yes;national;Europe;Western Europe;
nl;Dutch;Flemish Brabant;Vlaams-Brabant;Q1118;;;BE;BE-VBR;yes;Belgium;yes;national;Europe;Western Europe;
nl;Dutch;Antwerp;Antwerpen;Q1116;;;BE;BE-VAN;yes;Belgium;yes;national;Europe;Western Europe;
nl;Dutch;Flemish;Vlaams Gewest;Q9337;;;BE;BE-VLG;yes;Belgium;yes;national;Europe;Western Europe;
nl;Dutch;Flanders;Vlaanderen;Q234;;Vlaming;BE;BE-VLG;yes;Belgium;yes;national;Europe;Western Europe;
nl;Dutch;Caribbean Netherlands;Caribisch Nederland;Q27561;;;BQ;;no;Caribbean Netherlands;no;national;Americas;Latin America and the Caribbean;Caribbean
nl;Dutch;Sint Maarten;Sint Maarten;Q26273;;;SX;;no;Sint Maarten;no;national;Americas;Latin America and the Caribbean;Caribbean
nl;Dutch;Suriname;Suriname;Q730;Surinamese;Surinamer;SR;;no;Suriname;no;national;Americas;Latin America and the Caribbean;South America
nn;Norwegian (Bokmål);Norway;Noreg;Q20;;;NO;;no;Norway;yes;national;Europe;Northern Europe;
no;Norwegian (Nyorsk);Norway;Norge;Q20;;;NO;;no;Norway;yes;national;Europe;Northern Europe;
nov;Novial;;;;;;;;;;;;;;
nrm;Jèrriais;Jèrriais;Jèrriais;Q56430;;;JE;;no;Jersey;yes;no;Europe;Northern Europe;Channel Islands
nso;Sotho, Northern;Limpopo;Limpopo;Q134907;;;ZA;ZA-LP;yes;South Africa;yes;national;Africa;Sub-Saharan Africa;Southern Africa
nso;Sotho, Northern;Mpumalanga;Mpumalanga;Q132410;;;ZA;ZA-MP;yes;South Africa;yes;national;Africa;Sub-Saharan Africa;Southern Africa
nso;Sotho, Northern;Gauteng;Gauteng;Q133083;;;ZA;ZA-GT;yes;South Africa;yes;national;Africa;Sub-Saharan Africa;Southern Africa
nso;Sotho, Northern;North West;Leboa Bodikela;Q165956;;;ZA;;yes;South Africa;yes;national;Africa;Sub-Saharan Africa;Southern Africa
nv;Navajo;Arizona;Hoozdo Hahoodzo;Q816;;;US;US-AZ;yes;United States;yes;no;Americas;Northern America;
nv;Navajo;Colorado;Dibé Nitsaa Hahoodzo;Q1261;;;US;US-CO;yes;United States;yes;no;Americas;Northern America;
nv;Navajo;New Mexico;Yootó Hahoodzo;Q1522;;;US;US-NM;yes;United States;yes;no;Americas;Northern America;
nv;Navajo;Utah;Ásh__h Bii_tó Hahoodzo;Q829;;;US;US-UT;yes;United States;yes;no;Americas;Northern America;
ny;Chichewa;Malawi;;Q860758;;;MW;MW-C;yes;Malawi;yes;no;Africa;Sub-Saharan Africa;Eastern Africa
ny;Chichewa;Zambezia;;Q622803;;;MZ;MZ-Q;yes;Mozambique;yes;no;Africa;Sub-Saharan Africa;Eastern Africa
ny;Chichewa;Niassa;;Q622799;;;MZ;MZ-A;yes;Mozambique;yes;no;Africa;Sub-Saharan Africa;Eastern Africa
ny;Chichewa;Tete;;Q605787;;;MZ;MZ-T;yes;Mozambique;yes;no;Africa;Sub-Saharan Africa;Eastern Africa
ny;Chichewa;Central;;Q190718;;;ZM;ZM-02;yes;Zambia;yes;no;Africa;Sub-Saharan Africa;Eastern Africa
ny;Chichewa;Eastern;;Q823810;;;ZM;ZM-03;yes;Zambia;yes;no;Africa;Sub-Saharan Africa;Eastern Africa
oc;Occitan;Midi-Pyrénées;Miègjorn-Pirenèus;Q16393;;;FR;FR-N;yes;France;yes;no;Europe;Western Europe;
oc;Occitan;Languedoc-Roussillon;Lengadòc-Rosselhon;Q17005;;;FR;FR-K;yes;France;yes;no;Europe;Western Europe;
oc;Occitan;Auvergne-Rhône-Alpes;Auvèrnhe Ròse Aups;Q18338206;;;FR;FR-ARA;yes;France;yes;no;Europe;Western Europe;
oc;Occitan;Cantal;Cantal;Q3259;;;FR;FR-15;yes;France;yes;no;Europe;Western Europe;
oc;Occitan;Loire;Léger;Q12569;;;FR;FR-42;yes;France;yes;no;Europe;Western Europe;
oc;Occitan;Haute-Loire;Naut Léger;Q12572;;;FR;FR-43;yes;France;yes;no;Europe;Western Europe;
oc;Occitan;Haute-Vienne;Nauta Vinhana;Q12808;;;FR;FR-87;yes;France;yes;no;Europe;Western Europe;
oc;Occitan;Poitou-Charentes;Peitau-Charantas;Q17009;;;FR;FR-T;yes;France;yes;no;Europe;Western Europe;
oc;Occitan;Aquitaine;Aquitània;Q1179;;;FR;FR-B;yes;France;yes;no;Europe;Western Europe;
oc;Occitan;Limousin;Lemosin;Q1190;;;FR;FR-L;yes;France;yes;no;Europe;Western Europe;
oc;Occitan;Provence-Alpes-Côte d'Azur;Provença-Aups-Còsta d'Azur;Q15104;;;FR;FR-PAC;yes;France;yes;no;Europe;Western Europe;
oc;Occitan;Piedmont;Piemont;Q1216;;;IT;IT-21;yes;Italy;yes;no;Europe;Southern Europe;
oc;Occitan;Imperia;Impèria;Q16186;;;IT;IT-IM;yes;Italy;yes;no;Europe;Southern Europe;
oc;Occitan;Aran Valley;Val d'Aran;Q12602;;;ES;;yes;Spain;yes;regional;Europe;Southern Europe;
olo;Livvi-Karelian;Republic of Karelia;Karjalan tazavaldu;Q19148;;;RU;RU-KR;yes;Russian Federation;yes;no;Europe;Eastern Europe;
olo;Livvi-Karelian;Leningrad;;Q2191;;;RU;RU-LEN;yes;Russian Federation;yes;no;Europe;Eastern Europe;
om;Oromo, Borana-Arsi-Guji;Marsabit;;Q1323683;;;KE;KE-25;yes;Kenya;yes;no;Africa;Sub-Saharan Africa;Eastern Africa
om;Oromo, Borana-Arsi-Guji;Mandera;;Q1477874;;;KE;KE-24;yes;Kenya;yes;no;Africa;Sub-Saharan Africa;Eastern Africa
om;Oromo, Borana-Arsi-Guji;Isiolo;;Q1499046;;;KE;KE-09;yes;Kenya;yes;no;Africa;Sub-Saharan Africa;Eastern Africa
om;Oromo, Borana-Arsi-Guji;Laikipia;;Q1800699;;;KE;KE-20;yes;Kenya;yes;no;Africa;Sub-Saharan Africa;Eastern Africa
om;Oromo, Borana-Arsi-Guji;Wajir;;Q1852209;;;KE;KE-46;yes;Kenya;yes;no;Africa;Sub-Saharan Africa;Eastern Africa
om;Oromo, Borana-Arsi-Guji;Nairobi;;Q3335223;;;KE;KE-30;yes;Kenya;yes;no;Africa;Sub-Saharan Africa;Eastern Africa
om;Oromo, Borana-Arsi-Guji;Gedo;;Q856719;;;SO;SO-GE;yes;Somalia;yes;no;Africa;Sub-Saharan Africa;Eastern Africa
om;Orma;Tana River;;Q383150;;;KE;KE-40;yes;Kenya;yes;no;Africa;Sub-Saharan Africa;Eastern Africa
om;Orma;Kilifi;;Q1741307;;;KE;KE-14;yes;Kenya;yes;no;Africa;Sub-Saharan Africa;Eastern Africa
om;Orma;Lamu;;Q1951652;;;KE;KE-21;yes;Kenya;yes;no;Africa;Sub-Saharan Africa;Eastern Africa
om;Oromo, West Central;Ethiopia;Itoophiyaa;Q115;Ethiopian;;ET;;no;Ethiopia;yes;regional;Africa;Sub-Saharan Africa;Eastern Africa
or;Odia;Jharkhand;________;Q1184;;;IN;IN-JH;yes;India;yes;regional;Asia;Southern Asia;
or;Odia;West Bengal;__________;Q1356;;;IN;IN-WB;yes;India;yes;regional;Asia;Southern Asia;
or;Odia;Assam;____;Q1164;;;IN;IN-AS;yes;India;yes;regional;Asia;Southern Asia;
or;Odia;Andhra Pradesh;______ ______;Q1159;;;IN;IN-AP;yes;India;yes;regional;Asia;Southern Asia;
or;Sambalpuri;Odisha;______;Q22048;;;IN;IN-OR;yes;India;yes;no;Asia;Southern Asia;
or;Sambalpuri;Chhattisgarh;_______;Q1168;;;IN;IN-CT;yes;India;yes;no;Asia;Southern Asia;
os;Ossetic;Kabardino-Balkar;_æ_æ_-_______;Q5267;;;RU;RU-KB;yes;Russian Federation;yes;no;Europe;Eastern Europe;
os;Ossetic;Republic of North Ossetia-Alania;_æ___ _______;Q5237;;;RU;RU-SE;yes;Russian Federation;yes;no;Europe;Eastern Europe;
os;Ossetic;Imereti;______;Q200045;;;GE;GE-IM;yes;Georgia;yes;no;Asia;Western Asia;
os;Ossetic;Kvemo Kartli;_æ____ ______;Q200048;;;GE;GE-KK;yes;Georgia;yes;no;Asia;Western Asia;
os;Ossetic;Mtskheta-Mtianeti;______-_______;Q203339;;;GE;GE-MM;yes;Georgia;yes;no;Asia;Western Asia;
os;Ossetic;Racha-Lechkhumi and Kvemo Svaneti;____-______ æ_æ _æ____ ____;Q38893;;;GE;GE-RL;yes;Georgia;yes;no;Asia;Western Asia;
os;Ossetic;Shida Kartli;___æ____ ______;Q200047;;;GE;GE-SK;yes;Georgia;yes;no;Asia;Western Asia;
pa;Punjabi, Eastern;Chandigarh;________;Q43433;;;IN;IN-CH;yes;India;yes;regional;Asia;Southern Asia;
pa;Punjabi, Eastern;Himachal Pradesh;______ _______;Q1177;;;IN;IN-HP;yes;India;yes;regional;Asia;Southern Asia;
pa;Punjabi, Eastern;Kashmir;______;Q43100;;;IN;;yes;India;yes;regional;Asia;Southern Asia;
pa;Punjabi, Eastern;Punjab;_____;Q22424;;;IN;IN-PB;yes;India;yes;regional;Asia;Southern Asia;
pa;Punjabi, Eastern;Rajasthan;_______;Q1437;;;IN;IN-RJ;yes;India;yes;regional;Asia;Southern Asia;
pa;Punjabi, Western;Punjab;_____;Q4478;;;PK;PK-PB;yes;Pakistan;yes;no;Asia;Southern Asia;
pa;Punjabi, Western;Haryana;______;Q1174;;;IN;IN-HR;yes;India;yes;no;Asia;Southern Asia;
pa;Punjabi, Western;Delhi;_____;Q1353;;;IN;IN-DL;yes;India;yes;no;Asia;Southern Asia;
pag;Pangasinan;Pangasinan;Luyag na Pangasinan;Q13871;;;PH;PH-PAN;yes;Philippines;yes;no;Asia;South-eastern Asia;
pam;Pampangan;Nueva Ecija;Nueva Ecija;Q13865;;;PH;PH-NUE;yes;Philippines;yes;no;Asia;South-eastern Asia;
pam;Pampangan;Tarlac;Tarlac;Q13892;;;PH;PH-TAR;yes;Philippines;yes;no;Asia;South-eastern Asia;
pam;Pampangan;Pampanga;Pampanga;Q13870;;;PH;PH-PAM;yes;Philippines;yes;no;Asia;South-eastern Asia;
pam;Pampangan;Zambales;Zambales;Q13895;;;PH;PH-ZMB;yes;Philippines;yes;no;Asia;South-eastern Asia;
pap;Papiamentu;Curaçao;Kòrsou;Q25279;;;NL;NL-CW;yes;Curacao;yes;national;Europe;Western Europe;
pap;Papiamentu;Aruba;Aruba;Q21203;;;NL;NL-AW;yes;Aruba;yes;national;Europe;Western Europe;
pap;Papiamentu;Bonaire;Boneiru;Q25396;;;BQ;BQ-BO;yes;Caribbean Netherlands;no;national;Americas;Latin America and the Caribbean;Caribbean
pcd;Picard;Nord-Pas-de-Calais;Nord-Pas-d'Caleus;Q16987;;;FR;FR-O;yes;France;yes;no;Europe;Western Europe;
pcd;Picard;Picardy;Picardie;Q13950;;;FR;FR-S;yes;France;yes;no;Europe;Western Europe;
pcd;Picard;Normandy;;Q18677875;;;FR;FR-NOR;yes;France;yes;no;Europe;Western Europe;
pcd;Picard;Hainaut;Hénau;Q1129;;;BE;BE-WHT;yes;Belgium;yes;no;Europe;Western Europe;
pdc;German, Pennsylvania;Florida;;Q812;;;US;US-FL;yes;United States;yes;no;Americas;Northern America;
pdc;German, Pennsylvania;Indiana;Indiana;Q1415;;;US;US-IN;yes;United States;yes;no;Americas;Northern America;
pdc;German, Pennsylvania;Iowa;;Q1546;;;US;US-IA;yes;United States;yes;no;Americas;Northern America;
pdc;German, Pennsylvania;Kansas;;Q1558;;;US;US-KS;yes;United States;yes;no;Americas;Northern America;
pdc;German, Pennsylvania;Missouri;Missouri;Q1581;;;US;US-MO;yes;United States;yes;no;Americas;Northern America;
pdc;German, Pennsylvania;Ohio;Ohio;Q1397;;;US;US-OH;yes;United States;yes;no;Americas;Northern America;
pdc;German, Pennsylvania;Oklahoma;Oklahoma;Q1649;;;US;US-OK;yes;United States;yes;no;Americas;Northern America;
pdc;German, Pennsylvania;Pennsylvania;Pennsilfaani;Q1400;;;US;US-PA;yes;United States;yes;no;Americas;Northern America;
pdc;German, Pennsylvania;Virginia;;Q1370;;;US;US-VA;yes;United States;yes;no;Americas;Northern America;
pdc;German, Pennsylvania;West Virginia;Wescht Wirschini;Q1371;;;US;US-WV;yes;United States;yes;no;Americas;Northern America;
pdc;German, Pennsylvania;Wisconsin;;Q1537;;;US;US-WI;yes;United States;yes;no;Americas;Northern America;
pfl;Palatinate Franconian;Rheinland-Pfalz;Rheinland-Pfalz;Q1200;;;DE;DE-RP;yes;Germany;yes;no;Europe;Western Europe;
pfl;Palatinate Franconian;Lorraine;Lothringe;Q1137;;;FR;FR-M;yes;France;yes;no;Europe;Western Europe;
pfl;Palatinate Franconian;Alsace;Elsaß;Q1142;;;FR;FR-A;yes;France;yes;no;Europe;Western Europe;
pi;Pali;India;____;Q668;Indian;;IN;;no;India;yes;no;Asia;Southern Asia;
pih;Pitcairn-Norfolk;Norfolk Island;Norfuk Ailen;Q31057;;;NF;;no;Norfolk Island;yes;no;Oceania;Australia and New Zealand;
pl;Polish;Poland;Polska;Q36;Polish;;PL;;no;Poland;yes;national;Europe;Eastern Europe;
pl;Polish;Fr_dek-Místek District;Frydek-Mistek;Q175781;;;CZ;CZ-802;yes;Czechia;yes;no;Europe;Eastern Europe;
pl;Polish;_ilina;_ylina;Q25797;;;SK;;yes;Slovakia;yes;no;Europe;Eastern Europe;
pl;Polish;Lviv Oblast;Obwód lwowski;Q164193;;;UA;;yes;Ukraine;yes;no;Europe;Eastern Europe;
pms;Piedmontese;Piedmont;Piemont;Q1216;;;IT;IT-21;yes;Italy;yes;no;Europe;Southern Europe;
pms;Piedmontese;Aosta;Osta;Q3367;;;IT;IT-AO;yes;Italy;yes;no;Europe;Southern Europe;
pms;Piedmontese;Lombardy;Lombardìa;Q1210;;;IT;IT-25;yes;Italy;yes;no;Europe;Southern Europe;
pnb;Lahnda;Pakistan;_______;Q843;Pakistani;;PK;;no;Pakistan;yes;no;Asia;Southern Asia;
pnb;Inku;Balkh;____ ___;Q121104;;;AF;AF-BAL;yes;Afghanistan;yes;no;Asia;Southern Asia;
pnb;Inku;Faryab;____ ______;Q173830;;;AF;AF-FYB;yes;Afghanistan;yes;no;Asia;Southern Asia;
pnb;Inku;Herat;____ ____;Q182844;;;AF;AF-HER;yes;Afghanistan;yes;no;Asia;Southern Asia;
pnb;Khetrani;Balochistan;________;Q163239;;;PK;PK-BA;yes;Pakistan;yes;no;Asia;Southern Asia;
pnb;Pahari-Potwari;Azad Kashmir;____ _____;Q200130;;;PK;PK-JK;yes;Pakistan;yes;no;Asia;Southern Asia;
pnb;Pahari-Potwari;Khyber Pakhtunkhwa;____ ________;Q183314;;;PK;PK-KP;yes;Pakistan;yes;no;Asia;Southern Asia;
pnb;Pahari-Potwari;Punjab;_____ (_______);Q4478;;;PK;PK-PB;yes;Pakistan;yes;no;Asia;Southern Asia;
pnb;Pahari-Potwari;Islamabad;___ _____ ____;Q848613;;;PK;PK-IS;yes;Pakistan;yes;no;Asia;Southern Asia;
pnb;Saraiki;Sindh;"	___";Q37211;;;PK;PK-SD;yes;Pakistan;yes;no;Asia;Southern Asia;
pnb;Saraiki;Haryana;______;Q1174;;;IN;IN-HR;yes;India;yes;no;Asia;Southern Asia;
pnb;Saraiki;Punjab;_____ (_____);Q22424;;;IN;IN-PB;yes;India;yes;no;Asia;Southern Asia;
pnb;Saraiki;Rajasthan;________;Q1437;;;IN;IN-RJ;yes;India;yes;no;Asia;Southern Asia;
pnb;Punjabi, Western;Jammu and Kashmir;____ __ _____;Q1180;;;IN;IN-JK;yes;India;yes;no;Asia;Southern Asia;
pnb;Punjabi, Western;Delhi;___;Q1353;;;IN;IN-DL;yes;India;yes;no;Asia;Southern Asia;
pnt;Pontic;Macedonia;_________;Q81734;;;GR;;yes;Greece;yes;no;Europe;Southern Europe;
pnt;Pontic;Epirus;;Q180484;;;GR;GR-D;yes;Greece;yes;no;Europe;Southern Europe;
pnt;Pontic;Thessaloniki;___________;Q17151;;;GR;GR-54;yes;Greece;yes;no;Europe;Southern Europe;
pnt;Pontic;Imathia;;Q207840;;;GR;GR-53;yes;Greece;yes;no;Europe;Southern Europe;
pnt;Pontic;Drama;;Q208606;;;GR;GR-52;yes;Greece;yes;no;Europe;Southern Europe;
ps;Pashto, Central;Balochistan;________;Q163239;;;PK;PK-BA;yes;Pakistan;yes;no;Asia;Southern Asia;
ps;Pashto, Central;Khyber Pakhtunkwa province;____ ________;Q183314;;;PK;PK-KP;yes;Pakistan;yes;no;Asia;Southern Asia;
ps;Pashto, Central;Punjab;_____;Q4478;;;PK;PK-PB;yes;Pakistan;yes;no;Asia;Southern Asia;
ps;Pashto, Central;Federally Administered Tribal Areas;______ ______ ____;Q208270;;;PK;PK-TA;yes;Pakistan;yes;no;Asia;Southern Asia;
ps;Pashto, Southern;Kandahar;______ _____;Q173808;;;AF;AF-KAN;yes;Afghanistan;yes;national;Asia;Southern Asia;
ps;Pashto, Southern;Zabul;____ _____;Q139126;;;AF;AF-ZAB;yes;Afghanistan;yes;national;Asia;Southern Asia;
ps;Pashto, Southern;Badghis;______ _____;Q172052;;;AF;AF-BDG;yes;Afghanistan;yes;national;Asia;Southern Asia;
ps;Pashto, Southern;Helmand;_____ _____;Q173821;;;AF;AF-HEL;yes;Afghanistan;yes;national;Asia;Southern Asia;
ps;Pashto, Southern;Farah;____ _____;Q180330;;;AF;AF-FRA;yes;Afghanistan;yes;national;Asia;Southern Asia;
ps;Pashto, Southern;Herat;____ _____;Q182844;;;AF;AF-HER;yes;Afghanistan;yes;national;Asia;Southern Asia;
ps;Pashto, Southern;Nimroz;______ _____;Q183021;;;AF;AF-NIM;yes;Afghanistan;yes;national;Asia;Southern Asia;
ps;Pashto, Southern;Uruzgan;______ _____;Q183028;;;AF;AF-URU;yes;Afghanistan;yes;national;Asia;Southern Asia;
ps;Pashto, Southern;South Khorasan Province ;_ _____ ______ _____;Q171551;;;IR;IR-29;yes;Iran;yes;no;Asia;Southern Asia;
ps;Pashto, Southern;Razavi Khorasan Province;_ ____ ______ _____;Q587090;;;IR;IR-30;yes;Iran;yes;no;Asia;Southern Asia;
ps;Pashto, Southern;Khatlon;;Q633511;;;TJ;TJ-KT;yes;Tajikistan;yes;no;Asia;Central Asia;
pt;Portuguese;Azores;Açores;Q25263;;;PT;PT-20;yes;Portugal;yes;national;Europe;Southern Europe;
pt;Portuguese;Portugal;Portugal;Q45;Portuguese;português;PT;;no;Portugal;yes;national;Europe;Southern Europe;
pt;Portuguese;Angola;Angola;Q916;Angolan;;AO;;no;Angola;no;national;Africa;Sub-Saharan Africa;Middle Africa
pt;Portuguese;Brazil;Brasil;Q155;Brazilian;;BR;;no;Brazil;no;national;Americas;Latin America and the Caribbean;South America
pt;Portuguese;Macao;Macau;Q14773;;;MO;;no;Macao;no;regional;Asia;Eastern Asia;
pt;Portuguese;East Timor;Timor-Leste;Q574;;;TL;;no;East Timor;no;national;Asia;South-eastern Asia;
pt;Portuguese;Guinea-Bissau;Guiné-Bissau;Q1007;;;GW;;no;Guinea-Bissau;no;national;Africa;Sub-Saharan Africa;Western Africa
pt;Portuguese;Mozambique;Moçambique;Q1029;Mozambican;;MZ;;no;Mozambique;no;national;Africa;Sub-Saharan Africa;Eastern Africa
pt;Portuguese;Cape Verde;Cabo Verde;Q1011;;;CV;;no;Cape Verde;no;national;Africa;Sub-Saharan Africa;Western Africa
qu;Quechua, Southern Conchucos;Ancash;Anqash;Q205089;;;PE;PE-ANC;yes;Peru;yes;no;Americas;Latin America and the Caribbean;South America
qu;Quechua, Southern Conchucos;Huánuco;Wanuku;Q215221;;;PE;;yes;Peru;yes;no;Americas;Latin America and the Caribbean;South America
qu;Quechua, Southern Conchucos;Marañón Province;Marañun;Q764487;;;PE;;yes;Peru;yes;no;Americas;Latin America and the Caribbean;South America
rm;Romansh;Graubünden;Chantun Grischun;Q11925;;;CH;CH-GR;yes;Switzerland;yes;regional;Europe;Western Europe;
rmy;Romany;Romania;Rumuniya;Q218;Romanian;;RO;;no;Romania;yes;no;Europe;Eastern Europe;
rmy;Romani, Balkan;Kosovo;;Q1452368;;;RS;RS-25;yes;Serbia;yes;no;Europe;Southern Europe;
rmy;Romani, Carpathian;Banská Bystrica Region;;Q183640;;;SK;;yes;Slovakia;yes;no;Europe;Eastern Europe;
rmy;Romani, Carpathian;Nitra Region;;Q184548;;;SK;SK-NI;yes;Slovakia;yes;no;Europe;Eastern Europe;
rmy;Romani, Carpathian;Senica;;Q842557;;;SK;;yes;Slovakia;yes;no;Europe;Eastern Europe;
rmy;Romani, Carpathian;Bardejov District;;Q265964;;;SK;;yes;Slovakia;yes;no;Europe;Eastern Europe;
rmy;Romani, Carpathian;Krompachy;;Q842018;;;SK;;yes;Slovakia;yes;no;Europe;Eastern Europe;
rmy;Romani, Sinte;Niedersachsen;;Q1997;;;DE;DE-NI;yes;Germany;yes;no;Europe;Western Europe;
rmy;Romani, Sinte;Hamburg;Hamburg;Q1055;;;DE;DE-HH;yes;Germany;yes;no;Europe;Western Europe;
rmy;Romani, Sinte;Belgrade;;Q3711;;;RS;RS-00;yes;Serbia;yes;no;Europe;Southern Europe;
rmy;Romani, Sinte;Pirot;;Q580069;;;RS;RS-22;yes;Serbia;yes;no;Europe;Southern Europe;
rmy;Romani, Sinte;Jablanica;;Q876541;;;RS;RS-23;yes;Serbia;yes;no;Europe;Southern Europe;
rmy;Romani, Vlax;Dolj;;Q191065;;;RO;RO-DJ;yes;Romania;yes;no;Europe;Eastern Europe;
rn;Rundi;Burundi;Uburundi;Q967;Burundian;;BI;;no;Burundi;yes;national;Africa;Sub-Saharan Africa;Eastern Africa
ro;Romanian;Romania;România;Q218;Romanian;"român;românc_;români";RO;;no;Romania;yes;national;Europe;Eastern Europe;
ro;Romanian;Moldova;Moldova;Q217;;;MD;;no;Moldova;yes;national;Europe;Eastern Europe;
ro;Romanian;Soutch Backa;Ba_ka de Sud;Q64878;;;RS;RS-06;yes;Serbia;no;regional;Europe;Southern Europe;
roa_rup;Aromanian;Thessaly;;Q166919;;;GR;GR-E;yes;Greece;yes;no;Europe;Southern Europe;
roa_rup;Aromanian;Epirus;;Q180484;;;GR;GR-D;yes;Greece;yes;no;Europe;Southern Europe;
roa_rup;Aromanian;Ioannina;;Q212921;;;GR;GR-33;yes;Greece;yes;no;Europe;Southern Europe;
roa_rup;Aromanian;Grevena;;Q209385;;;GR;GR-51;yes;Greece;yes;no;Europe;Southern Europe;
roa_rup;Aromanian;Trikala;;Q216482;;;GR;GR-44;yes;Greece;yes;no;Europe;Southern Europe;
roa_rup;Aromanian;Pella;;Q213679;;;GR;GR-59;yes;Greece;yes;no;Europe;Southern Europe;
roa_rup;Aromanian;Imathia;;Q207840;;;GR;GR-53;yes;Greece;yes;no;Europe;Southern Europe;
roa_rup;Aromanian;Kastoria;;Q3556641;;;GR;GR-56;yes;Greece;yes;no;Europe;Southern Europe;
roa_rup;Aromanian;Florina;;Q211314;;;GR;GR-63;yes;Greece;yes;no;Europe;Southern Europe;
roa_rup;Aromanian;Kozani;;Q211732;;;GR;GR-58;yes;Greece;yes;no;Europe;Southern Europe;
roa_rup;Aromanian;Fier;;Q231900;;;AL;AL-04;yes;Albania;yes;no;Europe;Southern Europe;
roa_rup;Aromanian;Korçë;;Q193464;;;AL;AL-06;yes;Albania;yes;no;Europe;Southern Europe;
roa_rup;Aromanian;Gjirokastër;;Q209749;;;AL;AL-GJ;yes;Albania;yes;no;Europe;Southern Europe;
roa_rup;Aromanian;Tiranë;;Q201073;;;AL;AL-TR;yes;Albania;yes;no;Europe;Southern Europe;
roa_rup;Aromanian;Bitola;;Q159380;;;MK;MK-04;yes;Macedonia;yes;no;Europe;Southern Europe;
roa_rup;Aromanian;Resen;;Q740591;;;MK;MK-66;yes;Macedonia;yes;no;Europe;Southern Europe;
roa_rup;Aromanian;Struga;;Q749618;;;MK;MK-72;yes;Macedonia;yes;no;Europe;Southern Europe;
roa_rup;Aromanian;Prilep;;Q6312454;;;MK;MK-62;yes;Macedonia;yes;no;Europe;Southern Europe;
roa_rup;Aromanian;Gevgelija;;Q2018974;;;MK;MK-18;yes;Macedonia;yes;no;Europe;Southern Europe;
roa_rup;Aromanian;Sveti Nikole;;Q2308277;;;MK;MK-69;yes;Macedonia;yes;no;Europe;Southern Europe;
roa_rup;Aromanian;Kumanovo;;Q2352376;;;MK;MK-47;yes;Macedonia;yes;no;Europe;Southern Europe;
roa_rup;Aromanian;Vinica;;Q2479526;;;MK;MK-14;yes;Macedonia;yes;no;Europe;Southern Europe;
roa_rup;Aromanian;Ohrid;;Q1125333;;;MK;MK-58;yes;Macedonia;yes;no;Europe;Southern Europe;
roa_tara;Tarantino;Apulia;Pùgghie;Q695526;;;IT;IT-75;yes;Italy;yes;no;Europe;Southern Europe;
ru;Russian;Russia;______;Q159;Russian;"________;_________;_________";RU;;no;Russian Federation;yes;national;Europe;Eastern Europe;
ru;Russian;Belarus;__________ ________;Q184;Belarusian;"_______;_________;________";BY;;no;Belarus;yes;national;Europe;Eastern Europe;
ru;Russian;Georgia;______;Q230;Georgian;"______;________";GE;;no;Georgia;yes;no;Asia;Western Asia;
ru;Russian;Kazakhstan;_________;Q232;"Kazakhstani;Kazakh";"___________;___________;___________";KZ;;no;Kazakhstan;yes;national;Asia;Central Asia;
ru;Russian;Issyk-Kul Region;_____-________;Q487413;Kyrgyz;"____________;____________;____________";KG;KG-Y;yes;Kyrgyzstan;no;national;Asia;Central Asia;
ru;Russian;Ukraine;_______;Q212;Ukrainian;"________;________;________";UA;;no;Ukraine;yes;regional;Europe;Eastern Europe;
rue;Rusyn;Zakarpattia Oblast;____________;Q170213;;;UA;UA-21;yes;Ukraine;yes;no;Europe;Eastern Europe;
rue;Rusyn;Presovsku region;__________;Q189001;;;SK;SK-PV;yes;Slovakia;yes;no;Europe;Eastern Europe;
ru_sib;Siberian language;;;;;;;;;;;;;;
rw;Kinyarwanda;Rwanda;Rwanda;Q1037;"Rwandese;Rwandan";;RW;;no;Rwanda;yes;national;Africa;Sub-Saharan Africa;Eastern Africa
rw;Kinyarwanda;North Kivu;Intara ya Kivu y’Amajyaruguru;Q130625;;;CD;CD-NK;yes;Democratic Republic of the Congo;yes;no;Africa;Sub-Saharan Africa;Middle Africa
rw;Kinyarwanda;Sud;Intara ya Kivu y’Amajyepfo;Q488326;;;CD;CD-SK;yes;Democratic Republic of the Congo;yes;no;Africa;Sub-Saharan Africa;Middle Africa
rw;Kinyarwanda;Kisoro;;Q580538;;;UG;UG-408;yes;Uganda;yes;no;Africa;Sub-Saharan Africa;Eastern Africa
rw;Kinyarwanda;Kabale;;Q3526470;;;UG;UG-404;yes;Uganda;yes;no;Africa;Sub-Saharan Africa;Eastern Africa
rw;Kinyarwanda;Ntungamo;;Q204642;;;UG;UG-411;yes;Uganda;yes;no;Africa;Sub-Saharan Africa;Eastern Africa
sa;Sanskrit;Uttar Pradesh;__________________;Q1498;;;IN;IN-UP;yes;India;yes;no;Asia;Southern Asia;
sa;Sanskrit;Delhi;_____;Q1353;;;IN;IN-DL;yes;India;yes;no;Asia;Southern Asia;
sah;Yakut;Magadan Oblast;___________ _______;Q7971;;;RU;RU-MAG;yes;Russian Federation;yes;regional;Europe;Eastern Europe;
sah;Yakut;Krasnoyarskiy Kray;____________ ______;Q6563;;;RU;RU-KYA;yes;Russian Federation;yes;regional;Europe;Eastern Europe;
sah;Yakut;Khabarovsk Krai;___________ ______;Q7788;;;RU;RU-KHA;yes;Russian Federation;yes;regional;Europe;Eastern Europe;
sah;Yakut;Irkutsk Oblast;_________ ______h_;Q6585;;;RU;RU-IRK;yes;Russian Federation;yes;regional;Europe;Eastern Europe;
sah;Yakut;Sakha;____ ____;Q6605;;;RU;RU-SA;yes;Russian Federation;yes;regional;Europe;Eastern Europe;
sat;Santhali;Bihar;;Q1165;;;IN;IN-BR;yes;India;yes;no;Asia;Southern Asia;
sat;Santhali;Odisha;;Q22048;;;IN;IN-OR;yes;India;yes;no;Asia;Southern Asia;
sat;Santhali;Jharkhand;;Q1184;;;IN;IN-JH;yes;India;yes;no;Asia;Southern Asia;
sat;Santhali;West Bengal;;Q1356;;;IN;IN-WB;yes;India;yes;no;Asia;Southern Asia;
sat;Santhali;Assam;;Q1164;;;IN;IN-AS;yes;India;yes;no;Asia;Southern Asia;
sat;Santhali;Mizoram;;Q1502;;;IN;IN-MZ;yes;India;yes;no;Asia;Southern Asia;
sat;Santhali;Tripura;;Q1363;;;IN;IN-TR;yes;India;yes;no;Asia;Southern Asia;
sc;Sardinian, Campidanese;Olbia-Tempio;Terranoa-Tèmpiu;Q16224;;;IT;IT-OT;yes;Italy;yes;no;Europe;Southern Europe;
sc;Sardinian, Gallurese;Nuoro;Nùgoro;Q16220;;;IT;IT-NU;yes;Italy;yes;no;Europe;Southern Europe;
sc;Sardinian, Gallurese;Sassari;Tàtari;Q16272;;;IT;IT-SS;yes;Italy;yes;no;Europe;Southern Europe;
scn;Sicilian;Sicily;Sicilia;Q1460;;"siciliani;siciliana;sicilianu";IT;IT-82;yes;Italy;yes;no;Europe;Southern Europe;
sco;Scots;Ulster;Ulster;Q93195;;;GB;IE-U;yes;United Kingdom;yes;no;Europe;Northern Europe;
sco;Scots;Scotland;Scotland;Q22;Scottish;;GB;GB-SCT;yes;United Kingdom;yes;no;Europe;Northern Europe;
sco;Scots;Orkney s;Orkney;Q100166;;;GB;GB-ORK;yes;United Kingdom;yes;no;Europe;Northern Europe;
sco;Scots;Scottish Borders;The Mairches;Q211113;;;GB;GB-SCB;yes;United Kingdom;yes;no;Europe;Northern Europe;
sco;Scots;Shetland;Shetland;Q47134;;;GB;GB-ZET;yes;United Kingdom;yes;no;Europe;Northern Europe;
sd;Sindhi;Sindh;___;Q37211;;;PK;PK-SD;yes;Pakistan;yes;regional;Asia;Southern Asia;
sd;Sindhi;Balochistan;________;Q163239;;;PK;PK-BA;yes;Pakistan;yes;regional;Asia;Southern Asia;
sd;Sindhi;Tamil Nadu;;Q1445;;;IN;IN-TN;yes;India;yes;no;Asia;Southern Asia;
sd;Sindhi;Gujarat;_______;Q1061;Gujarati;;IN;IN-GJ;yes;India;yes;no;Asia;Southern Asia;
sd;Sindhi;Andhra Pradesh;;Q1159;;;IN;IN-AP;yes;India;yes;no;Asia;Southern Asia;
sd;Sindhi;Bihar;;Q1165;;;IN;IN-BR;yes;India;yes;no;Asia;Southern Asia;
sd;Sindhi;Maharashtra;;Q1191;;;IN;IN-MH;yes;India;yes;no;Asia;Southern Asia;
sd;Sindhi;Madhya Pradesh;;Q1188;;;IN;IN-MP;yes;India;yes;no;Asia;Southern Asia;
sd;Sindhi;Delhi;____;Q1353;;;IN;IN-DL;yes;India;yes;no;Asia;Southern Asia;
sd;Sindhi;Rajasthan;;Q1437;;;IN;IN-RJ;yes;India;yes;no;Asia;Southern Asia;
sd;Sindhi;Uttar Pradesh;;Q1498;;;IN;IN-UP;yes;India;yes;no;Asia;Southern Asia;
sd;Sindhi;Odisha;;Q22048;;;IN;IN-OR;yes;India;yes;no;Asia;Southern Asia;
se;Saami, North;Finnmark;Finnmárkku fylka;Q50632;;;NO;NO-20;yes;Norway;yes;regional;Europe;Northern Europe;
se;Saami, North;Troms;Romssa fylka;Q50631;;;NO;NO-19;yes;Norway;yes;regional;Europe;Northern Europe;
se;Saami, North;Nordland;Nordlándda fylka;Q50630;;;NO;NO-18;yes;Norway;yes;regional;Europe;Northern Europe;
se;Saami, North;Lapland;Lappi eanangoddi;Q5700;;;FI;FI-10;yes;Finland;yes;no;Europe;Northern Europe;
se;Saami, North;Norrbotten;Norrbottena leatna;Q103686;;;SE;SE-BD;yes;Sweden;yes;regional;Europe;Northern Europe;
sg;Sango;Central African;Ködörösêse tî Bêafrîka;Q929;Central African;;CF;;no;Central African Republic;yes;national;Africa;Sub-Saharan Africa;Middle Africa
sh;Serbo-Croatian;Serbia;Srbija;Q403;Serbian;;RS;;no;Serbia;yes;no;Europe;Southern Europe;
sh;Bosnian;Bosnia and Herzegovina;Bosna i Hercegovina;Q225;"Herzegovinian;Bosnian";;BA;;no;Bosnia and Herzegovina;yes;national;Europe;Southern Europe;
sh;Bosnian;Montenegro;Crna Gora;Q236;Montenegrin;;ME;;no;Montenegro;yes;no;Europe;Southern Europe;
sh;Serbian;Kumanovo;Kumanovo;Q2352376;;;MK;MK-47;yes;Macedonia;yes;no;Europe;Southern Europe;
sh;Serbian;Kisela Voda;Kisela Voda;Q1386136;;;MK;MK-39;yes;Macedonia;yes;no;Europe;Southern Europe;
sh;Serbian;Kriva Palanka;Kriva Palanka;Q1422453;;;MK;MK-44;yes;Macedonia;yes;no;Europe;Southern Europe;
sh;Serbian;Gazi Baba;Gazi Baba;Q2019836;;;MK;MK-17;yes;Macedonia;yes;no;Europe;Southern Europe;
sh;Serbian;Skopje;Skoplje;Q384;;;MK;;yes;Macedonia;yes;national;Europe;Southern Europe;
shn;Shan;Kachin;;Q140646;;;MM;MM-11;yes;Myanmar;yes;regional;Asia;South-eastern Asia;
shn;Shan;Sagaing;;Q847289;;;MM;MM-01;yes;Myanmar;yes;regional;Asia;South-eastern Asia;
shn;Shan;Shan;;Q456847;;;MM;MM-17;yes;Myanmar;yes;regional;Asia;South-eastern Asia;
shn;Shan;Kayah;;Q652845;;;MM;MM-12;yes;Myanmar;yes;regional;Asia;South-eastern Asia;
shn;Shan;Chiang Mai;;Q233588;;;TH;TH-50;yes;Thailand;yes;regional;Asia;South-eastern Asia;
shn;Shan;Mae Hong Son;;Q269270;;;TH;TH-58;yes;Thailand;yes;regional;Asia;South-eastern Asia;
shn;Shan;Tak;;Q275758;;;TH;TH-63;yes;Thailand;yes;regional;Asia;South-eastern Asia;
si;Sinhala;Sri Lanka;_____ _____;Q854;Sri Lankan;;LK;;no;Sri Lanka;yes;national;Asia;Southern Asia;
simple;English;United Kingdom;United Kingdom;Q145;British;British;GB;GB-UKM;yes;United Kingdom;yes;national;Europe;Northern Europe;
simple;English;American Samoa;American Samoa;Q16641;American Samoan;American Samoan;AS;;yes;American Samoa;no;national;Oceania;Polynesia;
simple;English;Anguilla;Anguilla;Q25228;Anguillan;;AI;;no;Anguilla;no;national;Americas;Latin America and the Caribbean;Caribbean
simple;English;Antigua and Barbuda;Antigua and Barbuda;Q781;"Barbudan;Antiguan;Antigua and Barbuda";"Antigua and Barbuda;Antiguan;Barbudan";AG;;no;Antigua and Barbuda;no;national;Americas;Latin America and the Caribbean;Caribbean
simple;English;Australia;Australia;Q408;Australian;Australian;AU;;no;Australia;no;national;Oceania;Australia and New Zealand;
simple;English;Bahamas;Bahamas;Q778;Bahamian;Bahamian;BS;;no;Bahamas;no;national;Americas;Latin America and the Caribbean;Caribbean
simple;English;Barbados;Barbados;Q244;Barbadian;Barbadian;BB;;no;Barbados;no;national;Americas;Latin America and the Caribbean;Caribbean
simple;English;Belize;Belize;Q242;Belizean;Belizean;BZ;;no;Belize;no;national;Americas;Latin America and the Caribbean;Central America
simple;English;Bermuda;Bermuda;Q23635;Bermudian;Bermudian;BM;;no;Bermuda;no;national;Americas;Northern America;
simple;English;Botswana;Botswana;Q963;"Motswana;Botswanan;Batswana";"Batswana;Botswanan;Motswana";BW;;no;Botswana;no;national;Africa;Sub-Saharan Africa;Southern Africa
simple;English;British Indian Ocean Territory;British Indian Ocean Territory;Q43448;;;IO;;no;British Indian Ocean Territory;no;national;Africa;Sub-Saharan Africa;Eastern Africa
simple;English;British Virgin Islands;British Virgin Islands;Q25305;Virgin Islander;Virgin Islander;VG;;no;British Virgin Islands;no;national;Americas;Latin America and the Caribbean;Caribbean
simple;English;Brunei;Brunei;Q921;Bruneian;Bruneian;BN;;no;Brunei;no;national;Asia;South-eastern Asia;
simple;English;South region;Cameroon South region;Q857122;;;CM;CM-SU;yes;Cameroon;no;national;Africa;Sub-Saharan Africa;Middle Africa
simple;English;West region;Cameroon West region;Q165784;;;CM;CM-OU;yes;Cameroon;no;national;Africa;Sub-Saharan Africa;Middle Africa
simple;English;North region;Cameroon North region;Q502341;;;CM;CM-NO;yes;Cameroon;no;national;Africa;Sub-Saharan Africa;Middle Africa
simple;English;Canada;Canada;Q16;Canadian;Canadian;CA;;no;Canada;no;national;Americas;Northern America;
simple;English;Caribbean Netherlands;Caribbean Netherlands;Q27561;;;BQ;;no;Caribbean Netherlands;no;national;Americas;Latin America and the Caribbean;Caribbean
simple;English;Cayman Islands;Cayman Islands;Q5785;Caymanian;Caymanian;KY;;no;Cayman Islands;no;national;Americas;Latin America and the Caribbean;Caribbean
simple;English;Hong Kong;Hong Kong;Q8646;Hongkonger;Hongkonger;HK;;no;Hong Kong;no;regional;Asia;Eastern Asia;
simple;English;Cook Islands;Cook Islands;Q26988;Cook Islander;Cook Islander;CK;;no;Cook Islands;no;national;Oceania;Polynesia;
simple;English;Dominica;Dominica;Q784;Dominican;Dominican;DM;;no;Dominica;no;national;Americas;Latin America and the Caribbean;Caribbean
simple;English;Fiji;Fiji;Q712;Fijian;Fijian;FJ;;no;Fiji;no;national;Oceania;Melanesia;
simple;English;Gambian;Gambian;Q1005;Gambian;Gambian;GM;;no;Gambia;no;national;Africa;Sub-Saharan Africa;Western Africa
simple;English;Ghana;Ghana;Q117;Ghanaian;Ghanaian;GH;;no;Ghana;no;national;Africa;Sub-Saharan Africa;Western Africa
simple;English;Gibraltar;Gibraltar;Q1410;Gibraltarian;Gibraltarian;GI;;no;Gibraltar;no;national;Europe;Southern Europe;
simple;English;Grenada;Grenada;Q769;Grenadian;Grenadian;GD;;no;Grenada;no;national;Americas;Latin America and the Caribbean;Caribbean
simple;English;Guam;Guam;Q16635;Guamanian;Guamanian;GU;;no;Guam;no;national;Oceania;Micronesia;
simple;English;Guernsey;Guernsey;Q25230;;;GG;;no;Guernsey;no;national;Europe;Northern Europe;Channel Islands
simple;English;Guyana;Guyana;Q734;Guyanese;Guyanese;GY;;no;Guyana;no;national;Americas;Latin America and the Caribbean;South America
simple;English;India;India;Q668;Indian;Indian;IN;;no;India;no;national;Asia;Southern Asia;
simple;English;Ireland;Ireland;Q27;Irish;Irish;IE;;no;Ireland;yes;national;Europe;Northern Europe;
simple;English;Isle of Man;Isle of Man;Q9676;Manx;Manx;IM;;no;Isle of Man;yes;no;Europe;Northern Europe;
simple;English;Jamaica;Jamaica;Q766;Jamaican;Jamaican;JM;;no;Jamaica;no;national;Americas;Latin America and the Caribbean;Caribbean
simple;English;Jersey;Jersey;Q785;;;JE;;no;Jersey;no;national;Europe;Northern Europe;Channel Islands
simple;English;Kenya;Kenya;Q114;Kenyan;Kenyan;KE;;no;Kenya;no;national;Africa;Sub-Saharan Africa;Eastern Africa
simple;English;Kiribati;Kiribati;Q710;I-Kiribati;I-Kiribati;KI;;no;Kiribati;no;national;Oceania;Micronesia;
simple;English;Lesotho;Lesotho;Q1013;"Mosotho;Basotho";"Basotho;Mosotho";LS;;no;Lesotho;no;national;Africa;Sub-Saharan Africa;Southern Africa
simple;English;Liberia;Liberia;Q1014;Liberian;Liberian;LR;;no;Liberia;no;national;Africa;Sub-Saharan Africa;Western Africa
simple;English;Malawi;Malawi;Q1020;Malawian;Malawian;MW;;no;Malawi;no;national;Africa;Sub-Saharan Africa;Eastern Africa
simple;English;Malaysia;Malaysia;Q833;Malaysian;Malaysian;MY;;no;Malaysia;no;national;Asia;South-eastern Asia;
simple;English;Malta;Malta;Q233;Maltese;Maltese;MT;;no;Malta;no;national;Europe;Southern Europe;
simple;English;Marshall Islands;Marshall Islands;Q709;Marshallese;Marshallese;MH;;no;Marshall Islands;no;national;Oceania;Micronesia;
simple;English;Mauritius;Mauritius;Q1027;Mauritian;Mauritian;MU;;no;Mauritius;no;national;Africa;Sub-Saharan Africa;Eastern Africa
simple;English;Micronesia;Micronesia;Q3359409;Micronesian;Micronesian;FM;;no;Micronesia;no;national;Oceania;Micronesia;
simple;English;Montserrat;Montserrat;Q13353;Montserratian;Montserratian;MS;;no;Montserrat;no;national;Americas;Latin America and the Caribbean;Caribbean
simple;English;Namibia;Namibia;Q1030;Namibian;Namibian;NA;;no;Namibia;no;national;Africa;Sub-Saharan Africa;Southern Africa
simple;English;Nauru;Nauru;Q697;Nauruan;Nauruan;NR;;no;Nauru;no;national;Oceania;Micronesia;
simple;English;New Zealand;New Zealand;Q664;"New Zealander;New Zealand";"New Zealand;New Zealander";NZ;;no;New Zealand;no;national;Oceania;Australia and New Zealand;
simple;English;Nigeria;Nigeria;Q1033;Nigerian;Nigerian;NG;;no;Nigeria;no;national;Africa;Sub-Saharan Africa;Western Africa
simple;English;Niue;Niue;Q34020;Niuean;Niuean;NU;;no;Niue;no;national;Oceania;Polynesia;
simple;English;Norfolk Island;Norfolk Island;Q31057;Norfolk Islander;Norfolk Islander;NF;;no;Norfolk Island;no;national;Oceania;Australia and New Zealand;
simple;English;Northern Mariana Islands;Northern Mariana Islands;Q16644;Northern Mariana Islander;Northern Mariana Islander;MP;;no;Northern Mariana Islands;no;national;Oceania;Micronesia;
simple;English;Pakistan;Pakistan;Q843;Pakistani;Pakistani;PK;;no;Pakistan;no;national;Asia;Southern Asia;
simple;English;Palau;Palau;Q695;Palauan;Palauan;PW;;no;Palau;no;national;Oceania;Micronesia;
simple;English;Papua New Guinea;Papua New Guinea;Q691;Papua New Guinean;Papua New Guinean;PG;;no;Papua New Guinea;no;national;Oceania;Melanesia;
simple;English;Philippines;Philippines;Q928;"Philippine;Filipino;Filipina";"Filipina;Filipino;Philippine";PH;;no;Philippines;no;national;Asia;South-eastern Asia;
simple;English;Pitcairn;Pitcairn;Q35672;Pitcairn Islander;Pitcairn Islander;PN;;no;Pitcairn;no;national;Oceania;Polynesia;
simple;English;Puerto Rico;Puerto Rico;Q1183;Puerto Rican;Puerto Rican;PR;;no;Puerto Rico;no;national;Americas;Latin America and the Caribbean;Caribbean
simple;English;Rwanda;Rwanda;Q1037;"Rwandese;Rwandan";"Rwandan;Rwandese";RW;;no;Rwanda;no;national;Africa;Sub-Saharan Africa;Eastern Africa
simple;English;Saint Kitts and Nevis;Saint Kitts and Nevis;Q763;"Nevisian;Kittitian";"Kittitian;Nevisian";KN;;no;Saint Kitts and Nevis;no;national;Americas;Latin America and the Caribbean;Caribbean
simple;English;Saint Lucia;Saint Lucia;Q760;Saint Lucian;Saint Lucian;LC;;no;Saint Lucia;no;national;Americas;Latin America and the Caribbean;Caribbean
simple;English;Saint Vincent and the Grenadines;Saint Vincent and the Grenadines;Q757;"Vincentian;Vincy";"Vincy;Vincentian";VC;;no;Saint Vincent and the Grenadines;no;national;Americas;Latin America and the Caribbean;Caribbean
simple;English;Samoa;Samoa;Q683;Samoan;Samoan;WS;;no;Samoa;no;national;Oceania;Polynesia;
simple;English;Seychelles;Seychelles;Q1042;"Seychelloise;Seychellois";"Seychellois;Seychelloise";SC;;no;Seychelles;no;national;Africa;Sub-Saharan Africa;Eastern Africa
simple;English;Sierra Leone;Sierra Leone;Q1044;Sierra Leonean;Sierra Leonean;SL;;no;Sierra Leone;no;national;Africa;Sub-Saharan Africa;Western Africa
simple;English;Singapore;Singapore;Q334;Singaporean;Singaporean;SG;;no;Singapore;no;national;Asia;South-eastern Asia;
simple;English;Sint Maarten;Sint Maarten;Q26273;St. Maartener;St. Maartener;SX;;no;Sint Maarten;no;national;Americas;Latin America and the Caribbean;Caribbean
simple;English;Solomon Islands;Solomon Islands;Q685;Solomon Islander;Solomon Islander;SB;;no;Solomon Islands;no;national;Oceania;Melanesia;
simple;English;Eastern Cape;Eastern Cape;Q130840;;;ZA;ZA-EC;yes;South Africa;no;national;Africa;Sub-Saharan Africa;Southern Africa
simple;English;Johannesburg;Johannesburg;Q34647;;;ZA;;yes;South Africa;no;national;Africa;Sub-Saharan Africa;Southern Africa
simple;English;Gauteng;Gauteng;Q133083;;;ZA;ZA-GT;yes;South Africa;no;national;Africa;Sub-Saharan Africa;Southern Africa
simple;English;Western Cape;Western Cape;Q127167;;;ZA;ZA-WC;yes;South Africa;no;national;Africa;Sub-Saharan Africa;Southern Africa
simple;English;Sudan;Sudan;Q1049;Sudanese;Sudanese;SD;;no;Sudan;no;national;Africa;Northern Africa;
simple;English;Swaziland;Swaziland;Q1050;Swazi;Swazi;SZ;;no;Swaziland;no;national;Africa;Sub-Saharan Africa;Southern Africa
simple;English;Tokelau;Tokelau;Q36823;Tokelau;Tokelau;TK;;no;Tokelau;no;national;Oceania;Polynesia;
simple;English;Tonga;Tonga;Q678;Tongan;Tongan;TO;;no;Tonga;no;national;Oceania;Polynesia;
simple;English;Trinidad and Tobago;Trinidad and Tobago;Q754;Trinidadian;Trinidadian;TT;;no;Trinidad and Tobago;no;national;Americas;Latin America and the Caribbean;Caribbean
simple;English;Turks and Caicos Islands;Turks and Caicos Islands;Q18221;;;TC;;no;Turks and Caicos Islands;no;national;Americas;Latin America and the Caribbean;Caribbean
simple;English;Tuvalu;Tuvalu;Q672;Tuvaluan;Tuvaluan;TV;;no;Tuvalu;no;national;Oceania;Polynesia;
simple;English;Virgin Islands;Virgin Islands;Q11703;Virgin Islander;Virgin Islander;VI;;no;U.S. Virgin Islands;no;national;Americas;Latin America and the Caribbean;Caribbean
simple;English;Uganda;Uganda;Q1036;Ugandan;Ugandan;UG;;no;Uganda;no;national;Africa;Sub-Saharan Africa;Eastern Africa
simple;English;United States;United States;Q30;;;US;;no;United States;no;national;Americas;Northern America;
simple;English;Vanuatu;Vanuatu;Q686;Ni-Vanuatu;Ni-Vanuatu;VU;;no;Vanuatu;no;national;Oceania;Melanesia;
simple;English;Zambia;Zambia;Q953;Zambian;Zambian;ZM;;no;Zambia;no;national;Africa;Sub-Saharan Africa;Eastern Africa
simple;English;Zimbabwe;Zimbabwe;Q954;Zimbabwean;Zimbabwean;ZW;;no;Zimbabwe;no;national;Africa;Sub-Saharan Africa;Eastern Africa
sk;Slovak;Bratislava;Bratislavsk_ kraj;Q183498;;;SK;SK-BL;yes;Slovakia;yes;national;Europe;Eastern Europe;
sk;Slovak;Zala;Zalianska _upa;Q185374;;;HU;HU-ZA;yes;Hungary;yes;no;Europe;Eastern Europe;
sk;Slovak;Borsod-Abaúj-Zemplén;Bor_odsko-abovsko-zemplínska _upa;Q188895;;;HU;HU-BZ;yes;Hungary;yes;no;Europe;Eastern Europe;
sk;Slovak;Vojvodina;Vojvodina;Q44749;;;RS;RS-VO;yes;Serbia;no;regional;Europe;Southern Europe;
sl;Slovene;Slovenia;Slovenija;Q215;"Slovenian;Slovene";"Slovenec;Slovenka";SI;;no;Slovenia;yes;national;Europe;Southern Europe;
sl;Slovene;Carinthia;Koro_ka;Q37985;;;AT;AT-2;yes;Austria;yes;no;Europe;Western Europe;
sl;Slovene;Styria;_tajerska;Q41358;;;AT;AT-6;yes;Austria;yes;no;Europe;Western Europe;
sl;Slovene;Zala;Zala;Q185374;;;HU;HU-ZA;yes;Hungary;yes;no;Europe;Eastern Europe;
sl;Slovene;Gorizia;Gori_ka pokrajina;Q16184;;;IT;IT-GO;yes;Italy;yes;regional;Europe;Southern Europe;
sl;Slovene;Trieste;Tr_a_ka pokrajina;Q16293;;;IT;IT-TS;yes;Italy;yes;regional;Europe;Southern Europe;
sl;Slovene;Udine;Videmska pokrajina;Q16294;;;IT;IT-UD;yes;Italy;yes;regional;Europe;Southern Europe;
sm;Samoan;Samoa;S_moa;Q683;;;WS;;no;Samoa;yes;national;Oceania;Polynesia;
sm;Samoan;American Samoa;Amerika S_moa;Q16641;;;US;US-AS;yes;American Samoa;yes;no;Americas;Northern America;
sn;Shona;Mashonaland Central;;Q596156;;;ZW;ZW-MC;yes;Zimbabwe;yes;no;Africa;Sub-Saharan Africa;Eastern Africa
sn;Shona;Zimbabwe;Zimbabwe;Q954;Zimbabwean;;ZW;;no;Zimbabwe;yes;no;Africa;Sub-Saharan Africa;Eastern Africa
sn;Shona;Lusaka;;Q819998;;;ZM;ZM-09;yes;Zambia;yes;no;Africa;Sub-Saharan Africa;Eastern Africa
sn;Shona;Southern;;Q738382;;;ZM;ZM-07;yes;Zambia;yes;no;Africa;Sub-Saharan Africa;Eastern Africa
sn;Shona;Central;;Q190718;;;ZM;ZM-02;yes;Zambia;yes;no;Africa;Sub-Saharan Africa;Eastern Africa
so;Somali;Somalia;Soomaaliya;Q1045;Somali;;SO;;no;Somalia;yes;national;Africa;Sub-Saharan Africa;Eastern Africa
so;Somali;Djibouti;Jabuuti;Q977;Djiboutian;;DJ;;no;Djibouti;yes;no;Africa;Sub-Saharan Africa;Eastern Africa
so;Somali;Oromia;;Q202107;;;ET;ET-OR;yes;Ethiopia;yes;regional;Africa;Sub-Saharan Africa;Eastern Africa
so;Somali;Somali;Soomaali Galbeed;Q202800;;;ET;ET-SO;yes;Ethiopia;yes;regional;Africa;Sub-Saharan Africa;Eastern Africa
so;Somali;Dire Dawa;Diridhabe;Q193486;;;ET;ET-DD;yes;Ethiopia;yes;regional;Africa;Sub-Saharan Africa;Eastern Africa
so;Somali;Afar;;Q193494;;;ET;ET-AF;yes;Ethiopia;yes;regional;Africa;Sub-Saharan Africa;Eastern Africa
so;Somali;Mandera;;Q1477874;;;KE;KE-24;yes;Kenya;yes;no;Africa;Sub-Saharan Africa;Eastern Africa
so;Somali;Garissa;;Q1494292;;;KE;KE-07;yes;Kenya;yes;no;Africa;Sub-Saharan Africa;Eastern Africa
so;Somali;Wajir;;Q1852209;;;KE;KE-46;yes;Kenya;yes;no;Africa;Sub-Saharan Africa;Eastern Africa
sq;Albanian;Albania;Shqipëria;Q222;Albanian;;AL;;no;Albania;yes;no;Europe;Southern Europe;
sq;Albanian, Arbëreshë;Catanzaro;Katanxaros;Q16159;;;IT;IT-CZ;yes;Italy;yes;no;Europe;Southern Europe;
sq;Albanian, Arbëreshë;Reggio Calabria;Rrexho Kalabria;Q8471;;;IT;IT-RC;yes;Italy;yes;no;Europe;Southern Europe;
sq;Albanian, Arbëreshë;Palermo;Palermos;Q16227;;;IT;IT-PA;yes;Italy;yes;no;Europe;Southern Europe;
sq;Albanian, Arbëreshë;Campobasso;Kampobasos;Q16151;;;IT;IT-CB;yes;Italy;yes;no;Europe;Southern Europe;
sq;Albanian, Arbëreshë;Molise;Molize;Q1443;;;IT;IT-67;yes;Italy;yes;no;Europe;Southern Europe;
sq;Albanian, Arvanitika;Thessaly;Thesalia;Q166919;;;GR;GR-E;yes;Greece;yes;no;Europe;Southern Europe;
sq;Albanian, Arvanitika;Central Greece;Greqia Qendrore;Q199580;;;GR;GR-H;yes;Greece;yes;no;Europe;Southern Europe;
sq;Albanian, Arvanitika;Attica;Atika;Q758056;;;GR;GR-I;yes;Greece;yes;no;Europe;Southern Europe;
sq;Albanian, Gheg;Gazi Baba;Komuna e Gazi Babës;Q2019836;;;MK;MK-17;yes;Macedonia;yes;regional;Europe;Southern Europe;
sq;Albanian, Gheg;Tetovo;Komuna e Tetovës;Q3245456;;;MK;MK-76;yes;Macedonia;yes;regional;Europe;Southern Europe;
sq;Albanian, Gheg;Gostivar;Komuna e Gostivarit;Q521112;;;MK;MK-19;yes;Macedonia;yes;regional;Europe;Southern Europe;
sq;Albanian, Gheg;Resen;Komuna e Resnjës;Q740591;;;MK;MK-66;yes;Macedonia;yes;regional;Europe;Southern Europe;
sq;Albanian, Gheg;Struga;Komuna e Strugës;Q749618;;;MK;MK-72;yes;Macedonia;yes;regional;Europe;Southern Europe;
sq;Albanian, Gheg;Ohrid;Komuna e Ohrit;Q1125333;;;MK;MK-58;yes;Macedonia;yes;regional;Europe;Southern Europe;
sq;Albanian, Gheg;Debar;Komuna e Dibrës;Q1344996;;;MK;MK-21;yes;Macedonia;yes;regional;Europe;Southern Europe;
sq;Albanian, Gheg;Kumanovo;Komuna e Kumanovës;Q2352376;;;MK;MK-47;yes;Macedonia;yes;regional;Europe;Southern Europe;
sq;Albanian, Gheg;Montenegro;Mali i Zi;Q236;;;ME;;no;Montenegro;yes;regional;Europe;Southern Europe;
sq;Albanian, Gheg;Jablanica;Rrethi Jablanica;Q876541;;;RS;RS-23;yes;Serbia;yes;regional;Europe;Southern Europe;
sq;Albanian, Gheg;Toplica;Rrethi Toplica;Q1048184;;;RS;RS-21;yes;Serbia;yes;regional;Europe;Southern Europe;
sq;Albanian, Gheg;Kosovo;Kosova;Q1452368;;;RS;RS-25;yes;Serbia;yes;regional;Europe;Southern Europe;
sq;Albanian, Tosk;Epirus;Epiri (periferia);Q180484;;;GR;GR-D;yes;Greece;yes;no;Europe;Southern Europe;
sr;Serbian;Serbia;______;Q403;Serbian;"____;_____;_______";RS;;no;Serbia;yes;national;Europe;Southern Europe;
sr;Serbian;Bosnia and Herzegovina;_____ _ ___________;Q225;"Herzegovinian;Bosnian";;BA;;no;Bosnia and Herzegovina;no;national;Europe;Southern Europe;
sr;Serbian;Croatia;________;Q224;Croatian;;HR;;no;Croatia;no;regional;Europe;Southern Europe;
sr;Serbian;Kisela Voda;______ ____;Q1386136;;;MK;MK-39;yes;Macedonia;yes;no;Europe;Southern Europe;
sr;Serbian;Kriva Palanka;_____ _______;Q1422453;;;MK;MK-44;yes;Macedonia;yes;no;Europe;Southern Europe;
sr;Serbian;Gazi Baba;____ ____;Q2019836;;;MK;MK-17;yes;Macedonia;yes;no;Europe;Southern Europe;
sr;Serbian;Kumanovo;________;Q2352376;;;MK;MK-47;yes;Macedonia;yes;no;Europe;Southern Europe;
sr;Serbian;Montenegro;____ ____;Q236;Montenegrin;;ME;;no;Montenegro;yes;national;Europe;Southern Europe;
srn;Sranan;Suriname;Sranankondre;Q730;Surinamese;;SR;;no;Suriname;yes;no;Americas;Latin America and the Caribbean;South America
ss;Swati;Swaziland;Umbuso weSwatini;Q1050;Swazi;;SZ;;no;Swaziland;yes;national;Africa;Sub-Saharan Africa;Southern Africa
ss;Swati;Maputo;;Q379658;;;MZ;MZ-L;yes;Mozambique;yes;no;Africa;Sub-Saharan Africa;Eastern Africa
ss;Swati;KwaZulu-Natal;KaZulu;Q81725;;;ZA;ZA-NL;yes;South Africa;yes;national;Africa;Sub-Saharan Africa;Southern Africa
ss;Swati;Mpumalanga;Mpumalanga;Q132410;;;ZA;ZA-MP;yes;South Africa;yes;national;Africa;Sub-Saharan Africa;Southern Africa
st;Sotho, Southern;Lesotho;Lesotho;Q1013;"Mosotho;Basotho";;LS;;no;Lesotho;yes;national;Africa;Sub-Saharan Africa;Southern Africa
st;Sotho, Southern;Free;Freistata;Q160284;;;ZA;ZA-FS;yes;South Africa;yes;national;Africa;Sub-Saharan Africa;Southern Africa
st;Sotho, Southern;Gauteng;Gauteng;Q133083;;;ZA;ZA-GT;yes;South Africa;yes;national;Africa;Sub-Saharan Africa;Southern Africa
st;Sotho, Southern;Eastern Cape;Kapa Botjhabela;Q130840;;;ZA;ZA-EC;yes;South Africa;yes;national;Africa;Sub-Saharan Africa;Southern Africa
st;Sotho, Southern;Mpumalanga;Mpumalanga;Q132410;;;ZA;ZA-MP;yes;South Africa;yes;national;Africa;Sub-Saharan Africa;Southern Africa
stq;Saterfriesisch;Niedersachsen;Läichsaksen;Q1197;;;DE;DE-NI;yes;Germany;yes;no;Europe;Western Europe;
su;Sunda;Banten;Banten;Q3540;;;ID;ID-BT;yes;Indonesia;yes;no;Asia;South-eastern Asia;
su;Sunda;Jawa Barat;Jawa Kulon;Q3724;;;ID;ID-JB;yes;Indonesia;yes;no;Asia;South-eastern Asia;
su;Sunda;Central Java;Jawa Tengah;Q3557;;;ID;ID-JT;yes;Indonesia;yes;no;Asia;South-eastern Asia;
sv;Swedish;Sweden;Sverige;Q34;Swedish;"svensk;svenskt";SE;;no;Sweden;yes;national;Europe;Northern Europe;
sv;Swedish;Åland;Åland;Q5689;Ålandic;Ålänning;AX;;no;Åland Islands;yes;national;Europe;Northern Europe;
sv;Swedish;Kymenlaakso;Kymmenedalen;Q5698;;;FI;FI-09;yes;Finland;yes;national;Europe;Northern Europe;
sv;Swedish;Ostrobothnia;Österbotten;Q5702;;;FI;FI-12;yes;Finland;yes;national;Europe;Northern Europe;
sw;Swahili, Congo;Haut-Katanga Province ;Katanga Juu;Q130268;;;CD;CD-HK;yes;Democratic Republic of the Congo;yes;regional;Africa;Sub-Saharan Africa;Middle Africa
sw;Swahili, Congo;Haut-Lomami District;Lomami Juu;Q605672;;;CD;CD-HL;yes;Democratic Republic of the Congo;yes;regional;Africa;Sub-Saharan Africa;Middle Africa
sw;Swahili, Congo;Ituri Province;Ituri;Q24909562;;;CD;CD-IT;yes;Democratic Republic of the Congo;yes;regional;Africa;Sub-Saharan Africa;Middle Africa
sw;Swahili, Congo;Lualaba Province;Lualaba;Q1159531;;;CD;CD-LU;yes;Democratic Republic of the Congo;yes;regional;Africa;Sub-Saharan Africa;Middle Africa
sw;Swahili, Congo;Maniema;Maniema;Q130566;;;CD;CD-MA;yes;Democratic Republic of the Congo;yes;regional;Africa;Sub-Saharan Africa;Middle Africa
sw;Swahili, Congo;North Kivu;Kivu Kaskazini;Q130625;;;CD;CD-NK;yes;Democratic Republic of the Congo;yes;regional;Africa;Sub-Saharan Africa;Middle Africa
sw;Swahili, Congo;South Kivu;Kivu Kusini;Q488326;;;CD;CD-SK;yes;Democratic Republic of the Congo;yes;regional;Africa;Sub-Saharan Africa;Middle Africa
sw;Swahili, Congo;Tanganyika District; Tanganyika;Q826585;;;CD;CD-TA;yes;Democratic Republic of the Congo;yes;regional;Africa;Sub-Saharan Africa;Middle Africa
sw;Swahili;Tanzania;Tanzania;Q924;Tanzanian;;TZ;;no;Tanzania;yes;national;Africa;Sub-Saharan Africa;Eastern Africa
sw;Swahili;Garissa;Wilaya ya Garissa;Q1494292;;;KE;KE-07;yes;Kenya;yes;national;Africa;Sub-Saharan Africa;Eastern Africa
sw;Swahili;Lamu;Wilaya ya Lamu;Q1951652;;;KE;KE-21;yes;Kenya;yes;national;Africa;Sub-Saharan Africa;Eastern Africa
sw;Swahili;Cabo Delgado;Mkoa wa Cabo Delgado;Q466538;;;MZ;MZ-P;yes;Mozambique;yes;no;Africa;Sub-Saharan Africa;Eastern Africa
sw;Swahili;Jubbada Hoose;;Q877042;;;SO;SO-JH;yes;Somalia;yes;no;Africa;Sub-Saharan Africa;Eastern Africa
sw;Swahili;Uganda;Uganda;Q1036;Ugandan;;UG;;no;Uganda;no;national;Africa;Sub-Saharan Africa;Eastern Africa
szl;Silesian;Silesian Voivodeship;_l_nske;Q54181;;;PL;;yes;Poland;yes;no;Europe;Eastern Europe;
ta;Tamil;Sri Potti Sri Ramulu Nellore district;"	____ ______ ____ ______ ________ ________";Q15383;;;IN;;yes;India;yes;regional;Asia;Southern Asia;
ta;Tamil;Puducherry;__________;Q66743;;;IN;IN-PY;yes;India;yes;regional;Asia;Southern Asia;
ta;Tamil;Andhra Pradesh;________ ________;Q1159;;;IN;IN-AP;yes;India;yes;regional;Asia;Southern Asia;
ta;Tamil;Karnataka;_________;Q1185;;;IN;IN-KA;yes;India;yes;regional;Asia;Southern Asia;
ta;Tamil;Kerala;______;Q1186;;;IN;IN-KL;yes;India;yes;regional;Asia;Southern Asia;
ta;Tamil;Tamil Nadu;_________;Q1445;;;IN;IN-TN;yes;India;yes;regional;Asia;Southern Asia;
ta;Tamil;Anuradhapura District;___________ ________;Q612614;;;LK;LK-71;yes;Sri Lanka;yes;national;Asia;Southern Asia;
ta;Tamil;Mannar;_______ ________;Q178003;;;LK;LK-43;yes;Sri Lanka;yes;national;Asia;Southern Asia;
ta;Tamil;Vavuniya;_______ ________;Q527980;;;LK;LK-44;yes;Sri Lanka;yes;national;Asia;Southern Asia;
ta;Tamil;Galle;____ ________;Q647649;;;LK;LK-31;yes;Sri Lanka;yes;national;Asia;Southern Asia;
ta;Tamil;Kandy;_____ ________;Q723002;;;LK;LK-21;yes;Sri Lanka;yes;national;Asia;Southern Asia;
ta;Tamil;Matale;_______ ________;Q787421;;;LK;LK-22;yes;Sri Lanka;yes;national;Asia;Southern Asia;
ta;Tamil;Batticaloa;____________ ________;Q810960;;;LK;LK-51;yes;Sri Lanka;yes;national;Asia;Southern Asia;
ta;Tamil;Polonnaruwa;__________ ________;Q931057;;;LK;LK-72;yes;Sri Lanka;yes;national;Asia;Southern Asia;
ta;Tamil;Jaffna;_________ ________;Q1520182;;;LK;LK-41;yes;Sri Lanka;yes;national;Asia;Southern Asia;
ta;Tamil;Nuwara Eliya;_________ ________;Q1583950;;;LK;LK-23;yes;Sri Lanka;yes;national;Asia;Southern Asia;
ta;Tamil;Ratnapura;___________ ________;Q1587175;;;LK;LK-91;yes;Sri Lanka;yes;national;Asia;Southern Asia;
ta;Tamil;Mullaitivu;____________ ________;Q1587508;;;LK;LK-45;yes;Sri Lanka;yes;national;Asia;Southern Asia;
tcy;Tulu;Karnataka;_______;Q1185;;;IN;IN-KA;yes;India;yes;no;Asia;Southern Asia;
tcy;Tulu;Kerala;____;Q1186;;;IN;IN-KL;yes;India;yes;no;Asia;Southern Asia;
te;Telugu;Andhra Pradesh;_____ _______;Q1159;;;IN;IN-AP;yes;India;yes;regional;Asia;Southern Asia;
te;Telugu;Chhattisgarh;___________;Q1168;;;IN;IN-CT;yes;India;yes;regional;Asia;Southern Asia;
te;Telugu;Karnataka;_______;Q1185;;;IN;IN-KA;yes;India;yes;regional;Asia;Southern Asia;
te;Telugu;Maharashtra;__________;Q1191;;;IN;IN-MH;yes;India;yes;regional;Asia;Southern Asia;
te;Telugu;Puducherry;__________;Q66743;;;IN;IN-PY;yes;India;yes;regional;Asia;Southern Asia;
te;Telugu;Odisha;_______;Q22048;;;IN;IN-OR;yes;India;yes;regional;Asia;Southern Asia;
te;Telugu;Tamil Nadu;________;Q1445;;;IN;IN-TN;yes;India;yes;regional;Asia;Southern Asia;
tet;Tetun;Nusa Tenggara Timur;;Q5061;;;ID;ID-NT;yes;Indonesia;yes;no;Asia;South-eastern Asia;
tet;Tetun;Manatuto District;Manatutu;Q860630;;;TL;TL-MT;yes;East Timor;yes;no;Asia;South-eastern Asia;
tet;Tetun;Manufahi;Manufahi;Q629934;;;TL;TL-MF;yes;East Timor;yes;no;Asia;South-eastern Asia;
tet;Tetun;Viqueque;Vikeke;Q610726;;;TL;TL-VI;yes;East Timor;yes;no;Asia;South-eastern Asia;
tet;Tetun;Bobonaro;Bobonaru;Q860913;;;TL;TL-BO;yes;East Timor;yes;no;Asia;South-eastern Asia;
tet;Tetun;Cova Lima;Kovalima;Q165575;;;TL;TL-CO;yes;East Timor;yes;no;Asia;South-eastern Asia;
tg;Tajiki;Tajikistan;__________;Q863;Tajikistani;;TJ;;no;Tajikistan;yes;national;Asia;Central Asia;
tg;Tajiki;Buxoro;______;Q487372;;;UZ;UZ-BU;yes;Uzbekistan;yes;no;Asia;Central Asia;
tg;Tajiki;Fergana Region;_______;Q487089;;;UZ;UZ-FA;yes;Uzbekistan;yes;no;Asia;Central Asia;
tg;Tajiki;Samarqand;_________;Q487532;;;UZ;UZ-SA;yes;Uzbekistan;yes;no;Asia;Central Asia;
tg;Tajiki;Surxondaryo;__________;Q487537;;;UZ;UZ-SU;yes;Uzbekistan;yes;no;Asia;Central Asia;
tg;Tajiki;Navoiy;_____;Q487570;;;UZ;UZ-NW;yes;Uzbekistan;yes;no;Asia;Central Asia;
tg;Tajiki;Qashqadaryo;_________;Q487577;;;UZ;UZ-QA;yes;Uzbekistan;yes;no;Asia;Central Asia;
th;Thai;Thailand;_________;Q869;Thai;;TH;;no;Thailand;yes;national;Asia;South-eastern Asia;
th;Thai;Banteay Meanchey;__________________;Q3817;;;KH;KH-1;yes;Cambodia;yes;no;Asia;South-eastern Asia;
th;Thai;Koh Kong;_____________;Q466000;;;KH;KH-9;yes;Cambodia;yes;no;Asia;South-eastern Asia;
ti;Tigrigna;Afar;;Q193494;;;ET;ET-AF;yes;Ethiopia;yes;regional;Africa;Sub-Saharan Africa;Eastern Africa
ti;Tigrigna;Amhara;;Q203009;;;ET;ET-AM;yes;Ethiopia;yes;regional;Africa;Sub-Saharan Africa;Eastern Africa
ti;Tigrigna;Tigray;;Q200127;;;ET;ET-TI;yes;Ethiopia;yes;regional;Africa;Sub-Saharan Africa;Eastern Africa
ti;Tigrigna;Eritrea;____;Q986;Eritrean;;ER;;no;Eritrea;yes;no;Africa;Sub-Saharan Africa;Eastern Africa
tk;Turkmen;Turkmenistan;Türkmenistan;Q874;Turkmen;;TM;;no;Turkmenistan;yes;national;Asia;Central Asia;
tk;Turkmen;Balkh;;Q121104;;;AF;AF-BAL;yes;Afghanistan;yes;no;Asia;Southern Asia;
tk;Turkmen;Badghis;;Q172052;;;AF;AF-BDG;yes;Afghanistan;yes;no;Asia;Southern Asia;
tk;Turkmen;Faryab;;Q173830;;;AF;AF-FYB;yes;Afghanistan;yes;no;Asia;Southern Asia;
tk;Turkmen;Herat;;Q182844;;;AF;AF-HER;yes;Afghanistan;yes;no;Asia;Southern Asia;
tk;Turkmen;Jowzjan;;Q183036;;;AF;AF-JOW;yes;Afghanistan;yes;no;Asia;Southern Asia;
tk;Turkmen;Kabul;;Q188933;;;AF;AF-KAB;yes;Afghanistan;yes;no;Asia;Southern Asia;
tk;Turkmen;Golestan;Gülistan Wela_aty;Q170041;;;IR;IR-27;yes;Iran;yes;no;Asia;Southern Asia;
tk;Turkmen;Razavi Khorasan;;Q587090;;;IR;IR-30;yes;Iran;yes;no;Asia;Southern Asia;
tk;Turkmen;Khorasan-e Shemali;;Q180075;;;IR;IR-31;yes;Iran;yes;no;Asia;Southern Asia;
tk;Turkmen;Mazandaran;;Q308864;;;IR;IR-21;yes;Iran;yes;no;Asia;Southern Asia;
tl;Tagalog;Philippines;Pilipinas;Q928;"Philippine;Filipino;Filipina";;PH;;no;Philippines;yes;no;Asia;South-eastern Asia;
tlh;Klingon;;;;;;;;;;;;;;
tn;Tswana;Botswana;Botswana;Q963;"Motswana;Botswanan;Batswana";;BW;;no;Botswana;yes;national;Africa;Sub-Saharan Africa;Southern Africa
tn;Tswana;Omaheke;;Q838775;;;NA;NA-OH;yes;Namibia;yes;no;Africa;Sub-Saharan Africa;Southern Africa
tn;Tswana;Hardap;;Q752676;;;NA;NA-HA;yes;Namibia;yes;no;Africa;Sub-Saharan Africa;Southern Africa
tn;Tswana;Free;Free;Q160284;;;ZA;ZA-FS;yes;South Africa;yes;national;Africa;Sub-Saharan Africa;Southern Africa
tn;Tswana;Northern Cape;Northern Cape;Q132418;;;ZA;ZA-NC;yes;South Africa;yes;national;Africa;Sub-Saharan Africa;Southern Africa
tn;Tswana;Gauteng;Gauteng;Q133083;;;ZA;ZA-GT;yes;South Africa;yes;national;Africa;Sub-Saharan Africa;Southern Africa
tn;Tswana;Matabeleland South;;Q498355;;;ZW;ZW-MS;yes;Zimbabwe;yes;no;Africa;Sub-Saharan Africa;Eastern Africa
to;Tongan;Tonga;Tonga;Q678;Tongan;;TO;;no;Tonga;yes;national;Oceania;Polynesia;
tpi;Tok Pisin;Papua New Guinea;Papua Niugini;Q691;Papua New Guinean;;PG;;no;Papua New Guinea;yes;national;Oceania;Melanesia;
tr;Turkish;Turkey;Türkiye;Q43;Turkish;Türk;TR;;no;Turkey;yes;national;Asia;Western Asia;
tr;Turkish;Burgas;Burgaz ili;Q369220;;;BG;BG-02;yes;Bulgaria;yes;no;Europe;Eastern Europe;
tr;Turkish;Haskovo Province;Hasköy;Q182809;;;BG;BG-26;yes;Bulgaria;yes;no;Europe;Eastern Europe;
tr;Turkish;Kurdzhali;Kırcaali;Q1104675;;;BG;BG-09;yes;Bulgaria;yes;no;Europe;Eastern Europe;
tr;Turkish;Smolyan;Smolyan ili;Q2012430;;;BG;BG-21;yes;Bulgaria;yes;no;Europe;Eastern Europe;
tr;Turkish;Cyprus;Kıbrıs Cumhuriyeti;Q229;Cypriot;;CY;;no;Cyprus;yes;regional;Asia;Western Asia;
tr;Turkish;Xanthi;_skeçe;Q208303;;;GR;GR-72;yes;Greece;yes;regional;Europe;Southern Europe;
tr;Turkish;Rhodope;Rodopi;Q208604;;;GR;GR-73;yes;Greece;yes;regional;Europe;Southern Europe;
ts;Tsonga;Mpumalanga;Mpumalanga;Q132410;;;ZA;ZA-MP;yes;South Africa;yes;national;Africa;Sub-Saharan Africa;Southern Africa
ts;Tsonga;Limpopo;Limpopo;Q134907;;;ZA;ZA-LP;yes;South Africa;yes;national;Africa;Sub-Saharan Africa;Southern Africa
ts;Tsonga;Maputo;;Q379658;;;MZ;MZ-L;yes;Mozambique;yes;no;Africa;Sub-Saharan Africa;Eastern Africa
ts;Tsonga;Gaza;;Q466526;;;MZ;MZ-G;yes;Mozambique;yes;no;Africa;Sub-Saharan Africa;Eastern Africa
tt;Tatar;Republic of Tatarstan;_________;Q5481;;;RU;RU-TA;yes;Russian Federation;yes;regional;Europe;Eastern Europe;
tt;Tatar;Republic of Bashkortostan;___________;Q5710;;;RU;RU-BA;yes;Russian Federation;yes;regional;Europe;Eastern Europe;
tt;Tatar;Nizhny Novgorod Oblast;_____ ________ ______;Q2246;;;RU;RU-NIZ;yes;Russian Federation;yes;regional;Europe;Eastern Europe;
tum;Tumbuka;Karonga;;Q868819;;;MW;MW-KR;yes;Malawi;yes;no;Africa;Sub-Saharan Africa;Eastern Africa
tum;Tumbuka;Chitipa;;Q1044337;;;MW;MW-CT;yes;Malawi;yes;no;Africa;Sub-Saharan Africa;Eastern Africa
tum;Tumbuka;Rumphi;;Q1044312;;;MW;MW-RU;yes;Malawi;yes;no;Africa;Sub-Saharan Africa;Eastern Africa
tum;Tumbuka;Mzimba;;Q1045435;;;MW;MW-MZ;yes;Malawi;yes;no;Africa;Sub-Saharan Africa;Eastern Africa
tum;Tumbuka;Nkhotakota;;Q687248;;;MW;MW-NK;yes;Malawi;yes;no;Africa;Sub-Saharan Africa;Eastern Africa
tum;Tumbuka;Nkhata Bay;;Q1051505;;;MW;MW-NB;yes;Malawi;yes;no;Africa;Sub-Saharan Africa;Eastern Africa
tum;Tumbuka;Eastern;;Q823810;;;ZM;ZM-03;yes;Zambia;yes;no;Africa;Sub-Saharan Africa;Eastern Africa
tum;Tumbuka;Northern;;Q778738;;;ZM;ZM-05;yes;Zambia;yes;no;Africa;Sub-Saharan Africa;Eastern Africa
tum;Tumbuka;Lundazi;Lundazi;Q260171;;;ZM;;yes;Zambia;yes;no;Africa;Sub-Saharan Africa;Eastern Africa
tw;Twi;Ghana;Gana;Q117;;;GH;;no;Ghana;yes;national;Africa;Sub-Saharan Africa;Western Africa
ty;Tahitian;Leeward Islands;;Q29971;;;FR;FR-PR;yes;French Polynesia;yes;national;Europe;Western Europe;
ty;Tahitian;Windward Islands;;Q183416;;;FR;FR-PR;yes;French Polynesia;yes;national;Europe;Western Europe;
ty;Tahitian;Tuamotus;Te taamotu no Maareva m_;Q183963;;;FR;FR-PR;yes;French Polynesia;yes;national;Europe;Western Europe;
tyv;Tuva;Tuva Republic;____ __________;Q960;;;RU;RU-TY;yes;Russian Federation;yes;no;Europe;Eastern Europe;
tyv;Tuva;Krasnoyarsk Krai;;Q6563;;;RU;RU-KYA;yes;Russian Federation;yes;no;Europe;Eastern Europe;
tyv;Tuva;Dzavhan;;Q167764;;;MN;MN-057;yes;Mongolia;yes;no;Asia;Eastern Asia;
tyv;Tuva;Uvs;;Q192942;;;MN;MN-046;yes;Mongolia;yes;no;Asia;Eastern Asia;
udm;Udmurt;Udmurt;________;Q5422;;;RU;RU-UD;yes;Russian Federation;yes;no;Europe;Eastern Europe;
ug;Uyghur;Xinjiang;"	______ ______ ________ ______";Q34800;;;CN;CN-XJ;yes;China;yes;regional;Asia;Eastern Asia;
ug;Uyghur;Gansu;_____ _______;Q42392;;;CN;CN-GS;yes;China;yes;regional;Asia;Eastern Asia;
ug;Uyghur;Kazakhstan;__________;Q232;"Kazakhstani;Kazakh";;KZ;;no;Kazakhstan;yes;no;Asia;Central Asia;
ug;Uyghur;Govi-Altay;;Q192945;;;MN;MN-065;yes;Mongolia;yes;no;Asia;Eastern Asia;
uk;Ukrainian;Ukraine;_______;Q212;Ukrainian;"_________;________;________";UA;;no;Ukraine;yes;national;Europe;Eastern Europe;
uk;Ukrainian;Ocni_a;_________;Q266444;;;MD;MD-OC;yes;Moldova;yes;no;Europe;Eastern Europe;
uk;Ukrainian;Transnitria;___________'_;Q648767;;;MD;MD-SN;yes;Moldova;yes;no;Europe;Eastern Europe;
uk;Ukrainian;Rî_cani;___________;Q611656;;;MD;MD-RI;yes;Moldova;yes;no;Europe;Eastern Europe;
uk;Ukrainian;Briceni;___________;Q753795;;;MD;MD-BR;yes;Moldova;yes;no;Europe;Eastern Europe;
uk;Ukrainian;Maramure_;_________;Q188813;;;RO;RO-MM;yes;Romania;yes;no;Europe;Eastern Europe;
uk;Ukrainian;Suceava;______;Q181209;;;RO;RO-SV;yes;Romania;yes;no;Europe;Eastern Europe;
ur;Urdu;Pakistan;_______;Q843;Pakistani;;PK;;no;Pakistan;yes;national;Asia;Southern Asia;
ur;Urdu;Jammu and Kashmir;____ _ _____;Q1180;;;IN;IN-JK;yes;India;yes;regional;Asia;Southern Asia;
ur;Urdu;Maharashtra;________;Q1191;;;IN;IN-MH;yes;India;yes;regional;Asia;Southern Asia;
ur;Urdu;India;_____;Q668;Indian;______;IN;;no;India;yes;regional;Asia;Southern Asia;
uz;Uzbek, Northern;Uzbekistan;O_zbekiston;Q265;Uzbekistani;;UZ;;no;Uzbekistan;yes;national;Asia;Central Asia;
uz;Uzbek, Northern;Sughd;Sug_d;Q241582;;;TJ;TJ-SU;yes;Tajikistan;yes;no;Asia;Central Asia;
uz;Uzbek, Northern;Khatlon;Xatlon;Q633511;;;TJ;TJ-KT;yes;Tajikistan;yes;no;Asia;Central Asia;
uz;Uzbek, Northern;Da_oguz Province;Dashoguz;Q487393;;;TM;;yes;Turkmenistan;yes;no;Asia;Central Asia;
uz;Uzbek, Southern;Balkh;;Q121104;;;AF;AF-BAL;yes;Afghanistan;yes;regional;Asia;Southern Asia;
uz;Uzbek, Southern;Baghlan;;Q170309;;;AF;AF-BGL;yes;Afghanistan;yes;regional;Asia;Southern Asia;
uz;Uzbek, Southern;Badghis;;Q172052;;;AF;AF-BDG;yes;Afghanistan;yes;regional;Asia;Southern Asia;
uz;Uzbek, Southern;Faryab;;Q173830;;;AF;AF-FYB;yes;Afghanistan;yes;regional;Asia;Southern Asia;
uz;Uzbek, Southern;Samangan;;Q183015;;;AF;AF-SAM;yes;Afghanistan;yes;regional;Asia;Southern Asia;
uz;Uzbek, Southern;Jowzjan;Jo_zjon;Q183036;;;AF;AF-JOW;yes;Afghanistan;yes;regional;Asia;Southern Asia;
uz;Uzbek, Southern;Takhar;;Q186395;;;AF;AF-TAK;yes;Afghanistan;yes;regional;Asia;Southern Asia;
ve;Venda;Limpopo;Limpopo;Q134907;;;ZA;ZA-LP;yes;South Africa;yes;national;Africa;Sub-Saharan Africa;Southern Africa
ve;Venda;Matabeleland South;;Q498355;;;ZW;ZW-MS;yes;Zimbabwe;yes;no;Africa;Sub-Saharan Africa;Eastern Africa
ve;Venda;Masvingo;;Q498351;;;ZW;ZW-MV;yes;Zimbabwe;yes;no;Africa;Sub-Saharan Africa;Eastern Africa
ve;Venda;Midlands;;Q456556;;;ZW;ZW-MI;yes;Zimbabwe;yes;no;Africa;Sub-Saharan Africa;Eastern Africa
vec;Venetian;Veneto;Vèneto;Q1243;;;IT;IT-34;yes;Italy;yes;no;Europe;Southern Europe;
vec;Venetian;Trentino;Trentin;Q16289;;;IT;IT-TN;yes;Italy;yes;no;Europe;Southern Europe;
vec;Venetian;Gorizia;Gorisia;Q16184;;;IT;IT-GO;yes;Italy;yes;no;Europe;Southern Europe;
vec;Venetian;Pordenone;Pordenon;Q16247;;;IT;IT-PN;yes;Italy;yes;no;Europe;Southern Europe;
vec;Venetian;Trieste;Trieste;Q16293;;;IT;IT-TS;yes;Italy;yes;no;Europe;Southern Europe;
vep;Veps;Leningrad;Leningradan agj;Q2191;;;RU;RU-LEN;yes;Russian Federation;yes;no;Europe;Eastern Europe;
vep;Veps;Vologda Oblast;Vologdan agj;Q2015;;;RU;RU-VLG;yes;Russian Federation;yes;no;Europe;Eastern Europe;
vi;Vietnamese;Vietnam;Vi_t Nam;Q881;;;VN;;no;Viet Nam;yes;national;Asia;South-eastern Asia;
vi;Vietnamese;Guangxi Zhuang Autonomous;Qu_ng Tây;Q15176;;;CN;CN-GX;yes;China;yes;no;Asia;Eastern Asia;
vi;Vietnamese;Shanxi;S_n Tây;Q46913;;;CN;CN-SX;yes;China;yes;no;Asia;Eastern Asia;
vi;Vietnamese;Jianping County;Ki_n Bình;Q1333476;;;CN;;yes;China;yes;no;Asia;Eastern Asia;
vls;Vlaams;Flanders;Vloandern;Q234;;;BE;BE-VLG;yes;Belgium;yes;no;Europe;Western Europe;
vls;Vlaams;Dunkirk;Duunkerke;Q45797;;;FR;;yes;France;yes;no;Europe;Western Europe;
vls;Vlaams;Zeeland;Zêeland;Q705;;;NL;NL-ZE;yes;Netherlands;yes;no;Europe;Western Europe;
vo;Volapük;;;;;;;;;;;;;;
wa;Walloon;Brussels-Capital Region;Brussele (redjon);Q240;;;BE;BE-BRU;yes;Belgium;yes;no;Europe;Western Europe;
wa;Walloon;Walloon Brabant;Roman Payis;Q1122;;;BE;BE-WBR;yes;Belgium;yes;no;Europe;Western Europe;
wa;Walloon;Liège;Lidje;Q1127;;;BE;BE-WLG;yes;Belgium;yes;no;Europe;Western Europe;
wa;Walloon;Namur;Nameur;Q1125;;;BE;BE-WNA;yes;Belgium;yes;no;Europe;Western Europe;
wa;Walloon;Hainaut;Hinnot;Q1129;;;BE;BE-WHT;yes;Belgium;yes;no;Europe;Western Europe;
war;Waray-Waray;Biliran;Biliran;Q13751;;;PH;PH-BIL;yes;Philippines;yes;no;Asia;South-eastern Asia;
war;Waray-Waray;Eastern Samar;Eastern Samar;Q13809;;;PH;PH-EAS;yes;Philippines;yes;no;Asia;South-eastern Asia;
war;Waray-Waray;Northern Samar;Northern Samar;Q13864;;;PH;PH-NSA;yes;Philippines;yes;no;Asia;South-eastern Asia;
war;Waray-Waray;Samar;Samar;Q13876;;;PH;PH-WSA;yes;Philippines;yes;no;Asia;South-eastern Asia;
war;Waray-Waray;Leyte;Leyte;Q13844;;;PH;PH-LEY;yes;Philippines;yes;no;Asia;South-eastern Asia;
wo;Wolof;Senegal;Senegaal;Q1041;Senegalese;;SN;;no;Senegal;yes;no;Africa;Sub-Saharan Africa;Western Africa
wo;Wolof;Brakna;;Q12632;;;MR;MR-05;yes;Mauritania;yes;no;Africa;Sub-Saharan Africa;Western Africa
wo;Wolof;Trarza;;Q859581;;;MR;MR-06;yes;Mauritania;yes;no;Africa;Sub-Saharan Africa;Western Africa
wuu;Chinese, Wu;Anhui;___;Q40956;;;CN;CN-AH;yes;China;yes;no;Asia;Eastern Asia;
wuu;Chinese, Wu;Fujian;___;Q41705;;;CN;CN-FJ;yes;China;yes;no;Asia;Eastern Asia;
wuu;Chinese, Wu;Jiangsu;___;Q16963;;;CN;CN-JS;yes;China;yes;no;Asia;Eastern Asia;
wuu;Chinese, Wu;Jiangxi;___;Q57052;;;CN;CN-JX;yes;China;yes;no;Asia;Eastern Asia;
wuu;Chinese, Wu;Shanghai;__;Q8686;;;CN;CN-SH;yes;China;yes;no;Asia;Eastern Asia;
wuu;Chinese, Wu;Zhejiang;___;Q16967;;;CN;CN-ZJ;yes;China;yes;no;Asia;Eastern Asia;
xal;Kalmyk-Oirat;Astrakhan;_______ ______;Q3941;;;RU;RU-AST;yes;Russian Federation;yes;regional;Europe;Eastern Europe;
xal;Kalmyk-Oirat;Republic of Kalmykia;______ _____;Q3953;;;RU;RU-KL;yes;Russian Federation;yes;regional;Europe;Eastern Europe;
xal;Kalmyk-Oirat;Stavropol Krai;___________ ___ ____;Q5207;;;RU;RU-STA;yes;Russian Federation;yes;regional;Europe;Eastern Europe;
xh;Xhosa;Eastern Cape;IPhondo yaMpuma-Koloni;Q130840;;;ZA;ZA-EC;yes;South Africa;yes;national;Africa;Sub-Saharan Africa;Southern Africa
xh;Xhosa;Northern Cape;IPhondo yaseMntla-Koloni;Q132418;;;ZA;ZA-NC;yes;South Africa;yes;national;Africa;Sub-Saharan Africa;Southern Africa
xh;Xhosa;KwaZulu-Natal;IPhondo yaKwaZulu-Natala;Q81725;;;ZA;ZA-NL;yes;South Africa;yes;national;Africa;Sub-Saharan Africa;Southern Africa
xh;Xhosa;Free;IPhondo yaFreyistata;Q160284;;;ZA;ZA-FS;yes;South Africa;yes;national;Africa;Sub-Saharan Africa;Southern Africa
xh;Xhosa;Quthing;;Q839060;;;LS;LS-G;yes;Lesotho;yes;no;Africa;Sub-Saharan Africa;Southern Africa
xh;Xhosa;Qacha's Nek District;;Q850423;;;LS;LS-H;yes;Lesotho;yes;no;Africa;Sub-Saharan Africa;Southern Africa
xmf;Mingrelian;Abkhazia;________;Q23334;Abkhaz;;GE;GE-AB;yes;Georgia;yes;no;Asia;Western Asia;
xmf;Mingrelian;Guria;______ _____;Q19038;;;GE;GE-GU;yes;Georgia;yes;no;Asia;Western Asia;
xmf;Mingrelian;Imereti;________ _____;Q200045;;;GE;GE-IM;yes;Georgia;yes;no;Asia;Western Asia;
xmf;Mingrelian;Tsageri;_______ ______________;Q2489909;;;GE;;yes;Georgia;yes;no;Asia;Western Asia;
xmf;Mingrelian;Samegrelo-Zemo Svaneti;_________-________ _____ _____;Q200309;;;GE;;yes;Georgia;yes;no;Asia;Western Asia;
yi;Yiddish, Eastern;Ukraine;________;Q212;Ukrainian;;UA;;no;Ukraine;yes;no;Europe;Eastern Europe;
yi;Yiddish, Western;Germany;_________;Q183;German;;DE;;no;Germany;yes;no;Europe;Western Europe;
yo;Yoruba;Nigeria;Nàìjíríà;Q1033;Nigerian;;NG;;no;Nigeria;yes;regional;Africa;Sub-Saharan Africa;Western Africa
za;Zhuang, Central Hongshuihe;Guangxi Zhuang Autonomous;Gvangjsih Bouxcuengh Swcigih;Q15176;;;CN;CN-GX;yes;China;yes;no;Asia;Eastern Asia;
za;Zhuang, Dai;Yunnan;Yinznanz;Q43194;;;CN;CN-YN;yes;China;yes;no;Asia;Eastern Asia;
za;Zhuang, Eastern Hongshuihe;Guangdong;Gvangjdungh;Q15175;;;CN;CN-GD;yes;China;yes;no;Asia;Eastern Asia;
za;Zhuang, Guibei;Hunan;Huznanz;Q45761;;;CN;CN-HN;yes;China;yes;no;Asia;Eastern Asia;
za;Zhuang, Guibei;Guizhou;Gveicouh;Q47097;;;CN;CN-GZ;yes;China;yes;no;Asia;Eastern Asia;
zea;Zeeuws;South Holland;Zuud-'Olland;Q694;;;NL;NL-ZH;yes;Netherlands;yes;no;Europe;Western Europe;
zea;Zeeuws;Zeeland;Zeêland;Q705;;;NL;NL-ZE;yes;Netherlands;yes;no;Europe;Western Europe;
zh;Chinese, Mandarin;Guangxi Zhuang Autonomous;_______;Q15176;;;CN;CN-GX;yes;China;yes;national;Asia;Eastern Asia;
zh;Chinese, Mandarin;Jiangsu;___;Q16963;;;CN;CN-JS;yes;China;yes;national;Asia;Eastern Asia;
zh;Chinese, Mandarin;Sichuan;___;Q19770;;;CN;CN-SC;yes;China;yes;national;Asia;Eastern Asia;
zh;Chinese, Mandarin;Yunnan;___;Q43194;;;CN;CN-YN;yes;China;yes;national;Asia;Eastern Asia;
zh;Chinese, Mandarin;Hunan;___;Q45761;;;CN;CN-HN;yes;China;yes;national;Asia;Eastern Asia;
zh;Chinese, Mandarin;Hubei;___;Q46862;;;CN;CN-HB;yes;China;yes;national;Asia;Eastern Asia;
zh;Chinese, Mandarin;Guizhou;___;Q47097;;;CN;CN-GZ;yes;China;yes;national;Asia;Eastern Asia;
zh;Chinese, Mandarin;Jiangxi;___;Q57052;;;CN;CN-JX;yes;China;yes;national;Asia;Eastern Asia;
zh;Chinese, Mandarin;Taiwan;____;Q865;;;TW;;no;Taiwan;no;national;Asia;Eastern Asia;
zh;Chinese, Mandarin;Sarawak;___;Q170462;;;MY;MY-13;yes;Malaysia;no;national;Asia;South-eastern Asia;
zh;Chinese, Mandarin;Sabah;__;Q179029;;;MY;MY-12;yes;Malaysia;no;national;Asia;South-eastern Asia;
zh_classical;Classical Chinese;China;_______;Q148;;;CN;;no;China;yes;national;Asia;Eastern Asia;
zh_yue;Chinese, Yue;Guangdong;__;Q15175;;;CN;CN-GD;yes;China;yes;regional;Asia;Eastern Asia;
zh_yue;Chinese, Yue;Guangxi;__;Q15176;;;CN;CN-45;yes;China;yes;regional;Asia;Eastern Asia;
zh_yue;Chinese, Yue;Hainan;__;Q42200;;;CN;CN-HI;yes;China;yes;regional;Asia;Eastern Asia;
zh_yue;Chinese, Yue;Hunan;__;Q45761;;;CN;CN-HN;yes;China;yes;regional;Asia;Eastern Asia;
zh_yue;Chinese, Yue;Hong Kong;__;Q8646;;;HK;;no;Hong Kong;yes;regional;Asia;Eastern Asia;
zh_yue;Chinese, Yue;Macao;__;Q14773;;;MO;;no;Macao;yes;regional;Asia;Eastern Asia;
zh_yue;Chinese, Yue;Johor;___;Q183032;;;MY;MY-01;yes;Malaysia;no;regional;Asia;South-eastern Asia;
zu;Zulu;KwaZulu-Natal;KwaZulu-Natal;Q81725;;;ZA;ZA-NL;yes;South Africa;yes;national;Africa;Sub-Saharan Africa;Southern Africa
zu;Zulu;Mpumalanga;Mpumalanga;Q132410;;;ZA;ZA-MP;yes;South Africa;yes;national;Africa;Sub-Saharan Africa;Southern Africa
zu;Zulu;Gauteng;Mpumalanga;Q133083;;;ZA;ZA-GT;yes;South Africa;yes;national;Africa;Sub-Saharan Africa;Southern Africa
hyw;Western Armenian;Aragatsotn;;Q1144535;;;AM;AM-AG;yes;Armenia;yes;no;Asia;Western Asia;
hyw;Western Armenian;Gegharkunik;;Q1144970;;;AM;AM-GR;yes;Armenia;yes;no;Asia;Western Asia;
hyw;Western Armenian;Shirak;;Q201063;;;AM;AM-SH;yes;Armenia;yes;no;Asia;Western Asia;
hyw;Western Armenian;Samtskhe-Javakheti;;Q19039;;;GE;GE-SJ;yes;Georgia;yes;no;Asia;Western Asia;
hyw;Western Armenian;Kvemo Kartli;;Q200048;;;GE;GE-KK;yes;Georgia;yes;no;Asia;Western Asia;
wa;Walloon;Wallonia;Walonreye;Q231;;;BE;BE-WAL;yes;Belgium;yes;no;Europe;Western Europe;
dz;Dzongkha;Bhutan;__________;Q917;;;BT;;no;Bhutan;yes;national;Asia;Southern Asia;
zh;Chinese, Mandarin;Macao;__;Q14773;;;MO;;no;Macao;no;national;Asia;South-eastern Asia;
zh;Chinese, Mandarin;Hong Kong;__;Q8646;;;HK;;no;Hong Kong;no;national;Asia;Eastern Asia;
en;English;South Sudan;South Sudan;Q958;South Sudanese;South sudanese;SS;;no;South Sudan;no;yes;Africa;Sub-Saharan Africa;Eastern Africa
pt;Portuguese;Sao Tome and Principe;São Tomé e Príncipe;Q1039;São Toméan;;ST;;no;Sao Tome and Principe;no;national;Africa;Sub-Saharan Africa;Middle Africa